 2019  228 0119 58.0 L  10.472 -67.934  2.0  FUN  4 0.2 2.0WFUN                1
 SPEC AVERAGE  MO 12.1 ST  5.9 OM  1.2 f0 10.8 R0.1116 AL 2.76 WI 29.3 MW  2.0 3
 SPEC SD       MO  0.2 ST  3.4 OM  0.1 f0 1.20 R0.0135 AL      WI      MW  0.2 3
 GAP=222        0.62       3.7     2.1  3.6  0.3193E+01  0.3895E+01  0.1945E+01E
 SPEC TERVHH N MO 12.3 ST  8.8 OM  1.3 f0 11.5 R0.1030 AL 2.53 WI 32.1 MW  2.2 3
 SPEC TERVHH N T 12040 K 0.020 GD  122 VS 3.20 DE 2.60 Q0 65.0 QA 1.10 Q1 1.00 3
 SPEC BENVHH N MO 11.8 ST  1.2 OM  1.0 f0 9.06 R0.1307 AL 3.21 WI 32.1 MW  1.8 3
 SPEC BENVHH N T 12016 K 0.020 GD 67.2 VS 3.20 DE 2.60 Q0 65.0 QA 1.10 Q1 1.00 3
 SPEC BAUVHH E MO 12.3 ST  7.8 OM  1.2 f0 11.7 R0.1012 AL 2.55 WI 23.8 MW  2.1 3
 SPEC BAUVHH E T 12044 K 0.020 GD  130 VS 3.20 DE 2.60 Q0 65.0 QA 1.10 Q1 1.00 3
 ACTION:UP  19-02-28 00:17 OP:icm  STATUS:               ID:20190228011800     I
 OLDACT:UP  19-02-28 00:12 OP:icm  STATUS:               ID:20190228011800     3
 OLDACT:UP  19-02-28 00:11 OP:icm  STATUS:               ID:20190228011800     3
 OLDACT:UP  19-02-28 00:08 OP:icm  STATUS:               ID:20190228011800     3
 2019-02-28-0118-00S.MAN___119                                                 6
 STAT SP IPHASW D HRMM SECON CODA AMPLIT PERI AZIMU VELO AIN AR TRES W  DIS CAZ7
 BENV HZ EP        120  9.53                              92   -0.2810 67.2 147 
 BENV HN ES        120 18.74                              92    0.1910 67.2 147 
 TACV HZ EP        120 16.30                              65    0.2310  106 110 
 TERV HZ EP        120 22.97                              65    0.1010  149 248 
 TERV HN ES        120 41.36                              65    0.1010  149 248 
 BAUV HZ EP        120 25.47                              43   -0.3910  169 184 
 BAUV HE ES        120 46.52                              43    0.0510  169 184 
                                                                                
 2019  228 0245 50.0 L  10.373 -67.241 63.7  FUN  4 0.5 2.1WFUN                1
 SPEC AVERAGE  MO 12.2 ST  8.0 OM  0.8 f0 12.8 R0.1271 AL 4.51 WI 30.2 MW  2.1 3
 SPEC SD       MO  0.1 ST  6.9 OM  0.1 f0 4.30 R0.0427 AL      WI      MW  0.1 3
 GAP=240        1.21      10.5    10.4 12.7 -0.4059E+02  0.4534E+02 -0.2507E+02E
 SPEC BENVHH E MO 12.1 ST  1.2 OM  0.9 f0 8.50 R0.1698 AL 1.89 WI 33.5 MW  2.0 3
 SPEC BENVHH E T 24610 K 0.020 GD 87.5 VS 3.90 DE 2.90 Q0 81.0 QA 1.10 Q1 1.00 3
 SPEC BAUVHH N MO 12.3 ST 14.9 OM  0.8 f0 17.1 R0.0844 AL 7.12 WI 26.9 MW  2.1 3
 SPEC BAUVHH N T 24634 K 0.020 GD  191 VS 3.90 DE 2.90 Q0 81.0 QA 1.10 Q1 1.00 3
 ACTION:UP  19-02-27 23:38 OP:icm  STATUS:               ID:20190228024400     I
 OLDACT:UP  19-02-27 23:33 OP:icm  STATUS:               ID:20190228024400     3
 2019-02-28-0244-00S.MAN___119                                                 6
 STAT SP IPHASW D HRMM SECON CODA AMPLIT PERI AZIMU VELO AIN AR TRES W  DIS CAZ7
 TACV HZ EP        246  0.10                             146   -0.4010 35.0 138 
 BENV HZ EP        246  3.21                             129    0.6610 60.0 221 
 BENV HE ES        246 11.86                             129    0.0210 60.0 221 
 BAUV HZ EP        246 16.57                             101    0.5910  181 209 
 BAUV HN ES        246 34.76                             101   -0.4410  181 209 
 TERV HZ EP        246 20.06                              99   -0.4310  218 258 
                                                                                
 2019  228 0305 17.4 L  10.291 -68.167 21.1  FUN  4 0.2 2.3WFUN                1
 SPEC AVERAGE  MO 12.5 ST 13.3 OM  1.5 f0 10.5 R0.1153 AL 3.63 WI 38.5 MW  2.3 3
 SPEC SD       MO  0.2 ST  9.5 OM  0.1 f0 1.58 R0.0191 AL      WI      MW  0.1 3
 GAP=205        0.60       3.5     1.7  2.8 -0.2003E-01  0.2418E+01 -0.7429E+00E
 SPEC TERVHH N MO 12.5 ST 16.7 OM  1.5 f0 12.3 R0.0963 AL 4.02 WI 40.5 MW  2.3 3
 SPEC TERVHH N T 3 550 K 0.020 GD  119 VS 3.20 DE 2.60 Q0 65.0 QA 1.10 Q1 1.00 3
 SPEC TACVHH N MO 12.4 ST  6.4 OM  1.3 f0 10.2 R0.1161 AL 3.23 WI 48.4 MW  2.2 3
 SPEC TACVHH N T 3 547 K 0.020 GD  127 VS 3.20 DE 2.60 Q0 65.0 QA 1.10 Q1 1.00 3
 SPEC BENVHH N MO 12.3 ST  3.0 OM  1.5 f0 8.11 R0.1460 AL 3.28 WI 30.8 MW  2.2 3
 SPEC BENVHH N T 3 537 K 0.020 GD 75.1 VS 3.20 DE 2.60 Q0 65.0 QA 1.10 Q1 1.00 3
 SPEC BAUVHH E MO 12.8 ST 27.3 OM  1.7 f0 11.5 R0.1030 AL 4.01 WI 34.3 MW  2.5 3
 SPEC BAUVHH E T 3 556 K 0.020 GD  151 VS 3.20 DE 2.60 Q0 65.0 QA 1.10 Q1 1.00 3
 ACTION:UP  19-02-28 00:13 OP:icm  STATUS:               ID:20190228030300     I
 OLDACT:UP  19-02-27 23:19 OP:icm  STATUS:               ID:20190228030300     3
 OLDACT:UP  19-02-27 23:15 OP:icm  STATUS:               ID:20190228030300     3
 OLDACT:REG 19-02-27 23:15 OP:icm  STATUS:               ID:20190228030300     3
 2019-02-28-0303-00S.MAN___119                                                 6
 STAT SP IPHASW D HRMM SECON CODA AMPLIT PERI AZIMU VELO AIN AR TRES W  DIS CAZ7
 BENV HZ EP        3 5 30.15                             103    0.4010 72.1 120 
 BENV HN ES        3 5 38.70                             103   -0.2210 72.1 120 
 TERV HZ EP        3 5 36.64                              49   -0.2910  118 252 
 TERV HN ES        3 5 51.57                              49    0.1810  118 252 
 TACV HZ EP        3 5 37.74                              49   -0.1610  126  98 
 TACV HN ES        3 5 53.18                              49    0.0910  126  98 
 BAUV HZ EP        3 5 40.71                              49    0.0210  150 175 
 BAUV HE ES        3 5 57.93                              49   -0.0210  150 175 
                                                                                
 2019  228 1016  1.5 L  10.216 -68.094 21.3  FUN  5 0.4 2.5WFUN                1
 SPEC AVERAGE  MO 12.8 ST 28.2 OM  1.8 f0 10.8 R0.1119 AL 3.12 WI 35.6 MW  2.5 3
 SPEC SD       MO  0.2 ST 20.5 OM  0.1 f0 1.45 R0.0143 AL      WI      MW  0.2 3
 GAP=182        1.02       4.6     3.0  4.4 -0.3587E+01  0.8350E+01 -0.3336E+01E
 SPEC FUNVHH N MO 13.0 ST 28.6 OM  1.9 f0 10.1 R0.1172 AL 2.64 WI 36.5 MW  2.6 3
 SPEC FUNVHH N T101638 K 0.020 GD  144 VS 3.20 DE 2.60 Q0 65.0 QA 1.10 Q1 1.00 3
 SPEC TERVHH E MO 13.1 ST 66.9 OM  2.0 f0 13.1 R0.0904 AL 4.49 WI 37.9 MW  2.6 3
 SPEC TERVHH E T101636 K 0.020 GD  125 VS 3.20 DE 2.60 Q0 65.0 QA 1.10 Q1 1.00 3
 SPEC TACVHH E MO 12.6 ST 17.9 OM  1.6 f0 11.7 R0.1012 AL 3.83 WI 33.0 MW  2.4 3
 SPEC TACVHH E T101633 K 0.020 GD  118 VS 3.20 DE 2.60 Q0 65.0 QA 1.10 Q1 1.00 3
 SPEC BENVHH N MO 12.5 ST  7.4 OM  1.7 f0 9.87 R0.1200 AL 2.68 WI 43.2 MW  2.3 3
 SPEC BENVHH N T101618 K 0.020 GD 64.7 VS 3.20 DE 2.60 Q0 65.0 QA 1.10 Q1 1.00 3
 SPEC BAUVHH N MO 13.0 ST 19.9 OM  1.9 f0 9.06 R0.1307 AL 1.97 WI 27.3 MW  2.6 3
 SPEC BAUVHH N T101638 K 0.020 GD  142 VS 3.20 DE 2.60 Q0 65.0 QA 1.10 Q1 1.00 3
 ACTION:UP  19-02-28 06:42 OP:y    STATUS:               ID:20190228101400     I
 OLDACT:UP  19-02-28 06:41 OP:y    STATUS:               ID:20190228101400     3
 OLDACT:UP  19-02-28 06:25 OP:icm  STATUS:               ID:20190228101400     3
 OLDACT:UP  19-02-28 06:22 OP:icm  STATUS:               ID:20190228101400     3
 OLDACT:REG 19-02-28 06:22 OP:icm  STATUS:               ID:20190228101400     3
 2019-02-28-1014-00S.MAN___119                                                 6
 STAT SP IPHASW D HRMM SECON CODA AMPLIT PERI AZIMU VELO AIN AR TRES W  DIS CAZ7
 BENV HZ EP       1016 11.99                             106   -0.2010 61.1 117 
 BENV HN ES       1016 20.08                             106   -0.0210 61.1 117 
 TACV HZ EP       1016 21.46                              49    0.5210  117  94 
 TACV HE ES       1016 35.89                              49    0.5610  117  94 
 TERV HZ EP       1016 21.55                              49   -0.1410  124 257 
 TERV HE ES       1016 36.89                              49    0.2510  124 257 
 BAUV HZ EP       1016 23.98                              49    0.2510  141 178 
 BAUV HN ES       1016 39.89                              49   -0.3010  141 178 
 FUNV HZ EP       1016 23.38                              49   -0.7510  143  79 
 FUNV HN ES       1016 40.70                              49   -0.1810  143  79 
                                                                                
 2019  228 1050 32.6 L   9.662 -67.053 15.5  FUN  4 0.6 2.2WFUN                1
 SPEC AVERAGE  MO 12.4 ST  4.5 OM  1.3 f0 6.33 R0.7084 AL 2.94 WI 38.9 MW  2.2 3
 SPEC SD       MO  0.1 ST  5.8 OM  0.3 f0 4.94 R0.7886 AL      WI      MW  0.1 3
 GAP=231        1.46       5.5     7.8  7.3 -0.1600E+02  0.9850E+01  0.1624E+00E
 SPEC TERVHH N MO 12.4 ST 12.6 OM  1.0 f0 12.7 R0.0932 AL 5.33 WI 44.0 MW  2.2 3
 SPEC TERVHH N T105130 K 0.020 GD  237 VS 3.20 DE 2.60 Q0 65.0 QA 1.10 Q1 1.00 3
 SPEC BENVHH E MO 12.5 ST0.003 OM  1.8 f00.650 R1.8215 AL 1.16 WI 40.9 MW  2.3 3
 SPEC BENVHH E T105051 K 0.020 GD 70.2 VS 3.20 DE 2.60 Q0 65.0 QA 1.10 Q1 1.00 3
 SPEC BAUVHH N MO 12.2 ST0.756 OM  1.1 f0 5.63 R0.2103 AL 2.34 WI 31.7 MW  2.1 3
 SPEC BAUVHH N T1051 9 K 0.020 GD  135 VS 3.20 DE 2.60 Q0 65.0 QA 1.10 Q1 1.00 3
 ACTION:UP  19-02-28 07:47 OP:db   STATUS:               ID:20190228104900     I
 OLDACT:UP  19-02-28 07:45 OP:db   STATUS:               ID:20190228104900     3
 OLDACT:UP  19-02-28 07:41 OP:db   STATUS:               ID:20190228104900     3
 OLDACT:REG 19-02-28 07:41 OP:db   STATUS:               ID:20190228104900     3
 2019-02-28-1049-00S.MAN___119                                                 6
 STAT SP IPHASW D HRMM SECON CODA AMPLIT PERI AZIMU VELO AIN AR TRES W  DIS CAZ7
 TACV HZ EP       1050 42.16                             101    0.3710 52.8   3 
 BENV HZ EP       1050 43.60                              98   -0.6710 68.5 299 
 BENV HE ES       1050 53.16                              98    0.2510 68.5 299 
 BAUV HZ EP       1050 53.88                              93   -0.8010  135 234 
 BAUV HN ES       1051 11.77                              93    0.7610  135 234 
 TERV HZ EP       1051  7.54                              49    0.4710  237 278 
 TERV HN ES       1051 32.19                              49   -0.3810  237 278 
                                                                                
 2019  3 1 1340 38.6 L  10.382 -68.642  5.0F FUN  3 0.5 2.4WFUN                1
 SPEC AVERAGE  MO 12.7 ST  6.8 OM  1.9 f0 7.45 R0.1701 AL 2.53 WI 44.0 MW  2.4 3
 SPEC SD       MO  0.1 ST  4.5 OM  0.2 f0 1.91 R0.0441 AL      WI      MW  0.1 3
 GAP=285        1.17       8.9     4.8  6.5  0.1969E+02 -0.1688E+02 -0.2022E+02E
 SPEC TERVHH E MO 12.9 ST  2.9 OM  2.0 f0 5.21 R0.2273 AL 2.41 WI 41.8 MW  2.5 3
 SPEC TERVHH E T134059 K 0.020 GD 76.0 VS 3.20 DE 2.60 Q0 65.0 QA 1.10 Q1 1.00 3
 SPEC MAPVHH N MO 12.6 ST  4.4 OM  1.9 f0 7.26 R0.1631 AL 1.96 WI 39.6 MW  2.4 3
 SPEC MAPVHH N T134056 K 0.020 GD 64.2 VS 3.20 DE 2.60 Q0 65.0 QA 1.10 Q1 1.00 3
 SPEC BAUVHH E MO 12.7 ST 13.0 OM  1.6 f0 9.87 R0.1200 AL 3.21 WI 50.6 MW  2.4 3
 SPEC BAUVHH E T134125 K 0.020 GD  131 VS 3.20 DE 2.60 Q0 65.0 QA 1.10 Q1 1.00 3
 ACTION:UP  19-03-01 09:56 OP:mrc  STATUS:               ID:20190301133900     I
 OLDACT:UP  19-03-01 09:55 OP:mrc  STATUS:               ID:20190301133900     3
 OLDACT:UP  19-03-01 09:54 OP:mrc  STATUS:               ID:20190301133900     3
 OLDACT:UP  19-03-01 09:53 OP:mrc  STATUS:               ID:20190301133900     3
 OLDACT:UP  19-03-01 09:52 OP:mrc  STATUS:               ID:20190301133900     3
 OLDACT:UP  19-03-01 09:49 OP:mrc  STATUS:               ID:20190301133900     3
 OLDACT:UP  19-03-01 09:45 OP:mrc  STATUS:               ID:20190301133900     3
 OLDACT:REG 19-03-01 09:45 OP:mrc  STATUS:               ID:20190301133900     3
 2019-03-01-1339-00S.MAN___119                                                 6
 STAT SP IPHASW D HRMM SECON CODA AMPLIT PERI AZIMU VELO AIN AR TRES W  DIS CAZ7
 MAPV HZ EP       1340 49.47                              90   -0.4210 64.2 162 
 MAPV HN ES       1340 58.15                              90   -0.0810 64.2 162 
 TERV HZ EP       1340 51.30                              90   -0.6510 76.0 233 
 TERV HE ES       1341  2.21                              90    0.4010 76.0 233 
 BAUV HZ EP       1341  7.74                              43    0.6910  172 157 
 BAUV HE ES       1341 28.15                              43    0.0610  172 157 
                                                                                
 2019  3 1 1349 47.5 L  10.231 -68.121 16.0  FUN  5 0.3 2.7WFUN                1
 SPEC AVERAGE  MO 13.1 ST 20.4 OM  2.1 f0 7.60 R0.1644 AL 3.39 WI 33.8 MW  2.7 3
 SPEC SD       MO  0.1 ST 18.3 OM  0.2 f0 1.84 R0.0362 AL      WI      MW  0.1 3
 GAP=199        0.75       4.6     1.7  4.2 -0.3960E+01 -0.2559E+01  0.1067E+02E
 SPEC TERVHH E MO 12.9 ST  3.6 OM  1.9 f0 5.63 R0.2103 AL 2.16 WI 29.5 MW  2.5 3
 SPEC TERVHH E T135020 K 0.020 GD  122 VS 3.20 DE 2.60 Q0 65.0 QA 1.10 Q1 1.00 3
 SPEC TACVHH E MO 13.1 ST  9.0 OM  2.1 f0 6.49 R0.1824 AL 2.20 WI 29.9 MW  2.7 3
 SPEC TACVHH E T135019 K 0.020 GD  121 VS 3.20 DE 2.60 Q0 65.0 QA 1.10 Q1 1.00 3
 SPEC MAPVHH E MO 13.2 ST 18.3 OM  2.4 f0 7.78 R0.1522 AL 3.46 WI 41.8 MW  2.7 3
 SPEC MAPVHH E T1350 2 K 0.020 GD 59.8 VS 3.20 DE 2.60 Q0 65.0 QA 1.10 Q1 1.00 3
 SPEC BAUVHH E MO 13.2 ST 50.8 OM  2.1 f0 10.5 R0.1128 AL 5.75 WI 33.9 MW  2.8 3
 SPEC BAUVHH E T135025 K 0.020 GD  143 VS 3.20 DE 2.60 Q0 65.0 QA 1.10 Q1 1.00 3
 ACTION:UP  19-03-01 10:05 OP:mrc  STATUS:               ID:20190301134800     I
 OLDACT:UP  19-03-01 10:03 OP:mrc  STATUS:               ID:20190301134800     3
 OLDACT:UP  19-03-01 10:03 OP:mrc  STATUS:               ID:20190301134800     3
 OLDACT:UP  19-03-01 10:00 OP:mrc  STATUS:               ID:20190301134800     3
 OLDACT:UP  19-03-01 10:00 OP:mrc  STATUS:               ID:20190301134800     3
 OLDACT:REG 19-03-01 09:59 OP:mrc  STATUS:               ID:20190301134800     3
 2019-03-01-1348-00S.MAN___119                                                 6
 STAT SP IPHASW D HRMM SECON CODA AMPLIT PERI AZIMU VELO AIN AR TRES W  DIS CAZ7
 MAPV HZ EP       1349 56.97                             100   -0.4610 57.6 220 
 MAPV HE ES       1350  5.04                             100    0.2510 57.6 220 
 BENV HZ EP       1349 58.72                              99    0.2010 64.5 117 
 TACV HZ EP       1350  7.51                              94    0.1810  120  95 
 TACV HE ES       1350 21.72                              94   -0.3010  120  95 
 TERV HZ EP       1350  7.62                              94    0.1810  121 256 
 TERV HE ES       1350 22.01                              94   -0.2010  121 256 
 BAUV HE ES       1350 27.29                              49   -0.2010  143 176 
 BAUV HZ EP       1350 10.82                              49    0.3410  143 176 
                                                                                
 2019  3 1 1350 10.4 L  10.205 -68.096  5.0F FUN  5 0.4 2.7WFUN                1
 SPEC AVERAGE  MO 13.1 ST 34.5 OM  2.2 f0 9.54 R0.1269 AL 3.31 WI 55.4 MW  2.7 3
 SPEC SD       MO  0.2 ST 19.3 OM  0.2 f0 1.38 R0.0197 AL      WI      MW  0.1 3
 GAP=196        0.89       3.8     1.7  0.0 -0.5569E+00  0.0000E+00  0.0000E+00E
 SPEC TACVHH N MO 13.2 ST 54.0 OM  2.2 f0 11.0 R0.1076 AL 2.65 WI 37.9 MW  2.7 3
 SPEC TACVHH N T135042 K 0.020 GD  108 VS 3.20 DE 2.60 Q0 65.0 QA 1.10 Q1 1.00 3
 SPEC BENVHH E MO 12.7 ST 10.0 OM  2.0 f0 8.84 R0.1339 AL 3.64 WI 86.7 MW  2.4 3
 SPEC BENVHH E T135027 K 0.020 GD 61.0 VS 3.20 DE 2.60 Q0 65.0 QA 1.10 Q1 1.00 3
 SPEC TERVHH N MO 13.4 ST 52.9 OM  2.4 f0 9.51 R0.1245 AL 3.42 WI 45.8 MW  2.9 3
 SPEC TERVHH N T135043 K 0.020 GD  110 VS 3.20 DE 2.60 Q0 65.0 QA 1.10 Q1 1.00 3
 SPEC MAPVHH E MO 13.1 ST 12.7 OM  2.4 f0 7.37 R0.1607 AL 3.54 WI 57.2 MW  2.7 3
 SPEC MAPVHH E T135026 K 0.020 GD 57.4 VS 3.20 DE 2.60 Q0 65.0 QA 1.10 Q1 1.00 3
 SPEC BAUVHH E MO 13.1 ST 42.8 OM  2.1 f0 11.0 R0.1076 AL 3.30 WI 49.3 MW  2.7 3
 SPEC BAUVHH E T135048 K 0.020 GD  118 VS 3.20 DE 2.60 Q0 65.0 QA 1.10 Q1 1.00 3
 ACTION:UP  19-03-01 10:36 OP:mrc  STATUS:               ID:20190301134900     I
 OLDACT:UP  19-03-01 10:34 OP:mrc  STATUS:               ID:20190301134900     3
 OLDACT:UP  19-03-01 10:30 OP:mrc  STATUS:               ID:20190301134900     3
 OLDACT:UP  19-03-01 10:29 OP:mrc  STATUS:               ID:20190301134900     3
 OLDACT:UP  19-03-01 10:27 OP:mrc  STATUS:               ID:20190301134900     3
 OLDACT:UP  19-03-01 10:26 OP:mrc  STATUS:               ID:20190301134900     3
 OLDACT:UP  19-03-01 10:25 OP:mrc  STATUS:               ID:20190301134900     3
 OLDACT:UP  19-03-01 10:20 OP:mrc  STATUS:               ID:20190301134900     3
 OLDACT:UP  19-03-01 10:15 OP:mrc  STATUS:               ID:20190301134900     3
 OLDACT:REG 19-03-01 10:15 OP:mrc  STATUS:               ID:20190301134900     3
 2019-03-01-1349-00S.MAN___119                                                 6
 STAT SP IPHASW D HRMM SECON CODA AMPLIT PERI AZIMU VELO AIN AR TRES W  DIS CAZ7
 MAPV HZ EP       1350 19.68                              65   -0.8510 57.2 224 
 MAPV HE ES       1350 28.02                              65    0.0310 57.2 224 
 BENV HE ES       1350 29.41                              65    0.4110 60.8 116 
 TACV HN ES       1350 44.34                              65   -0.3010  117  94 
 TERV HZ EP       1350 31.13                              65    0.1610  123 258 
 BAUV HE ES       1350 50.58                              65   -0.1410  140 178 
 BAUV HZ EP       1350 33.97                              65    0.3810  140 178 
 TERV HN ES       1350 46.46                              65    0.3010  123 258 
                                                                                
