 2019  211 0204 52.2 L  10.314 -68.152 13.5  FUN  4 0.3 2.0WFUN                1
 SPEC AVERAGE  MO 12.2 ST0.688 OM  1.1 f0 4.89 R0.3645 AL 2.88 WI 16.3 MW  2.0 3
 SPEC SD       MO  0.2 ST0.511 OM  0.2 f0 2.38 R0.2746 AL      WI      MW  0.1 3
 GAP=208        0.91       8.2     1.9  6.8  0.1202E+01  0.2015E+01  0.4065E+02E
 SPEC TERVHH N MO 12.0 ST0.595 OM  1.0 f0 5.95 R0.1990 AL 3.05 WI 14.1 MW  2.0 3
 SPEC TERVHH N T 2 526 K 0.020 GD  119 VS 3.20 DE 2.60 Q0 65.0 QA 1.10 Q1 1.00 3
 SPEC TACVHH N MO 12.0 ST  1.4 OM  1.0 f0 7.90 R0.1499 AL 4.63 WI 19.8 MW  2.0 3
 SPEC TACVHH N T 2 526 K 0.020 GD  123 VS 3.20 DE 2.60 Q0 65.0 QA 1.10 Q1 1.00 3
 SPEC BENVHH N MO 12.0 ST0.008 OM  1.2 f0 1.42 R0.8338 AL 1.75 WI 18.9 MW  2.0 3
 SPEC BENVHH N T 2 512 K 0.020 GD 73.3 VS 3.20 DE 2.60 Q0 65.0 QA 1.10 Q1 1.00 3
 SPEC BAUVHH N MO 12.5 ST0.703 OM  1.4 f0 4.30 R0.2753 AL 2.10 WI 12.3 MW  2.3 3
 SPEC BAUVHH N T 2 533 K 0.020 GD  148 VS 3.20 DE 2.60 Q0 65.0 QA 1.10 Q1 1.00 3
 ACTION:UP  19-02-10 22:16 OP:rap  STATUS:               ID:20190211020400     I
 OLDACT:UP  19-02-10 22:16 OP:rap  STATUS:               ID:20190211020400     3
 OLDACT:UP  19-02-10 22:15 OP:rap  STATUS:               ID:20190211020400     3
 OLDACT:REG 19-02-10 22:14 OP:rap  STATUS:               ID:20190211020400     3
 2019-02-11-0204-00S.MAN___119                                                 6
 STAT SP IPHASW D HRMM SECON CODA AMPLIT PERI AZIMU VELO AIN AR TRES W  DIS CAZ7
 BENV HZ EP        2 5  4.04                              95   -0.3610 72.0 123 
 BENV HN ES        2 5 13.55                              95    0.1410 72.0 123 
 TERV HZ EP        2 5 11.48                              93   -0.5710  120 251 
 TERV HN ES        2 5 27.10                              93    0.3810  120 251 
 TACV HZ EP        2 5 13.06                              92    0.3110  125  99 
 TACV HN ES        2 5 27.87                              92   -0.0810  125  99 
 BAUV HZ EP        2 5 17.00                              49    0.4010  152 175 
 BAUV HN ES        2 5 34.42                              49   -0.2310  152 175 
                                                                                
 2019  211 0554 53.3 L  10.261 -68.036  9.7  FUN  3 0.2 2.1WFUN                1
 SPEC AVERAGE  MO 12.2 ST0.522 OM  1.3 f0 3.92 R0.4699 AL 2.47 WI 15.5 MW  2.1 3
 SPEC SD       MO  0.1 ST0.452 OM  0.1 f0 1.94 R0.3434 AL      WI      MW  0.1 3
 GAP=229        0.52       0.5     1.0  0.0 -0.8392E-01 -0.1531E+01 -0.4195E+01E
 SPEC TERVHH N MO 12.2 ST0.454 OM  1.2 f0 4.73 R0.2503 AL 3.58 WI 13.6 MW  2.1 3
 SPEC TERVHH N T 55531 K 0.020 GD  114 VS 3.20 DE 2.60 Q0 65.0 QA 1.10 Q1 1.00 3
 SPEC BENVHH N MO 12.1 ST0.007 OM  1.4 f0 1.24 R0.9548 AL 1.30 WI 16.7 MW  2.0 3
 SPEC BENVHH N T 55510 K 0.020 GD 59.0 VS 3.20 DE 2.60 Q0 65.0 QA 1.10 Q1 1.00 3
 SPEC BAUVHH N MO 12.3 ST  1.1 OM  1.3 f0 5.79 R0.2045 AL 2.53 WI 16.3 MW  2.2 3
 SPEC BAUVHH N T 55533 K 0.020 GD  120 VS 3.20 DE 2.60 Q0 65.0 QA 1.10 Q1 1.00 3
 ACTION:UP  19-02-11 05:24 OP:rap  STATUS:               ID:20190211055300     I
 OLDACT:UP  19-02-11 05:24 OP:rap  STATUS:               ID:20190211055300     3
 OLDACT:UP  19-02-11 05:24 OP:rap  STATUS:               ID:20190211055300     3
 OLDACT:REG 19-02-11 05:23 OP:rap  STATUS:               ID:20190211055300     3
 2019-02-11-0553-00S.MAN___119                                                 6
 STAT SP IPHASW D HRMM SECON CODA AMPLIT PERI AZIMU VELO AIN AR TRES W  DIS CAZ7
 BENV HZ EP        555  3.61                              91    0.3210 58.2 125 
 BENV HN ES        555 10.47                              91   -0.2010 58.2 125 
 TERV HZ EP        555 14.87                              90    0.0710  131 256 
 TERV HN ES        555 30.64                              90   -0.0510  131 256 
 BAUV HZ EP        555 16.81                              90   -0.3310  146 180 
 BAUV HN ES        555 34.94                              90    0.1810  146 180 
                                                                                
 2019  211 1313 18.5 L  10.447 -68.076 27.3  FUN  4 0.2 2.1WFUN                1
 SPEC AVERAGE  MO 12.3 ST  5.2 OM  1.2 f0 9.31 R0.1283 AL 1.95 WI 49.6 MW  2.1 3
 SPEC SD       MO  0.3 ST  3.3 OM  0.2 f00.920 R0.0119 AL      WI      MW  0.2 3
 GAP=220        0.54       3.5     2.7  3.2  0.2654E+01  0.6299E+01  0.9186E+00E
 SPEC TERVHH E MO 12.5 ST  5.3 OM  1.4 f0 8.84 R0.1339 AL 1.79 WI 56.4 MW  2.3 3
 SPEC TERVHH E T131353 K 0.020 GD  135 VS 3.20 DE 2.60 Q0 65.0 QA 1.10 Q1 1.00 3
 SPEC BENVHH N MO 11.8 ST  1.1 OM  1.0 f0 8.50 R0.1393 AL 2.29 WI 26.0 MW  1.8 3
 SPEC BENVHH N T131340 K 0.020 GD 79.7 VS 3.20 DE 2.60 Q0 65.0 QA 1.10 Q1 1.00 3
 SPEC BAUVHH N MO 12.5 ST  9.2 OM  1.3 f0 10.6 R0.1117 AL 1.77 WI 66.5 MW  2.3 3
 SPEC BAUVHH N T131358 K 0.020 GD  168 VS 3.20 DE 2.60 Q0 65.0 QA 1.10 Q1 1.00 3
 ACTION:UP  19-02-11 09:27 OP:mrc  STATUS:               ID:20190211131100     I
 OLDACT:UP  19-02-11 09:26 OP:mrc  STATUS:               ID:20190211131100     3
 OLDACT:UP  19-02-11 09:25 OP:mrc  STATUS:               ID:20190211131100     3
 OLDACT:UP  19-02-11 09:22 OP:mrc  STATUS:               ID:20190211131100     3
 OLDACT:UP  19-02-11 09:21 OP:mrc  STATUS:               ID:20190211131100     3
 OLDACT:UP  19-02-11 09:21 OP:mrc  STATUS:               ID:20190211131100     3
 OLDACT:REG 19-02-11 09:20 OP:mrc  STATUS:               ID:20190211131100     3
 2019-02-11-1311-00S.MAN___119                                                 6
 STAT SP IPHASW D HRMM SECON CODA AMPLIT PERI AZIMU VELO AIN AR TRES W  DIS CAZ7
 BENV HZ EP       1313 31.37                             107   -0.2010 74.9 136 
 BENV HN ES       1313 41.46                             107    0.2210 74.9 136 
 TACV HZ EP       1313 37.76                              49    0.1110  120 106 
 TERV HZ EP       1313 39.07                              49   -0.1910  133 246 
 TERV HE ES       1313 54.90                              49    0.2710  133 246 
 BAUV HZ EP       1313 43.11                              49   -0.0710  166 179 
 BAUV HN ES       1314  1.31                              49   -0.1310  166 179 
                                                                                
 2019  211 1358 18.7 L  10.248 -68.126 12.1  FUN  3 0.1 2.0WFUN                1
 SPEC AVERAGE  MO 12.1 ST  3.2 OM  1.2 f0 9.39 R0.1265 AL 1.89 WI 45.1 MW  2.0 3
 SPEC SD       MO  0.2 ST  1.6 OM  0.2 f00.544 R0.0075 AL      WI      MW  0.1 3
 GAP=260        0.46       4.8     1.7  2.6 -0.4504E+01 -0.8406E+00  0.5044E+01E
 SPEC MAPVHH N MO 12.2 ST  3.4 OM  1.5 f0 9.50 R0.1246 AL 1.45 WI 31.3 MW  2.1 3
 SPEC MAPVHH N T135833 K 0.020 GD 59.9 VS 3.20 DE 2.60 Q0 65.0 QA 1.10 Q1 1.00 3
 SPEC BENVHH E MO 11.8 ST  1.1 OM  1.0 f0 8.68 R0.1364 AL 1.83 WI 55.9 MW  1.8 3
 SPEC BENVHH E T135837 K 0.020 GD 66.9 VS 3.20 DE 2.60 Q0 65.0 QA 1.10 Q1 1.00 3
 SPEC BAUVHH E MO 12.3 ST  5.1 OM  1.2 f0 10.0 R0.1184 AL 2.40 WI 48.0 MW  2.1 3
 SPEC BAUVHH E T135858 K 0.020 GD  133 VS 3.20 DE 2.60 Q0 65.0 QA 1.10 Q1 1.00 3
 ACTION:UP  19-02-11 10:19 OP:mrc  STATUS:               ID:20190211135600     I
 OLDACT:UP  19-02-11 10:18 OP:mrc  STATUS:               ID:20190211135600     3
 OLDACT:UP  19-02-11 10:13 OP:mrc  STATUS:               ID:20190211135600     3
 OLDACT:UP  19-02-11 10:12 OP:mrc  STATUS:               ID:20190211135600     3
 OLDACT:UP  19-02-11 10:09 OP:mrc  STATUS:               ID:20190211135600     3
 OLDACT:REG 19-02-11 10:08 OP:mtc  STATUS:               ID:20190211135600     3
 2019-02-11-1356-00S.MAN___119                                                 6
 STAT SP IPHASW D HRMM SECON CODA AMPLIT PERI AZIMU VELO AIN AR TRES W  DIS CAZ7
 MAPV HZ EP       1358 28.71                              95   -0.0210 58.7 218 
 MAPV HN ES       1358 36.17                              95    0.0110 58.7 218 
 BENV HZ EP       1358 30.12                              94    0.2210 65.8 119 
 BENV HE ES       1358 38.05                              94   -0.1310 65.8 119 
 BAUV HZ EP       1358 42.13                              49   -0.2010  145 176 
 BAUV HE ES       1358 59.93                              49    0.1210  145 176 
                                                                                
 2019  211 1831 50.3 L  10.262 -67.390 12.5  FUN  3 0.4 2.4WFUN                1
 SPEC AVERAGE  MO 12.6 ST0.652 OM  1.9 f0 3.09 R0.4493 AL 2.25 WI 16.3 MW  2.4 3
 SPEC SD       MO  0.3 ST0.526 OM  0.2 f0 1.16 R0.1826 AL      WI      MW  0.2 3
 GAP=254        1.03      11.6     4.9  5.2 -0.4384E+02  0.7147E+01 -0.4187E+01E
 SPEC TACVHH N MO 12.7 ST  1.3 OM  2.1 f0 4.54 R0.2608 AL 3.03 WI 14.5 MW  2.4 3
 SPEC TACVHH N T1832 3 K 0.020 GD 43.9 VS 3.20 DE 2.60 Q0 65.0 QA 1.10 Q1 1.00 3
 SPEC BENVHH E MO 12.3 ST0.025 OM  1.7 f0 1.70 R0.6965 AL 1.62 WI 16.3 MW  2.1 3
 SPEC BENVHH E T1832 1 K 0.020 GD 42.1 VS 3.20 DE 2.60 Q0 65.0 QA 1.10 Q1 1.00 3
 SPEC BAUVHH N MO 12.9 ST0.620 OM  1.8 f0 3.03 R0.3908 AL 2.11 WI 18.1 MW  2.6 3
 SPEC BAUVHH N T183233 K 0.020 GD  149 VS 3.20 DE 2.60 Q0 65.0 QA 1.10 Q1 1.00 3
 SPEC CACVHH E MO 13.1 ST 12.8 OM  1.9 f0 7.09 R0.1670 AL 2.18 WI 18.1 MW  2.7 3
 SPEC CACVHH E T183313 K 0.020 GD  214 VS 3.20 DE 2.60 Q0 65.0 QA 1.10 Q1 1.00 3
 ACTION:UP  19-02-11 15:28 OP:elv  STATUS:               ID:20190211182901d    I
 OLDACT:UP  19-02-11 15:28 OP:elv  STATUS:               ID:20190211182901d    3
 OLDACT:UP  19-02-11 15:27 OP:elv  STATUS:               ID:20190211182901d    3
 OLDACT:UP  19-02-11 15:27 OP:elv  STATUS:               ID:20190211182901d    3
 OLDACT:UP  19-02-11 15:26 OP:elv  STATUS:               ID:20190211182901d    3
 OLDACT:UP  19-02-11 15:25 OP:elv  STATUS:               ID:20190211182901d    3
 OLDACT:DUP 19-02-11 15:22 OP:elv  STATUS:               ID:20190211182901d    3
 OLDACT:UP  19-02-11 15:21 OP:mrc  STATUS:               ID:20190211182900     3
 OLDACT:UP  19-02-11 15:21 OP:mrc  STATUS:               ID:20190211182900     3
 OLDACT:UP  19-02-11 15:20 OP:mrc  STATUS:               ID:20190211182900     3
 OLDACT:UP  19-02-11 15:20 OP:mrc  STATUS:               ID:20190211182900     3
 2019-02-11-1829-00S.MAN___119                                                 6
 STAT SP IPHASW D HRMM SECON CODA AMPLIT PERI AZIMU VELO AIN AR TRES W  DIS CAZ7
 BENV HZ EP       1831 57.04                              99   -0.4210 40.2 215 
 BENV HE ES       1832  3.00                              99    0.2410 40.2 215 
 TACV HZ EP       1831 57.48                              99   -0.2610 42.1 109 
 TACV HN ES       1832  3.39                              99    0.1510 42.1 109 
 BAUV HZ EP       1832 16.72                              49    0.6810  162 206 
 BAUV HN ES       1832 34.70                              49   -0.3910  162 206 
                                                                                
 2019  211 1920 52.3 L  10.429 -67.560 31.1  FUN  3 0.5 2.1WFUN                1
 SPEC AVERAGE  MO 12.3 ST  5.6 OM  1.1 f0 7.52 R0.4422 AL 2.12 WI 40.1 MW  2.1 3
 SPEC SD       MO  0.1 ST  6.5 OM  0.3 f0 4.19 R0.4579 AL      WI      MW  0.1 3
 GAP=281        1.33      12.5     8.3  6.1 -0.6631E+02  0.3223E+02 -0.2904E+02E
 SPEC TACVHH Z MO 12.3 ST0.007 OM  0.7 f0 1.97 R1.0893 AL 1.07 WI 36.1 MW  2.1 3
 SPEC TACVHH Z T1921 2 K 0.010 GD 73.5 VP 5.80 DE 2.60 Q0500.0 QA 0.70 Q1 1.00 3
 SPEC BENVHH N MO 12.1 ST  2.2 OM  1.4 f0 8.50 R0.1393 AL 1.67 WI 39.6 MW  2.0 3
 SPEC BENVHH N T1921 7 K 0.020 GD 60.3 VS 3.20 DE 2.60 Q0 65.0 QA 1.10 Q1 1.00 3
 SPEC BAUVHH E MO 12.5 ST 14.7 OM  1.3 f0 12.1 R0.0979 AL 3.62 WI 44.5 MW  2.3 3
 SPEC BAUVHH E T192133 K 0.020 GD  175 VS 3.20 DE 2.60 Q0 65.0 QA 1.10 Q1 1.00 3
 ACTION:UP  19-02-11 15:47 OP:icm  STATUS:               ID:20190211191900     I
 OLDACT:UP  19-02-11 15:46 OP:icm  STATUS:               ID:20190211191900     3
 OLDACT:UP  19-02-11 15:43 OP:icm  STATUS:               ID:20190211191900     3
 OLDACT:UP  19-02-11 15:40 OP:icm  STATUS:               ID:20190211191900     3
 OLDACT:UP  19-02-11 15:34 OP:icm  STATUS:               ID:20190211191900     3
 OLDACT:UP  19-02-11 15:33 OP:icm  STATUS:               ID:20190211191900     3
 OLDACT:REG 19-02-11 15:32 OP:icm  STATUS:               ID:20190211191900     3
 2019-02-11-1919-00S.MAN___119                                                 6
 STAT SP IPHASW D HRMM SECON CODA AMPLIT PERI AZIMU VELO AIN AR TRES W  DIS CAZ7
 BENV HZ EP       1921  3.02                             119    0.8210 51.7 185 
 BENV HN ES       1921  9.07                             119   -0.4710 51.7 185 
 TACV HZ EP       1921  3.59                             113   -0.7310 66.6 119 
 TACV HE ES       1921 13.64                             113    0.4210 66.6 119 
 BAUV HZ EP       1921 17.22                              49   -0.1010  173 198 
 BAUV HE ES       1921 35.90                              49    0.0610  173 198 
                                                                                
 2019  212 1422  2.4 L  10.311 -68.793 26.3  FUN  3 0.2 2.1WFUN                1
 SPEC AVERAGE  MO 12.2 ST  3.3 OM  1.1 f0 9.38 R0.1273 AL 2.39 WI 50.3 MW  2.1 3
 SPEC SD       MO  0.2 ST0.790 OM  0.2 f00.885 R0.0114 AL      WI      MW  0.1 3
 GAP=315        0.48       3.5     4.3  2.1 -0.1155E+01 -0.8377E+00 -0.3241E+01E
 SPEC MAPVHH E MO 12.2 ST  2.8 OM  1.4 f0 9.01 R0.1314 AL 2.43 WI 56.8 MW  2.0 3
 SPEC MAPVHH E T142220 K 0.020 GD 69.7 VS 3.20 DE 2.60 Q0 65.0 QA 1.10 Q1 1.00 3
 SPEC BENVHH E MO 11.9 ST  2.8 OM  0.9 f0 10.6 R0.1117 AL 2.25 WI 38.7 MW  1.9 3
 SPEC BENVHH E T142238 K 0.020 GD  138 VS 3.20 DE 2.60 Q0 65.0 QA 1.10 Q1 1.00 3
 SPEC BAUVHH E MO 12.4 ST  4.4 OM  1.2 f0 8.53 R0.1388 AL 2.48 WI 55.5 MW  2.2 3
 SPEC BAUVHH E T142244 K 0.020 GD  173 VS 3.20 DE 2.60 Q0 65.0 QA 1.10 Q1 1.00 3
 ACTION:UP  19-02-12 11:02 OP:mrc  STATUS:               ID:20190212142000     I
 OLDACT:UP  19-02-12 11:01 OP:mrc  STATUS:               ID:20190212142000     3
 OLDACT:UP  19-02-12 10:59 OP:mrc  STATUS:               ID:20190212142000     3
 OLDACT:UP  19-02-12 10:57 OP:mrc  STATUS:               ID:20190212142000     3
 OLDACT:UP  19-02-12 10:55 OP:mrc  STATUS:               ID:20190212142000     3
 OLDACT:UP  19-02-12 10:54 OP:mrc  STATUS:               ID:20190212142000     3
 OLDACT:UP  19-02-12 10:53 OP:mrc  STATUS:               ID:20190212142000     3
 OLDACT:UP  19-02-12 10:51 OP:mrc  STATUS:               ID:20190212142000     3
 OLDACT:UP  19-02-12 10:48 OP:mrc  STATUS:               ID:20190212142000     3
 OLDACT:UP  19-02-12 10:43 OP:mrc  STATUS:               ID:20190212142000     3
 OLDACT:UP  19-02-12 10:34 OP:mrc  STATUS:               ID:20190212142000     3
 OLDACT:REG 19-02-12 10:34 OP:mrc  STATUS:               ID:20190212142000     3
 2019-02-12-1420-00S.MAN___119                                                 6
 STAT SP IPHASW D HRMM SECON CODA AMPLIT PERI AZIMU VELO AIN AR TRES W  DIS CAZ7
 MAPV HZ EP       1422 13.99                             109    0.1410 64.6 145 
 MAPV HE ES       1422 22.23                             109   -0.0810 64.6 145 
 BENV HZ EP       1422 23.40                              49   -0.2610  136 106 
 BENV HE ES       1422 39.55                              49    0.1510  136 106 
 BAUV HZ EP       1422 28.03                              49    0.1210  172 151 
 BAUV HE ES       1422 46.72                              49   -0.0710  172 151 
                                                                                
 2019  212 1917 13.7 L  10.290 -68.067 12.1  FUN  5 0.3 2.5WFUN                1
 SPEC AVERAGE  MO 12.9 ST  4.1 OM  1.9 f0 5.80 R0.2100 AL 1.75 WI 24.8 MW  2.5 3
 SPEC SD       MO  0.2 ST  2.0 OM  0.1 f00.976 R0.0358 AL      WI      MW  0.1 3
 GAP=204        0.90       5.1     1.7  5.0 -0.1982E+01 -0.6693E+00  0.1139E+02E
 SPEC MAPVHH E MO 12.8 ST  5.9 OM  2.0 f0 7.19 R0.1647 AL 3.14 WI 17.2 MW  2.5 3
 SPEC MAPVHH E T191731 K 0.020 GD 67.5 VS 3.20 DE 2.60 Q0 65.0 QA 1.10 Q1 1.00 3
 SPEC TERVHH N MO 12.8 ST  1.6 OM  1.8 f0 4.44 R0.2667 AL 1.53 WI 20.7 MW  2.5 3
 SPEC TERVHH N T191748 K 0.020 GD  121 VS 3.20 DE 2.60 Q0 65.0 QA 1.10 Q1 1.00 3
 SPEC TACVHH E MO 12.7 ST  2.0 OM  1.7 f0 5.37 R0.2205 AL 2.03 WI 39.6 MW  2.4 3
 SPEC TACVHH E T191739 K 0.020 GD  111 VS 3.20 DE 2.60 Q0 65.0 QA 1.10 Q1 1.00 3
 SPEC BENVHH N MO 12.8 ST  4.3 OM  2.0 f0 6.60 R0.1794 AL 1.10 WI 34.3 MW  2.4 3
 SPEC BENVHH N T191732 K 0.020 GD 64.0 VS 3.20 DE 2.60 Q0 65.0 QA 1.10 Q1 1.00 3
 SPEC BAUVHH N MO 13.2 ST  6.4 OM  2.1 f0 5.41 R0.2189 AL 0.94 WI 12.3 MW  2.7 3
 SPEC BAUVHH N T191754 K 0.020 GD  136 VS 3.20 DE 2.60 Q0 65.0 QA 1.10 Q1 1.00 3
 ACTION:UP  19-02-12 15:27 OP:y    STATUS:               ID:20190212191600     I
 OLDACT:UP  19-02-12 15:26 OP:y    STATUS:               ID:20190212191600     3
 OLDACT:UP  19-02-12 15:25 OP:y    STATUS:               ID:20190212191600     3
 OLDACT:UP  19-02-12 15:24 OP:y    STATUS:               ID:20190212191600     3
 OLDACT:UP  19-02-12 15:24 OP:y    STATUS:               ID:20190212191600     3
 OLDACT:UP  19-02-12 15:21 OP:they STATUS:               ID:20190212191600     3
 OLDACT:UP  19-02-12 15:20 OP:they STATUS:               ID:20190212191600     3
 OLDACT:REG 19-02-12 15:20 OP:they STATUS:               ID:20190212191600     3
 2019-02-12-1916-00S.MAN___119                                                 6
 STAT SP IPHASW D HRMM SECON CODA AMPLIT PERI AZIMU VELO AIN AR TRES W  DIS CAZ7
 BENV HZ EP       1917 24.62                              94    0.2610 62.8 125 
 BENV HN ES       1917 32.69                              94    0.4110 62.8 125 
 MAPV HZ EP       1917 25.22                              94    0.3110 66.4 220 
 MAPV HE ES       1917 32.69                              94   -0.5510 66.4 220 
 TACV HZ EP       1917 32.69                              92    0.0310  115  98 
 TACV HE ES       1917 46.15                              92   -0.5810  115  98 
 TERV HZ EP       1917 34.56                              92   -0.2010  128 254 
 TERV HN ES       1917 50.63                              92    0.2510  128 254 
 BAUV HZ EP       1917 37.96                              49    0.1510  149 179 
 BAUV HN ES       1917 55.61                              49   -0.0810  149 179 
                                                                                
