 2019  217 0052 26.6 L  10.323 -68.130 19.5  FUN  4 0.6 1.9WFUN                1
 SPEC AVERAGE  MO 11.9 ST0.394 OM  0.9 f0 5.75 R0.2195 AL 1.15 WI 17.1 MW  1.9 3
 SPEC SD       MO  0.4 ST0.134 OM  0.3 f0 1.47 R0.0534 AL      WI      MW  0.2 3
 GAP=208        1.48      11.4     8.6 14.7  0.5724E+02  0.1156E+03  0.1054E+03E
 SPEC TERVHH N MO 12.0 ST0.342 OM  1.0 f0 4.99 R0.2373 AL 0.73 WI 14.5 MW  2.0 3
 SPEC TERVHH N T 053 0 K 0.020 GD  124 VS 3.20 DE 2.60 Q0 65.0 QA 1.10 Q1 1.00 3
 SPEC TACVHH N MO 11.6 ST0.537 OM  0.6 f0 8.01 R0.1478 AL 1.49 WI 17.2 MW  1.7 3
 SPEC TACVHH N T 053 2 K 0.020 GD  124 VS 3.20 DE 2.60 Q0 65.0 QA 1.10 Q1 1.00 3
 SPEC BENVHH E MO 11.6 ST0.200 OM  0.7 f0 5.95 R0.1990 AL 1.10 WI 14.1 MW  1.6 3
 SPEC BENVHH E T 05247 K 0.020 GD 73.1 VS 3.20 DE 2.60 Q0 65.0 QA 1.10 Q1 1.00 3
 SPEC BAUVHH N MO 12.5 ST0.499 OM  1.3 f0 4.03 R0.2938 AL 1.29 WI 22.5 MW  2.2 3
 SPEC BAUVHH N T 053 8 K 0.020 GD  154 VS 3.20 DE 2.60 Q0 65.0 QA 1.10 Q1 1.00 3
 ACTION:UP  19-02-16 21:06 OP:y    STATUS:               ID:20190217005100     I
 OLDACT:UP  19-02-16 21:06 OP:y    STATUS:               ID:20190217005100     3
 OLDACT:REG 19-02-16 21:05 OP:y    STATUS:               ID:20190217005100     3
 2019-02-17-0051-00S.MAN___119                                                 6
 STAT SP IPHASW D HRMM SECON CODA AMPLIT PERI AZIMU VELO AIN AR TRES W  DIS CAZ7
 BENV HZ EP        052 37.92                             101   -0.7410 70.5 124 
 BENV HE ES        052 48.14                             101    0.5410 70.5 124 
 TACV HZ EP        052 47.16                              96    0.3410  123  99 
 TACV HN ES        053  1.85                              96    0.0310  123  99 
 TERV HZ EP        052 46.03                              96   -0.8410  123 251 
 TERV HN ES        053  2.74                              96    0.8510  123 251 
 BAUV HZ EP        052 50.65                              49    0.2210  153 176 
 BAUV HN ES        053  7.69                              49   -0.4010  153 176 
                                                                                
 2019  217 0312 36.8 L  10.276 -68.152 10.9  FUN  4 0.6 1.7WFUN                1
 SPEC AVERAGE  MO 11.7 ST0.457 OM  0.7 f0 6.99 R0.1730 AL 1.56 WI 23.9 MW  1.7 3
 SPEC SD       MO  0.3 ST0.117 OM  0.2 f0 1.01 R0.0254 AL      WI      MW  0.2 3
 GAP=204        1.62       7.3     3.6246.9 -0.3104E+01  0.3606E+03 -0.2252E+03E
 SPEC TERVHH N MO 11.9 ST0.410 OM  0.9 f0 5.63 R0.2103 AL 1.04 WI 30.8 MW  1.9 3
 SPEC TERVHH N T 313 7 K 0.020 GD  111 VS 3.20 DE 2.60 Q0 65.0 QA 1.10 Q1 1.00 3
 SPEC TACVHH N MO 11.3 ST0.324 OM  0.3 f0 8.37 R0.1415 AL 1.60 WI 21.1 MW  1.5 3
 SPEC TACVHH N T 31310 K 0.020 GD  114 VS 3.20 DE 2.60 Q0 65.0 QA 1.10 Q1 1.00 3
 SPEC BENVHH N MO 11.6 ST0.452 OM  0.8 f0 7.37 R0.1607 AL 1.73 WI 22.0 MW  1.7 3
 SPEC BENVHH N T 31256 K 0.020 GD 70.6 VS 3.20 DE 2.60 Q0 65.0 QA 1.10 Q1 1.00 3
 SPEC BAUVHH N MO 11.9 ST0.644 OM  0.9 f0 6.60 R0.1794 AL 1.86 WI 21.6 MW  1.9 3
 SPEC BAUVHH N T 31316 K 0.020 GD  127 VS 3.20 DE 2.60 Q0 65.0 QA 1.10 Q1 1.00 3
 ACTION:UP  19-02-16 23:49 OP:y    STATUS:               ID:20190217031200     I
 OLDACT:UP  19-02-16 23:49 OP:y    STATUS:               ID:20190217031200     3
 OLDACT:REG 19-02-16 23:49 OP:y    STATUS:               ID:20190217031200     3
 2019-02-17-0312-00S.MAN___119                                                 6
 STAT SP IPHASW D HRMM SECON CODA AMPLIT PERI AZIMU VELO AIN AR TRES W  DIS CAZ7
 BENV HZ EP        312 47.84                              92   -0.7910 69.8 120 
 BENV HN ES        312 57.31                              92   -0.0710 69.8 120 
 TERV HZ EP        312 55.81                              91   -0.6210  119 253 
 TERV HN ES        313 11.76                              91    0.8210  119 253 
 TACV HZ EP        312 57.31                              91    0.0510  124  97 
 TACV HN ES        313 13.26                              91    0.8810  124  97 
 BAUV HZ EP        313  0.30                              49   -0.6710  148 175 
 BAUV HN ES        313 19.24                              49    0.4010  148 175 
                                                                                
 2019  217 1119 32.7 L  10.310 -68.131 17.2  FUN  6 0.4 2.7WFUN                1
 SPEC AVERAGE  MO 13.1 ST  9.7 OM  2.0 f0 6.32 R0.1989 AL 1.65 WI 20.8 MW  2.7 3
 SPEC SD       MO  0.4 ST  5.7 OM  0.3 f0 1.62 R0.0456 AL      WI      MW  0.2 3
 GAP=191        1.09       4.7     2.2  3.7 -0.1937E+01 -0.1049E+01  0.3431E+01E
 SPEC TERVHH E MO 12.9 ST  4.4 OM  1.8 f0 6.11 R0.1938 AL 1.52 WI 18.9 MW  2.5 3
 SPEC TERVHH E T1120 5 K 0.020 GD  123 VS 3.20 DE 2.60 Q0 65.0 QA 1.10 Q1 1.00 3
 SPEC TACVHH N MO 12.8 ST  6.5 OM  1.8 f0 7.28 R0.1626 AL 1.82 WI 18.5 MW  2.5 3
 SPEC TACVHH N T1120 7 K 0.020 GD  123 VS 3.20 DE 2.60 Q0 65.0 QA 1.10 Q1 1.00 3
 SPEC FUNVHH N MO 13.3 ST  6.2 OM  2.2 f0 4.79 R0.2472 AL 1.80 WI 19.4 MW  2.8 3
 SPEC FUNVHH N T112011 K 0.020 GD  147 VS 3.20 DE 2.60 Q0 65.0 QA 1.10 Q1 1.00 3
 SPEC CACVHH N MO 13.5 ST  8.1 OM  2.0 f0 4.58 R0.2585 AL 1.10 WI 30.4 MW  2.9 3
 SPEC CACVHH N T1121 2 K 0.020 GD  390 VS 3.20 DE 2.60 Q0 65.0 QA 1.10 Q1 1.00 3
 SPEC BENVHH E MO 12.7 ST 11.3 OM  1.9 f0 9.35 R0.1266 AL 2.33 WI 21.6 MW  2.4 3
 SPEC BENVHH E T111950 K 0.020 GD 71.9 VS 3.20 DE 2.60 Q0 65.0 QA 1.10 Q1 1.00 3
 SPEC BAUVHH E MO 13.6 ST 21.6 OM  2.5 f0 5.79 R0.2045 AL 1.34 WI 15.9 MW  3.0 3
 SPEC BAUVHH E T112012 K 0.020 GD  151 VS 3.20 DE 2.60 Q0 65.0 QA 1.10 Q1 1.00 3
 ACTION:UP  19-02-17 07:45 OP:elv  STATUS:               ID:20190217111700     I
 OLDACT:UP  19-02-17 07:44 OP:elv  STATUS:               ID:20190217111700     3
 OLDACT:UP  19-02-17 07:43 OP:elv  STATUS:               ID:20190217111700     3
 OLDACT:REG 19-02-17 07:43 OP:elv  STATUS:               ID:20190217111700     3
 2019-02-17-1117-00S.MAN___119                                                 6
 STAT SP IPHASW D HRMM SECON CODA AMPLIT PERI AZIMU VELO AIN AR TRES W  DIS CAZ7
 BENV HZ EP       1119 44.71                              99    0.0710 69.8 123 
 BENV HE ES       1119 53.03                              99   -0.4210 69.8 123 
 TACV HZ EP       1119 53.14                              95    0.2110  122  99 
 TACV HN ES       1120  7.94                              95    0.0610  122  99 
 TERV HZ EP       1119 52.50                              95   -0.4210  122 252 
 TERV HE ES       1120  7.89                              95    0.0210  122 252 
 FUNV HZ EP       1119 56.29                              49    0.2210  146  83 
 FUNV HN ES       1120 12.72                              49   -0.6210  146  83 
 FUNV HN IS       1120 12.72                              49            146  83 
 BAUV HZ EP       1119 57.19                              49    0.5310  151 176 
 BAUV HE ES       1120 13.79                              49   -0.5810  151 176 
 CACV HZ EP       1120 25.96                              49    0.6110  390 143 
 CACV HN ES       1121  4.62                              49    0.3310  390 143 
                                                                                
 2019  217 2101 23.2 L  10.313 -68.116 14.3  FUN  4 0.4 2.1WFUN                1
 SPEC AVERAGE  MO 12.2 ST  1.1 OM  1.3 f0 6.44 R0.1925 AL 1.63 WI 21.5 MW  2.1 3
 SPEC SD       MO  0.3 ST0.353 OM  0.1 f0 1.34 R0.0422 AL      WI      MW  0.2 3
 GAP=232        0.94       6.2     2.3  4.9  0.1769E+01 -0.8752E+00  0.9691E+01E
 SPEC TERVHH N MO 12.4 ST0.628 OM  1.3 f0 4.67 R0.2535 AL 1.53 WI 20.3 MW  2.2 3
 SPEC TERVHH N T21 158 K 0.020 GD  124 VS 3.20 DE 2.60 Q0 65.0 QA 1.10 Q1 1.00 3
 SPEC MAPVHH N MO 12.0 ST  1.2 OM  1.2 f0 7.61 R0.1556 AL 2.51 WI 22.9 MW  2.0 3
 SPEC MAPVHH N T21 141 K 0.020 GD 66.7 VS 3.20 DE 2.60 Q0 65.0 QA 1.10 Q1 1.00 3
 SPEC BENVHH E MO 11.9 ST0.943 OM  1.1 f0 7.85 R0.1508 AL 1.48 WI 23.3 MW  1.9 3
 SPEC BENVHH E T21 142 K 0.020 GD 70.2 VS 3.20 DE 2.60 Q0 65.0 QA 1.10 Q1 1.00 3
 SPEC BAUVHH N MO 12.5 ST  1.6 OM  1.4 f0 5.64 R0.2099 AL 1.00 WI 19.4 MW  2.3 3
 SPEC BAUVHH N T21 2 3 K 0.020 GD  152 VS 3.20 DE 2.60 Q0 65.0 QA 1.10 Q1 1.00 3
 ACTION:UP  19-02-17 17:15 OP:elv  STATUS:               ID:20190217205900     I
 OLDACT:UP  19-02-17 17:15 OP:elv  STATUS:               ID:20190217205900     3
 OLDACT:UP  19-02-17 17:14 OP:elv  STATUS:               ID:20190217205900     3
 OLDACT:REG 19-02-17 17:14 OP:elv  STATUS:               ID:20190217205900     3
 2019-02-17-2059-00S.MAN___119                                                 6
 STAT SP IPHASW D HRMM SECON CODA AMPLIT PERI AZIMU VELO AIN AR TRES W  DIS CAZ7
 MAPV HZ EP       21 1 34.22                              97   -0.1010 65.1 215 
 MAPV HN ES       21 1 42.80                              97    0.2810 65.1 215 
 BENV HZ EP       21 1 35.12                              96    0.2210 68.7 124 
 BENV HE ES       21 1 43.26                              96   -0.2810 68.7 124 
 TERV HZ EP       21 1 43.33                              93   -0.3210  124 252 
 TERV HN ES       21 1 58.67                              93   -0.0910  124 252 
 BAUV HZ EP       21 1 48.20                              49    0.7110  152 177 
 BAUV HN ES       21 2  5.03                              49   -0.4210  152 177 
                                                                                
 2019  218 1632 31.3 L  10.265 -68.160 14.1  FUN  6 0.5 2.5WFUN                1
 SPEC AVERAGE  MO 12.8 ST 16.9 OM  1.9 f0 8.69 R0.1429 AL 2.42 WI 33.6 MW  2.5 3
 SPEC SD       MO  0.2 ST 18.7 OM  0.1 f0 2.05 R0.0287 AL      WI      MW  0.1 3
 GAP=187        1.32       5.8     2.6  5.9 -0.5343E+01 -0.1870E+01  0.5768E+01E
 SPEC TERVHH E MO 12.7 ST  4.3 OM  1.7 f0 6.73 R0.1759 AL 1.46 WI 50.2 MW  2.4 3
 SPEC TERVHH E T1633 3 K 0.020 GD  118 VS 3.20 DE 2.60 Q0 65.0 QA 1.10 Q1 1.00 3
 SPEC MAPVHH E MO 12.8 ST  7.7 OM  2.1 f0 7.58 R0.1562 AL 2.32 WI 19.4 MW  2.5 3
 SPEC MAPVHH E T163247 K 0.020 GD 59.7 VS 3.20 DE 2.60 Q0 65.0 QA 1.10 Q1 1.00 3
 SPEC BENVHH N MO 12.6 ST  6.2 OM  1.8 f0 8.37 R0.1415 AL 3.11 WI 27.3 MW  2.3 3
 SPEC BENVHH N T163248 K 0.020 GD 71.4 VS 3.20 DE 2.60 Q0 65.0 QA 1.10 Q1 1.00 3
 SPEC BAUVHH E MO 13.0 ST 49.1 OM  1.9 f0 12.1 R0.0979 AL 2.81 WI 37.4 MW  2.6 3
 SPEC BAUVHH E T1633 9 K 0.020 GD  147 VS 3.20 DE 2.60 Q0 65.0 QA 1.10 Q1 1.00 3
 ACTION:UP  19-02-18 16:12 OP:rap  STATUS:               ID:20190218163000     I
 OLDACT:REG 19-02-18 12:36 OP:mrc  STATUS:               ID:20190218163000     3
 2019-02-18-1630-00S.MAN___119                                                 6
 STAT SP IPHASW D HRMM SECON CODA AMPLIT PERI AZIMU VELO AIN AR TRES W  DIS CAZ7
 MAPV HZ EP       1632 41.55                              97    0.3310 58.0 214 
 MAPV HE ES       1632 49.19                              97    0.6010 58.0 214 
 BENV HZ EP       1632 43.23                              96    0.1110 70.0 118 
 BENV HN ES       1632 51.35                              96   -0.5610 70.0 118 
 TERV HZ EP       1632 50.74                              93    0.0410  118 254 
 TERV HE ES       1633  4.13                              93   -0.9610  118 254 
 TACV HZ EP       1632 52.34                              93    0.5210  125  96 
 TACV HN ES       1633  6.61                              93   -0.4210  125  96 
 BAUV HZ EP       1632 55.45                              49    0.5110  147 175 
 BAUV HE ES       1633 12.01                              49   -0.4510  147 175 
 FUNV HZ EP       1632 55.65                              49    0.2710  150  81 
                                                                                
 2019  219 0638 24.2 L  10.332 -68.118 15.8  FUN  7 0.5 2.7WFUN                1
 SPEC AVERAGE  MO 13.1 ST  4.1 OM  2.1 f0 4.47 R0.2707 AL 2.41 WI 12.3 MW  2.7 3
 SPEC SD       MO  0.2 ST  2.7 OM  0.1 f00.642 R0.0400 AL      WI      MW  0.1 3
 GAP=193        1.24       5.7     2.4  4.6 -0.2665E+01 -0.7164E-01 -0.2752E-02E
 SPEC TERVHH N MO 13.2 ST  6.9 OM  2.2 f0 5.27 R0.2247 AL 2.31 WI 11.9 MW  2.8 3
 SPEC TERVHH N T 63859 K 0.020 GD  125 VS 3.20 DE 2.60 Q0 65.0 QA 1.10 Q1 1.00 3
 SPEC TACVHH N MO 13.1 ST  1.7 OM  2.1 f0 3.61 R0.3280 AL 3.18 WI 13.6 MW  2.7 3
 SPEC TACVHH N T 63858 K 0.020 GD  123 VS 3.20 DE 2.60 Q0 65.0 QA 1.10 Q1 1.00 3
 SPEC BENVHH N MO 12.8 ST  1.2 OM  2.0 f0 4.13 R0.2867 AL 2.05 WI 11.4 MW  2.5 3
 SPEC BENVHH N T 63845 K 0.020 GD 71.9 VS 3.20 DE 2.60 Q0 65.0 QA 1.10 Q1 1.00 3
 SPEC BAUVHH N MO 13.3 ST  6.7 OM  2.2 f0 4.86 R0.2436 AL 2.12 WI 12.3 MW  2.8 3
 SPEC BAUVHH N T 639 7 K 0.020 GD  154 VS 3.20 DE 2.60 Q0 65.0 QA 1.10 Q1 1.00 3
 ACTION:UP  19-02-19 03:30 OP:rap  STATUS:               ID:20190219063600     I
 OLDACT:REG 19-02-19 03:07 OP:rap  STATUS:               ID:20190219063600     3
 2019-02-19-0636-00S.MAN___119                                                 6
 STAT SP IPHASW D HRMM SECON CODA AMPLIT PERI AZIMU VELO AIN AR TRES W  DIS CAZ7
 BENV HZ EP        638 35.48                              98   -0.6910 70.1 126 
 BENV HN ES        638 44.69                              98   -0.3110 70.1 126 
 TACV HZ EP        638 44.69                              94    0.4010  122 100 
 TACV HN ES        638 59.64                              94    0.5210  122 100 
 TERV HZ EP        638 44.79                              94    0.0410  124 251 
 TERV HN ES        638 59.64                              94   -0.2810  124 251 
 FUNV HZ EP        638 47.35                              49   -0.1810  144  84 
 FUNV HN ES        639  4.19                              49   -0.5810  144  84 
 BAUV HZ EP        638 48.38                              49   -0.2310  154 177 
 BAUV HN ES        639  6.60                              49   -0.0410  154 177 
 SOCV HZ EP        639 15.86                              49    0.3910  377 233 
 CACV HZ EP        639 18.09                              49    0.9410  391 143 
                                                                                
 2019  219 1133 38.1 L  10.344 -68.154 18.0  FUN  5 0.6 2.9WFUN                1
 SPEC AVERAGE  MO 13.4 ST 65.5 OM  2.3 f0 10.1 R0.1178 AL 3.34 WI 44.3 MW  2.9 3
 SPEC SD       MO  0.1 ST 12.8 OM  0.1 f00.590 R0.0069 AL      WI      MW  0.1 3
 GAP=195        1.53       8.6     3.7  6.3 -0.1374E+02 -0.6411E+01  0.1264E+02E
 SPEC TERVHH N MO 13.3 ST 72.7 OM  2.3 f0 10.8 R0.1096 AL 2.80 WI 52.0 MW  2.8 3
 SPEC TERVHH N T113411 K 0.020 GD  122 VS 3.20 DE 2.60 Q0 65.0 QA 1.10 Q1 1.00 3
 SPEC TACVHH E MO 13.2 ST 44.9 OM  2.1 f0 10.5 R0.1128 AL 3.94 WI 30.8 MW  2.7 3
 SPEC TACVHH E T113413 K 0.020 GD  127 VS 3.20 DE 2.60 Q0 65.0 QA 1.10 Q1 1.00 3
 SPEC FUNVHH N MO 13.5 ST 78.8 OM  2.4 f0 9.69 R0.1222 AL 4.04 WI 44.0 MW  3.0 3
 SPEC FUNVHH N T113416 K 0.020 GD  149 VS 3.20 DE 2.60 Q0 65.0 QA 1.10 Q1 1.00 3
 SPEC BAUVHH N MO 13.5 ST 65.8 OM  2.3 f0 9.34 R0.1268 AL 2.58 WI 50.6 MW  2.9 3
 SPEC BAUVHH N T113419 K 0.020 GD  156 VS 3.20 DE 2.60 Q0 65.0 QA 1.10 Q1 1.00 3
 ACTION:UP  19-02-19 07:44 OP:mrc  STATUS:               ID:20190219113100     I
 OLDACT:UP  19-02-19 07:42 OP:mrc  STATUS:               ID:20190219113100     3
 OLDACT:UP  19-02-19 07:41 OP:mrc  STATUS:               ID:20190219113100     3
 OLDACT:UP  19-02-19 07:40 OP:mrc  STATUS:               ID:20190219113100     3
 OLDACT:UP  19-02-19 07:38 OP:mrc  STATUS:               ID:20190219113100     3
 OLDACT:REG 19-02-19 07:38 OP:mrc  STATUS:               ID:20190219113100     3
 2019-02-19-1131-00S.MAN___119                                                 6
 STAT SP IPHASW D HRMM SECON CODA AMPLIT PERI AZIMU VELO AIN AR TRES W  DIS CAZ7
 BENV HZ EP       1133 49.56                              99   -1.1210 74.1 125 
 TERV HZ EP       1133 58.69                              95    0.5910  121 250 
 TERV HN ES       1134 12.48                              95   -0.4310  121 250 
 TACV HZ EP       1133 58.79                              95   -0.0110  126 100 
 TACV HE ES       1134 14.87                              95    0.7410  126 100 
 FUNV HN ES       1134 18.37                              49   -0.6310  148  84 
 BAUV HN ES       1134 20.54                              49    0.1410  155 175 
 BAUV HZ EP       1134  2.70                              49    0.2910  155 175 
 FUNV HZ EP       1134  2.03                              49    0.4310  148  84 
                                                                                
 2019  219 1133 38.3 L  10.273 -68.114  3.6  FUN  7 0.3 2.9WFUN                1
 SPEC AVERAGE  MO 13.4 ST 62.1 OM  2.4 f0 9.60 R0.1288 AL 2.90 WI 33.7 MW  2.9 3
 SPEC SD       MO  0.3 ST 40.2 OM  0.2 f0 1.89 R0.0282 AL      WI      MW  0.2 3
 GAP=187        0.86       3.1     1.6  4.4 -0.1508E+01  0.3423E+01 -0.2139E+01E
 SPEC SOCVHH E MO 13.7 ST 35.2 OM  2.5 f0 6.49 R0.1824 AL 2.01 WI 36.5 MW  3.1 3
 SPEC SOCVHH E T1135 7 K 0.020 GD  193 VS 3.20 DE 2.60 Q0 65.0 QA 1.10 Q1 1.00 3
 SPEC BENVHH E MO 13.2 ST 21.0 OM  2.4 f0 8.24 R0.1437 AL 2.10 WI 25.1 MW  2.7 3
 SPEC BENVHH E T113357 K 0.020 GD 66.2 VS 3.20 DE 2.60 Q0 65.0 QA 1.10 Q1 1.00 3
 SPEC TERVHH N MO 13.2 ST 39.1 OM  2.2 f0 9.50 R0.1246 AL 2.87 WI 37.0 MW  2.8 3
 SPEC TERVHH N T113412 K 0.020 GD  110 VS 3.20 DE 2.60 Q0 65.0 QA 1.10 Q1 1.00 3
 SPEC TACVHH E MO 13.0 ST 52.9 OM  2.0 f0 12.4 R0.0955 AL 4.41 WI 23.3 MW  2.6 3
 SPEC TACVHH E T113411 K 0.020 GD  109 VS 3.20 DE 2.60 Q0 65.0 QA 1.10 Q1 1.00 3
 SPEC FUNVHH N MO 13.7 ST141.0 OM  2.7 f0 9.97 R0.1188 AL 3.13 WI 32.1 MW  3.1 3
 SPEC FUNVHH N T113418 K 0.020 GD  119 VS 3.20 DE 2.60 Q0 65.0 QA 1.10 Q1 1.00 3
 SPEC BAUVHH N MO 13.4 ST 83.5 OM  2.3 f0 11.0 R0.1076 AL 2.87 WI 48.4 MW  2.9 3
 SPEC BAUVHH N T113417 K 0.020 GD  121 VS 3.20 DE 2.60 Q0 65.0 QA 1.10 Q1 1.00 3
 ACTION:UP  19-02-19 08:06 OP:mrc  STATUS:               ID:20190219113101d    I
 OLDACT:UP  19-02-19 08:04 OP:mrc  STATUS:               ID:20190219113101d    3
 OLDACT:UP  19-02-19 07:55 OP:mrc  STATUS:               ID:20190219113101d    3
 OLDACT:UP  19-02-19 07:52 OP:mrc  STATUS:               ID:20190219113101d    3
 OLDACT:DUP 19-02-19 07:48 OP:mrc  STATUS:               ID:20190219113101d    3
 OLDACT:UP  19-02-19 07:42 OP:mrc  STATUS:               ID:20190219113100     3
 OLDACT:UP  19-02-19 07:41 OP:mrc  STATUS:               ID:20190219113100     3
 OLDACT:UP  19-02-19 07:40 OP:mrc  STATUS:               ID:20190219113100     3
 OLDACT:UP  19-02-19 07:38 OP:mrc  STATUS:               ID:20190219113100     3
 OLDACT:REG 19-02-19 07:38 OP:mrc  STATUS:               ID:20190219113100     3
 2019-02-19-1131-00S.MAN___119                                                 6
 STAT SP IPHASW D HRMM SECON CODA AMPLIT PERI AZIMU VELO AIN AR TRES W  DIS CAZ7
 BENV HZ EP       1133 50.16                              94    0.2010 66.1 121 
 BENV HE ES       1133 58.80                              94    0.2410 66.1 121 
 TACV HZ EP       1133 58.79                              65    0.2710  120  97 
 TACV HE ES       1134 13.65                              65    0.2010  120  97 
 TERV HZ EP       1133 58.69                              65   -0.2910  123 254 
 TERV HN ES       1134 14.03                              65   -0.2210  123 254 
 FUNV HZ EP       1134  2.36                              65   -0.0510  144  81 
 FUNV HN ES       1134 19.65                              65   -0.5710  144  81 
 BAUV HN ES       1134 20.54                              65   -0.3810  147 177 
 SOCV HZ EP       1134 31.11                              43    0.5610  373 234 
 SOCV HE ES       1135  9.51                              43    0.3310  373 234 
 CACV HZ EP       1134 31.80                              43   -0.1810  385 143 
 BAUV HZ EP       1134  2.70                              65   -0.1110  147 177 
                                                                                
