 2019  225 0356 39.9 L   9.783 -68.732  7.7  FUN  4 0.4 2.0WFUN                1
 SPEC AVERAGE  MO 12.0 ST0.809 OM  1.1 f0 6.30 R0.1928 AL 1.78 WI 14.4 MW  2.0 3
 SPEC SD       MO  0.1 ST0.461 OM  0.2 f0 1.02 R0.0300 AL      WI      MW  0.1 3
 GAP=151        0.96       4.0     2.5  6.0  0.5030E+01 -0.6709E+01 -0.9636E+01E
 SPEC TERVHH N MO 12.0 ST0.382 OM  1.3 f0 5.13 R0.2308 AL 1.73 WI 11.9 MW  2.0 3
 SPEC TERVHH N T 35655 K 0.020 GD 54.7 VS 3.20 DE 2.60 Q0 65.0 QA 1.10 Q1 1.00 3
 SPEC TACVHH N MO 11.8 ST0.315 OM  0.7 f0 5.64 R0.2099 AL 1.19 WI 15.4 MW  1.8 3
 SPEC TACVHH N T 35731 K 0.020 GD  138 VS 3.20 DE 2.60 Q0 65.0 QA 1.10 Q1 1.00 3
 SPEC BENVHH N MO 12.0 ST  1.3 OM  1.0 f0 7.79 R0.1520 AL 2.49 WI 12.3 MW  1.9 3
 SPEC BENVHH N T 35714 K 0.020 GD  112 VS 3.20 DE 2.60 Q0 65.0 QA 1.10 Q1 1.00 3
 SPEC BAUVHH N MO 12.2 ST  1.3 OM  1.2 f0 6.63 R0.1786 AL 1.72 WI 18.1 MW  2.1 3
 SPEC BAUVHH N T 35711 K 0.020 GD  109 VS 3.20 DE 2.60 Q0 65.0 QA 1.10 Q1 1.00 3
 ACTION:UP  19-02-25 00:16 OP:y    STATUS:               ID:20190225035600     I
 OLDACT:UP  19-02-25 00:15 OP:y    STATUS:               ID:20190225035600     3
 OLDACT:REG 19-02-25 00:15 OP:y    STATUS:               ID:20190225035600     3
 2019-02-25-0356-00S.MAN___119                                                 6
 STAT SP IPHASW D HRMM SECON CODA AMPLIT PERI AZIMU VELO AIN AR TRES W  DIS CAZ7
 TERV HZ EP        356 49.01                              65   -0.3310 54.2 292 
 TERV HN ES        356 56.32                              65    0.0110 54.2 292 
 BAUV HZ EP        356 59.89                              65    0.1510  120 141 
 BAUV HN ES        357 14.20                              65   -0.2010  120 141 
 BENV HZ EP        357  0.85                              65    0.1210  126  81 
 BENV HN ES        357 15.87                              65   -0.2610  126  81 
 TACV HZ EP        357 10.54                              43    0.8310  191  78 
 TACV HN ES        357 31.44                              43   -0.3210  191  78 
                                                                                
 2019  225 1034 38.7 L  10.303 -68.156 18.9  FUN  4 0.3 2.6WFUN                1
 SPEC AVERAGE  MO 13.0 ST 26.9 OM  1.9 f0 9.67 R0.1232 AL 2.09 WI 43.2 MW  2.6 3
 SPEC SD       MO  0.2 ST  7.1 OM  0.2 f00.801 R0.0097 AL      WI      MW  0.1 3
 GAP=268        0.90       7.3     7.8  5.0 -0.4513E+02 -0.7051E+01  0.5031E+01E
 SPEC TACVHH E MO 13.3 ST 34.7 OM  2.2 f0 9.01 R0.1314 AL 1.81 WI 52.0 MW  2.8 3
 SPEC TACVHH E T103513 K 0.020 GD  126 VS 3.20 DE 2.60 Q0 65.0 QA 1.10 Q1 1.00 3
 SPEC FUNVHH N MO 12.9 ST 17.5 OM  1.8 f0 9.21 R0.1286 AL 2.60 WI 34.3 MW  2.6 3
 SPEC FUNVHH N T103518 K 0.020 GD  150 VS 3.20 DE 2.60 Q0 65.0 QA 1.10 Q1 1.00 3
 SPEC BAUVHH E MO 12.9 ST 28.6 OM  1.8 f0 10.8 R0.1096 AL 1.85 WI 43.2 MW  2.6 3
 SPEC BAUVHH E T103517 K 0.020 GD  152 VS 3.20 DE 2.60 Q0 65.0 QA 1.10 Q1 1.00 3
 ACTION:UP  19-02-25 06:46 OP:mrc  STATUS:               ID:20190225103201d    I
 OLDACT:UP  19-02-25 06:46 OP:mrc  STATUS:               ID:20190225103201d    3
 OLDACT:UP  19-02-25 06:45 OP:mrc  STATUS:               ID:20190225103201d    3
 OLDACT:UP  19-02-25 06:44 OP:mrc  STATUS:               ID:20190225103201d    3
 OLDACT:UP  19-02-25 06:43 OP:mrc  STATUS:               ID:20190225103201d    3
 OLDACT:UP  19-02-25 06:42 OP:mrc  STATUS:               ID:20190225103201d    3
 OLDACT:REG 19-02-25 06:41 OP:mrc  STATUS:               ID:20190225103201d    3
 2019-02-25-1032-00S.MAN___119                                                 6
 STAT SP IPHASW D HRMM SECON CODA AMPLIT PERI AZIMU VELO AIN AR TRES W  DIS CAZ7
 TACV HZ EP       1034 58.92                              49   -0.4510  125  98 
 TACV HE ES       1035 15.09                              49    0.4410  125  98 
 FUNV HZ EP       1035  2.32                              49    0.0810  149  83 
 FUNV HN ES       1035 19.48                              49   -0.1610  149  83 
 BAUV HE ES       1035 19.68                              49   -0.2910  151 175 
 BAUV HZ EP       1035  2.94                              49    0.5110  151 175 
 BENV HZ EP       1034 50.86                             101   -0.1310 71.8 122 
                                                                                
 2019  225 1034 40.1 L  10.260 -68.071 21.4  FUN  4 0.4 2.5WFUN                1
 SPEC AVERAGE  MO 12.8 ST 19.6 OM  1.8 f0 9.53 R0.1266 AL 2.32 WI 34.5 MW  2.5 3
 SPEC SD       MO  0.1 ST 11.2 OM  0.0 f0 1.26 R0.0182 AL      WI      MW  0.1 3
 GAP=262        0.99       5.8     6.1  4.8 -0.2263E+02  0.1927E+02 -0.1192E+02E
 SPEC TACVHH N MO 12.8 ST 13.6 OM  1.8 f0 9.21 R0.1286 AL 2.74 WI 27.3 MW  2.5 3
 SPEC TACVHH N T103511 K 0.020 GD  116 VS 3.20 DE 2.60 Q0 65.0 QA 1.10 Q1 1.00 3
 SPEC FUNVHH N MO 12.9 ST 24.5 OM  1.8 f0 10.5 R0.1128 AL 2.28 WI 37.0 MW  2.5 3
 SPEC FUNVHH N T103517 K 0.020 GD  141 VS 3.20 DE 2.60 Q0 65.0 QA 1.10 Q1 1.00 3
 SPEC BENVHH E MO 12.7 ST  5.3 OM  1.9 f0 7.61 R0.1556 AL 2.53 WI 25.5 MW  2.4 3
 SPEC BENVHH E T103457 K 0.020 GD 64.9 VS 3.20 DE 2.60 Q0 65.0 QA 1.10 Q1 1.00 3
 SPEC BAUVHH E MO 13.0 ST 34.9 OM  1.9 f0 10.8 R0.1096 AL 1.73 WI 48.0 MW  2.6 3
 SPEC BAUVHH E T103517 K 0.020 GD  147 VS 3.20 DE 2.60 Q0 65.0 QA 1.10 Q1 1.00 3
 ACTION:UP  19-02-25 06:58 OP:mrc  STATUS:               ID:20190225103202d    I
 OLDACT:UP  19-02-25 06:57 OP:mrc  STATUS:               ID:20190225103202d    3
 OLDACT:UP  19-02-25 06:55 OP:mrc  STATUS:               ID:20190225103202d    3
 OLDACT:DUP 19-02-25 06:51 OP:mrc  STATUS:               ID:20190225103202d    3
 OLDACT:UP  19-02-25 06:46 OP:mrc  STATUS:               ID:20190225103201d    3
 OLDACT:UP  19-02-25 06:45 OP:mrc  STATUS:               ID:20190225103201d    3
 OLDACT:UP  19-02-25 06:44 OP:mrc  STATUS:               ID:20190225103201d    3
 OLDACT:UP  19-02-25 06:43 OP:mrc  STATUS:               ID:20190225103201d    3
 OLDACT:UP  19-02-25 06:42 OP:mrc  STATUS:               ID:20190225103201d    3
 OLDACT:REG 19-02-25 06:41 OP:mrc  STATUS:               ID:20190225103201d    3
 2019-02-25-1032-00S.MAN___119                                                 6
 STAT SP IPHASW D HRMM SECON CODA AMPLIT PERI AZIMU VELO AIN AR TRES W  DIS CAZ7
 BENV HZ EP       1034 50.42                             106   -0.4510 61.3 122 
 BENV HE ES       1034 58.89                             106    0.0710 61.3 122 
 TACV HZ EP       1034 58.94                              97   -0.3210  115  97 
 TACV HN ES       1035 13.84                              97    0.4210  115  97 
 FUNV HN ES       1035 18.67                              49   -0.1310  140  80 
 BAUV HE ES       1035 19.46                              49   -0.3310  146 179 
 BAUV HZ EP       1035  3.63                              49    0.7010  146 179 
 FUNV HZ EP       1035  2.39                              49    0.0410  140  80 
                                                                                
 2019  226 0541 55.8 L  10.288 -68.142 16.7  FUN  6 0.5 2.4WFUN                1
 SPEC AVERAGE  MO 12.7 ST  3.1 OM  1.7 f0 6.00 R0.2134 AL 1.50 WI 20.8 MW  2.4 3
 SPEC SD       MO  0.3 ST  1.6 OM  0.2 f0 1.69 R0.0591 AL      WI      MW  0.2 3
 GAP=189        1.41       6.1     2.8  4.8 -0.3355E+01 -0.1845E+01  0.6656E+01E
 SPEC TERVHH E MO 12.6 ST  1.4 OM  1.6 f0 4.96 R0.2387 AL 1.18 WI 21.6 MW  2.4 3
 SPEC TERVHH E T 54228 K 0.020 GD  122 VS 3.20 DE 2.60 Q0 65.0 QA 1.10 Q1 1.00 3
 SPEC TACVHH N MO 12.4 ST  2.7 OM  1.4 f0 7.14 R0.1658 AL 1.47 WI 20.7 MW  2.2 3
 SPEC TACVHH N T 54229 K 0.020 GD  124 VS 3.20 DE 2.60 Q0 65.0 QA 1.10 Q1 1.00 3
 SPEC FUNVHH E MO 13.0 ST  1.6 OM  1.9 f0 3.86 R0.3067 AL 1.62 WI 19.4 MW  2.6 3
 SPEC FUNVHH E T 54234 K 0.020 GD  147 VS 3.20 DE 2.60 Q0 65.0 QA 1.10 Q1 1.00 3
 SPEC BENVHH E MO 12.5 ST  5.5 OM  1.7 f0 8.64 R0.1370 AL 2.05 WI 25.5 MW  2.3 3
 SPEC BENVHH E T 54216 K 0.020 GD 71.5 VS 3.20 DE 2.60 Q0 65.0 QA 1.10 Q1 1.00 3
 SPEC BAUVHH E MO 13.0 ST  4.5 OM  1.9 f0 5.41 R0.2189 AL 1.19 WI 16.7 MW  2.6 3
 SPEC BAUVHH E T 54234 K 0.020 GD  149 VS 3.20 DE 2.60 Q0 65.0 QA 1.10 Q1 1.00 3
 ACTION:UP  19-02-26 06:34 OP:elv  STATUS:               ID:20190226054000     I
 OLDACT:UP  19-02-26 06:34 OP:elv  STATUS:               ID:20190226054000     3
 OLDACT:UP  19-02-26 06:33 OP:elv  STATUS:               ID:20190226054000     3
 OLDACT:UP  19-02-26 06:32 OP:elv  STATUS:               ID:20190226054000     3
 OLDACT:REG 19-02-26 06:32 OP:elv  STATUS:               ID:20190226054000     3
 2019-02-26-0540-00S.MAN___119                                                 6
 STAT SP IPHASW D HRMM SECON CODA AMPLIT PERI AZIMU VELO AIN AR TRES W  DIS CAZ7
 BENV HZ EP        542  7.71                              99    0.0610 69.5 121 
 BENV HE ES        542 16.84                              99    0.4210 69.5 121 
 TERV HZ EP        542 15.75                              94    0.0710  121 253 
 TERV HE ES        542 30.30                              94   -0.1010  121 253 
 TACV HZ EP        542 14.73                              94   -1.3910  123  98 
 TACV HN ES        542 31.43                              94    0.2610  123  98 
 FUNV HZ EP        542 19.82                              49    0.4510  147  82 
 FUNV HE ES        542 36.79                              49   -0.0310  147  82 
 BAUV HZ EP        542 20.04                              49    0.5410  149 176 
 BAUV HE ES        542 36.72                              49   -0.3310  149 176 
 CACV HZ EP        542 48.86                              49    0.5310  388 142 
 CACV HN ES        543 26.72                              49   -0.4810  388 142 
                                                                                
 2019  226 1445 12.1 L  10.385 -68.305 28.1  FUN  4 0.3 2.4WFUN                1
 SPEC AVERAGE  MO 12.7 ST 17.2 OM  1.8 f0 10.1 R0.1210 AL 2.78 WI 26.3 MW  2.4 3
 SPEC SD       MO  0.1 ST 10.9 OM  0.2 f0 1.73 R0.0199 AL      WI      MW  0.0 3
 GAP=266        0.75       5.1     3.5  2.6 -0.1093E+02 -0.1822E-01 -0.4018E+01E
 SPEC MAPVHH N MO 12.8 ST 17.0 OM  2.0 f0 9.81 R0.1207 AL 2.91 WI 33.9 MW  2.5 3
 SPEC MAPVHH N T144529 K 0.020 GD 69.4 VS 3.20 DE 2.60 Q0 65.0 QA 1.10 Q1 1.00 3
 SPEC TACVHH N MO 12.7 ST 16.7 OM  1.5 f0 11.1 R0.1067 AL 2.33 WI 22.5 MW  2.4 3
 SPEC TACVHH N T144549 K 0.020 GD  145 VS 3.20 DE 2.60 Q0 65.0 QA 1.10 Q1 1.00 3
 SPEC MAPVHH E MO 12.7 ST  7.0 OM  1.9 f0 8.11 R0.1460 AL 2.55 WI 18.5 MW  2.4 3
 SPEC MAPVHH E T144530 K 0.020 GD 69.4 VS 3.20 DE 2.60 Q0 65.0 QA 1.10 Q1 1.00 3
 SPEC BENVHH N MO 12.7 ST  8.1 OM  1.8 f0 8.50 R0.1393 AL 3.09 WI 29.5 MW  2.4 3
 SPEC BENVHH N T144537 K 0.020 GD 94.6 VS 3.20 DE 2.60 Q0 65.0 QA 1.10 Q1 1.00 3
 SPEC BAUVHH E MO 12.8 ST 37.3 OM  1.7 f0 12.8 R0.0925 AL 3.01 WI 26.9 MW  2.5 3
 SPEC BAUVHH E T144552 K 0.020 GD  164 VS 3.20 DE 2.60 Q0 65.0 QA 1.10 Q1 1.00 3
 ACTION:UP  19-02-26 11:17 OP:mrc  STATUS:               ID:20190226144300     I
 OLDACT:UP  19-02-26 11:15 OP:mrc  STATUS:               ID:20190226144300     3
 OLDACT:UP  19-02-26 11:13 OP:mrc  STATUS:               ID:20190226144300     3
 OLDACT:UP  19-02-26 11:13 OP:mrc  STATUS:               ID:20190226144300     3
 OLDACT:UP  19-02-26 11:12 OP:mrc  STATUS:               ID:20190226144300     3
 OLDACT:UP  19-02-26 11:10 OP:mrc  STATUS:               ID:20190226144300     3
 OLDACT:UP  19-02-26 11:08 OP:mrc  STATUS:               ID:20190226144300     3
 OLDACT:UP  19-02-26 11:01 OP:mrc  STATUS:               ID:20190226144300     3
 OLDACT:UP  19-02-26 10:59 OP:mrc  STATUS:               ID:20190226144300     3
 OLDACT:UP  19-02-26 10:58 OP:mrc  STATUS:               ID:20190226144300     3
 OLDACT:UP  19-02-26 10:56 OP:mrc  STATUS:               ID:20190226144300     3
 OLDACT:UP  19-02-26 10:52 OP:mrc  STATUS:               ID:20190226144300     3
 OLDACT:UP  19-02-26 10:51 OP:mrc  STATUS:               ID:20190226144300     3
 OLDACT:REG 19-02-26 10:50 OP:mrc  STATUS:               ID:20190226144300     3
 2019-02-26-1443-00S.MAN___119                                                 6
 STAT SP IPHASW D HRMM SECON CODA AMPLIT PERI AZIMU VELO AIN AR TRES W  DIS CAZ7
 MAPV HZ EP       1445 23.34                             111   -0.1010 63.5 195 
 MAPV HN ES       1445 31.75                             111   -0.1110 63.5 195 
 BENV HZ EP       1445 28.14                             105    0.6110 90.3 121 
 BENV HN ES       1445 38.73                             105   -0.2410 90.3 121 
 TACV HZ EP       1445 33.50                              49   -0.3610  143 101 
 TACV HN ES       1445 49.99                              49   -0.0010  143 101 
 BAUV HZ EP       1445 36.22                              49    0.0810  162 170 
 BAUV HE ES       1445 54.07                              49    0.1210  162 170 
                                                                                
 2019  226 2036 60.0 L  10.344 -68.154  9.7  FUN  7 0.6 2.5WFUN                1
 SPEC AVERAGE  MO 12.8 ST  1.7 OM  1.8 f0 4.19 R0.3265 AL 2.27 WI 15.0 MW  2.5 3
 SPEC SD       MO  0.1 ST  1.3 OM  0.1 f0 1.27 R0.1518 AL      WI      MW  0.1 3
 GAP=195        1.68       7.6     3.3  8.9 -0.1194E+02 -0.4113E+01  0.2808E+02E
 SPEC TERVHH N MO 12.8 ST  1.6 OM  1.8 f0 4.54 R0.2608 AL 2.76 WI 16.3 MW  2.5 3
 SPEC TERVHH N T203733 K 0.020 GD  110 VS 3.20 DE 2.60 Q0 65.0 QA 1.10 Q1 1.00 3
 SPEC TACVHH N MO 12.7 ST  1.2 OM  1.7 f0 4.36 R0.2716 AL 2.66 WI 12.8 MW  2.4 3
 SPEC TACVHH N T203734 K 0.020 GD  112 VS 3.20 DE 2.60 Q0 65.0 QA 1.10 Q1 1.00 3
 SPEC MAPVHH N MO 12.6 ST0.068 OM  1.9 f0 1.81 R0.6541 AL 2.54 WI 13.6 MW  2.4 3
 SPEC MAPVHH N T203719 K 0.020 GD 66.5 VS 3.20 DE 2.60 Q0 65.0 QA 1.10 Q1 1.00 3
 SPEC FUNVHH N MO 12.8 ST  2.0 OM  1.8 f0 4.99 R0.2373 AL 2.24 WI 12.3 MW  2.5 3
 SPEC FUNVHH N T203741 K 0.020 GD  121 VS 3.20 DE 2.60 Q0 65.0 QA 1.10 Q1 1.00 3
 SPEC BENVHH N MO 12.9 ST0.907 OM  2.1 f0 3.55 R0.3335 AL 1.81 WI 23.8 MW  2.5 3
 SPEC BENVHH N T203721 K 0.020 GD 74.6 VS 3.20 DE 2.60 Q0 65.0 QA 1.10 Q1 1.00 3
 SPEC BAUVHH N MO 12.9 ST  4.3 OM  1.9 f0 5.87 R0.2017 AL 1.60 WI 11.4 MW  2.5 3
 SPEC BAUVHH N T203742 K 0.020 GD  124 VS 3.20 DE 2.60 Q0 65.0 QA 1.10 Q1 1.00 3
 ACTION:UP  19-02-26 16:48 OP:rap  STATUS:               ID:20190226203500     I
 OLDACT:UP  19-02-26 16:46 OP:rap  STATUS:               ID:20190226203500     3
 OLDACT:REG 19-02-26 16:45 OP:rap  STATUS:               ID:20190226203500     3
 2019-02-26-2035-00S.MAN___119                                                 6
 STAT SP IPHASW D HRMM SECON CODA AMPLIT PERI AZIMU VELO AIN AR TRES W  DIS CAZ7
 MAPV HZ EP       2037 12.06                              91    0.9710 65.8 210 
 MAPV HN ES       2037 19.72                              91    0.3810 65.8 210 
 BENV HZ EP       2037 13.07                              91    0.6510 74.0 125 
 BENV HN ES       2037 20.79                              91   -0.8610 74.0 125 
 TERV HZ EP       2037 19.20                              90   -0.7110  121 250 
 TERV HN ES       2037 33.88                              90   -0.8010  121 250 
 TACV HZ EP       2037 21.15                              90    0.5610  126 100 
 TACV HN ES       2037 35.15                              90   -0.7210  126 100 
 FUNV HZ EP       2037 24.32                              90    0.1710  148  84 
 FUNV HN ES       2037 41.96                              90   -0.0910  148  84 
 BAUV HZ EP       2037 25.65                              49    0.5210  155 175 
 BAUV HN ES       2037 43.16                              49   -0.6010  155 175 
 CACV HZ EP       2037 54.39                              49    0.5110  394 143 
                                                                                
 2019  227 1959  8.1 L   9.910 -67.213 10.5  FUN  4 0.2 2.2WFUN                1
 SPEC AVERAGE  MO 12.4 ST  1.9 OM  1.7 f0 5.45 R0.2593 AL 2.37 WI 28.7 MW  2.2 3
 SPEC SD       MO  0.3 ST  2.6 OM  0.2 f0 2.83 R0.0831 AL      WI      MW  0.2 3
 GAP=182        0.50       2.8     1.6 34.7 -0.6975E+00  0.1831E+02  0.7186E+02E
 SPEC TACVHH N MO 12.3 ST  7.1 OM  1.8 f0 11.0 R0.1076 AL 4.34 WI 31.3 MW  2.1 3
 SPEC TACVHH N T195916 K 0.020 GD 34.2 VS 3.20 DE 2.60 Q0 65.0 QA 1.10 Q1 1.00 3
 SPEC MAPVHH E MO 12.4 ST0.327 OM  1.4 f0 3.61 R0.3280 AL 1.15 WI 18.5 MW  2.2 3
 SPEC MAPVHH E T195946 K 0.020 GD  119 VS 3.20 DE 2.60 Q0 65.0 QA 1.10 Q1 1.00 3
 SPEC TACVHH E MO 12.1 ST0.412 OM  1.6 f0 5.04 R0.2349 AL 2.04 WI 35.2 MW  2.0 3
 SPEC TACVHH E T195916 K 0.020 GD 34.2 VS 3.20 DE 2.60 Q0 65.0 QA 1.10 Q1 1.00 3
 SPEC BENVHH E MO 12.3 ST0.240 OM  1.7 f0 3.61 R0.3280 AL 2.03 WI 18.5 MW  2.1 3
 SPEC BENVHH E T195919 K 0.020 GD 44.0 VS 3.20 DE 2.60 Q0 65.0 QA 1.10 Q1 1.00 3
 ACTION:UP  19-02-27 23:51 OP:icm  STATUS:               ID:20190227195700     I
 OLDACT:UP  19-02-27 23:50 OP:icm  STATUS:               ID:20190227195700     3
 OLDACT:UP  19-02-27 23:47 OP:icm  STATUS:               ID:20190227195700     3
 OLDACT:UP  19-02-27 16:37 OP:icm  STATUS:               ID:20190227195700     3
 OLDACT:UP  19-02-27 16:32 OP:icm  STATUS:               ID:20190227195700     3
 OLDACT:UP  19-02-27 16:32 OP:icm  STATUS:               ID:20190227195700     3
 OLDACT:UP  19-02-27 16:30 OP:icm  STATUS:               ID:20190227195700     3
 OLDACT:UP  19-02-27 16:25 OP:icm  STATUS:               ID:20190227195700     3
 OLDACT:UP  19-02-27 16:19 OP:icm  STATUS:               ID:20190227195700     3
 OLDACT:UP  19-02-27 16:18 OP:icm  STATUS:               ID:20190227195700     3
 OLDACT:UP  19-02-27 16:17 OP:icm  STATUS:               ID:20190227195700     3
 OLDACT:UP  19-02-27 16:17 OP:icm  STATUS:               ID:20190227195700     3
 OLDACT:UP  19-02-27 16:14 OP:icm  STATUS:               ID:20190227195700     3
 OLDACT:UP  19-02-27 16:13 OP:icm  STATUS:               ID:20190227195700     3
 OLDACT:UP  19-02-27 16:11 OP:icm  STATUS:               ID:20190227195700     3
 OLDACT:UP  19-02-27 16:08 OP:icm  STATUS:               ID:20190227195700     3
 OLDACT:UP  19-02-27 16:06 OP:icm  STATUS:               ID:20190227195700     3
 OLDACT:REG 19-02-27 16:06 OP:icm  STATUS:               ID:20190227195700     3
 2019-02-27-1957-00S.MAN___119                                                 6
 STAT SP IPHASW D HRMM SECON CODA AMPLIT PERI AZIMU VELO AIN AR TRES W  DIS CAZ7
 TACV HZ EP       1959 13.91                              96   -0.0610 32.5  39 
 TACV HN ES       1959 18.45                              96    0.1310 32.5  39 
 BENV HZ EP       1959 15.53                              94   -0.0610 42.7 278 
 BENV HE ES       1959 20.96                              94   -0.1910 42.7 278 
 MAPV HZ EP       1959 30.42                              91   -0.0710  137 266 
 MAPV HE ES       1959 47.37                              91    0.3010  137 266 
 BAUV HZ EP       1959 30.83                              91   -0.2110  140 220 
 BAUV HN ES       1959 48.19                              91    0.1610  140 220 
                                                                                
