 2019  220 0007 37.2 L  10.252 -68.243  9.4  FUN  3 0.4 2.4WFUN                1
 SPEC AVERAGE  MO 12.7 ST  1.3 OM  1.7 f0 4.57 R0.2657 AL 0.41 WI 15.0 MW  2.4 3
 SPEC SD       MO  0.0 ST0.453 OM  0.1 f00.705 R0.0410 AL      WI      MW  0.0 3
 GAP=221        1.15       7.1     2.9 19.0  0.5426E+01  0.5903E+01  0.6013E+02E
 SPEC TERVHH N MO 12.7 ST0.799 OM  1.8 f0 3.86 R0.3067 AL 0.00 WI 14.0 MW  2.4 3
 SPEC TERVHH N T 0 8 6 K 0.020 GD  104 VS 3.20 DE 2.60 Q0 65.0 QA 1.10 Q1 1.00 3
 SPEC BAUVHH N MO 12.6 ST  1.7 OM  1.6 f0 5.27 R0.2247 AL 0.83 WI 16.0 MW  2.4 3
 SPEC BAUVHH N T 0 818 K 0.020 GD  120 VS 3.20 DE 2.60 Q0 65.0 QA 1.10 Q1 1.00 3
 ACTION:UP  19-02-20 05:49 OP:re   STATUS:               ID:20190220000600     I
 OLDACT:UP  19-02-20 05:49 OP:re   STATUS:               ID:20190220000600     3
 OLDACT:REG 19-02-20 05:48 OP:re   STATUS:               ID:20190220000600     3
 2019-02-20-0006-00S.MAN___119                                                 6
 STAT SP IPHASW D HRMM SECON CODA AMPLIT PERI AZIMU VELO AIN AR TRES W  DIS CAZ7
 BENV HZ EP        0 7 50.23                              90   -0.0210 77.5 114 
 BENV HN ES        0 7 59.50                              90   -0.3910 77.5 114 
 TERV HZ EP        0 7 55.86                              90    0.6610  109 253 
 TERV HN ES        0 8  7.82                              90   -0.6910  109 253 
 BAUV HZ EP        0 8  1.50                              90    0.3510  146 171 
 BAUV HN ES        0 8 18.93                              90    0.0810  146 171 
                                                                                
 2019  220 1538 35.3 L  10.509 -67.467 82.8  FUN  3 0.0 1.9WFUN                1
 SPEC AVERAGE  MO 11.9 ST  6.2 OM  0.6 f0 16.7 R0.0869 AL 4.15 WI 31.5 MW  1.9 3
 SPEC SD       MO  0.1 ST  2.0 OM  0.1 f0 1.34 R0.0068 AL      WI      MW  0.1 3
 GAP=290        0.31       4.3     3.6  3.6 -0.1154E+02  0.8053E+01 -0.6040E+01E
 SPEC TACVHH E MO 12.0 ST  8.7 OM  0.7 f0 18.5 R0.0780 AL 5.27 WI 21.1 MW  1.9 3
 SPEC TACVHH E T153859 K 0.020 GD  104 VS 3.90 DE 2.90 Q0 81.0 QA 1.10 Q1 1.00 3
 SPEC BENVHH E MO 11.8 ST  3.7 OM  0.5 f0 16.3 R0.0885 AL 3.65 WI 39.2 MW  1.8 3
 SPEC BENVHH E T153857 K 0.020 GD  103 VS 3.90 DE 2.90 Q0 81.0 QA 1.10 Q1 1.00 3
 SPEC BAUVHH N MO 12.1 ST  6.0 OM  0.5 f0 15.3 R0.0943 AL 3.53 WI 34.3 MW  2.0 3
 SPEC BAUVHH N T153920 K 0.020 GD  201 VS 3.90 DE 2.90 Q0 81.0 QA 1.10 Q1 1.00 3
 ACTION:UP  19-02-20 13:08 OP:icm  STATUS:               ID:20190220153700     I
 OLDACT:UP  19-02-20 12:48 OP:icm  STATUS:               ID:20190220153700     3
 OLDACT:UP  19-02-20 11:57 OP:icm  STATUS:               ID:20190220153700     3
 OLDACT:UP  19-02-20 11:56 OP:icm  STATUS:               ID:20190220153700     3
 OLDACT:UP  19-02-20 11:55 OP:icm  STATUS:               ID:20190220153700     3
 OLDACT:UP  19-02-20 11:51 OP:icm  STATUS:               ID:20190220153700     3
 OLDACT:UP  19-02-20 11:50 OP:icm  STATUS:               ID:20190220153700     3
 OLDACT:UP  19-02-20 11:47 OP:icm  STATUS:               ID:20190220153700     3
 OLDACT:REG 19-02-20 11:47 OP:icm  STATUS:               ID:20190220153700     3
 2019-02-20-1537-00S.MAN___119                                                 6
 STAT SP IPHASW D HRMM SECON CODA AMPLIT PERI AZIMU VELO AIN AR TRES W  DIS CAZ7
 BENV HZ EP       1538 49.63                             139   -0.0610 62.2 193 
 BENV HE ES       1539  0.34                             139    0.0310 62.2 193 
 TACV HZ EP       1538 49.84                             138    0.0810 63.3 130 
 TACV HE ES       1539  0.39                             138   -0.0510 63.3 130 
 BAUV HN ES       1539 22.26                             108    0.0110  184 200 
 BAUV HZ EP       1539  2.27                             108   -0.0210  184 200 
                                                                                
 2019  223 0626  6.1 L  10.218 -67.749  6.7  FUN  7 0.5 2.5WFUN                1
 SPEC AVERAGE  MO 12.9 ST  2.5 OM  2.0 f0 4.98 R0.2416 AL 2.83 WI 14.3 MW  2.5 3
 SPEC SD       MO  0.2 ST0.265 OM  0.2 f00.645 R0.0293 AL      WI      MW  0.1 3
 GAP=175        1.35       5.1     3.6  7.3 -0.1062E+02  0.1588E+02 -0.2455E+02E
 SPEC TERVHH N MO 13.1 ST  2.8 OM  2.0 f0 4.42 R0.2679 AL 2.66 WI 13.6 MW  2.7 3
 SPEC TERVHH N T 62651 K 0.020 GD  126 VS 3.20 DE 2.60 Q0 65.0 QA 1.10 Q1 1.00 3
 SPEC TACVHH N MO 12.6 ST  2.5 OM  1.8 f0 6.03 R0.1964 AL 3.08 WI 14.5 MW  2.4 3
 SPEC TACVHH N T 62629 K 0.020 GD 79.9 VS 3.20 DE 2.60 Q0 65.0 QA 1.10 Q1 1.00 3
 SPEC FUNVHH N MO 12.9 ST  2.0 OM  1.9 f0 4.67 R0.2535 AL 3.43 WI 11.4 MW  2.5 3
 SPEC FUNVHH N T 62636 K 0.020 GD  102 VS 3.20 DE 2.60 Q0 65.0 QA 1.10 Q1 1.00 3
 SPEC BENVHH N MO 12.8 ST  2.6 OM  2.3 f0 5.41 R0.2189 AL 3.05 WI 17.2 MW  2.5 3
 SPEC BENVHH N T 62614 K 0.020 GD 33.4 VS 3.20 DE 2.60 Q0 65.0 QA 1.10 Q1 1.00 3
 SPEC BAUVHH N MO 13.1 ST  2.5 OM  2.0 f0 4.36 R0.2716 AL 1.94 WI 15.0 MW  2.6 3
 SPEC BAUVHH N T 62646 K 0.020 GD  120 VS 3.20 DE 2.60 Q0 65.0 QA 1.10 Q1 1.00 3
 ACTION:UP  19-02-23 05:32 OP:rap  STATUS:               ID:20190223062500     I
 OLDACT:UP  19-02-23 05:31 OP:rap  STATUS:               ID:20190223062500     3
 OLDACT:REG 19-02-23 05:29 OP:rap  STATUS:               ID:20190223062500     3
 2019-02-23-0625-00S.MAN___119                                                 6
 STAT SP IPHASW D HRMM SECON CODA AMPLIT PERI AZIMU VELO AIN AR TRES W  DIS CAZ7
 BENV HZ EP        626 12.00                             103    0.0310 32.7 150 
 BENV HN ES        626 16.71                             103    0.3810 32.7 150 
 TACV HZ EP        626 19.70                              65    0.1010 79.6  96 
 TACV HN ES        626 30.22                              65    0.6110 79.6  96 
 FUNV HZ EP        626 23.82                              65   -0.0710  106  75 
 FUNV HN ES        626 36.37                              65   -0.7010  106  75 
 BAUV HZ EP        626 29.83                              65   -0.0610  145 193 
 BAUV HN ES        626 46.64                              65   -0.8610  145 193 
 TERV HZ EP        626 31.75                              43   -0.5610  161 260 
 TERV HN ES        626 52.56                              43    0.8510  161 260 
 PCRV HZ EP        626 54.48                              43   -0.1610  346  91 
 CACV HZ EP        626 56.39                              43    0.4510  357 147 
                                                                                
 2019  223 0629 19.9 L  10.067 -67.673 17.9  FUN  4 0.6 2.0WFUN                1
 SPEC AVERAGE  MO 12.1 ST0.505 OM  1.3 f0 3.88 R0.6212 AL 2.30 WI 10.4 MW  2.0 3
 SPEC SD       MO  0.2 ST0.485 OM  0.2 f0 2.15 R0.6277 AL      WI      MW  0.1 3
 GAP=177        1.54       7.4     5.8  6.0 -0.1404E+02  0.2526E+02 -0.9992E+01E
 SPEC TERVHH N MO 12.3 ST  1.1 OM  1.1 f0 5.94 R0.1993 AL 2.22 WI  8.4 MW  2.2 3
 SPEC TERVHH N T 630 4 K 0.020 GD  167 VS 3.20 DE 2.60 Q0 65.0 QA 1.10 Q1 1.00 3
 SPEC TACVHH N MO 12.0 ST0.073 OM  1.1 f0 3.12 R0.3795 AL 2.42 WI 10.1 MW  1.9 3
 SPEC TACVHH N T 62941 K 0.020 GD 73.5 VS 3.20 DE 2.60 Q0 65.0 QA 1.10 Q1 1.00 3
 SPEC BENVHH N MO 11.9 ST0.001 OM  1.6 f00.696 R1.7011 AL 2.38 WI 12.8 MW  1.9 3
 SPEC BENVHH N T 62927 K 0.020 GD 22.8 VS 3.20 DE 2.60 Q0 65.0 QA 1.10 Q1 1.00 3
 SPEC BAUVHH N MO 12.2 ST0.796 OM  1.1 f0 5.78 R0.2048 AL 2.17 WI 10.1 MW  2.1 3
 SPEC BAUVHH N T 62957 K 0.020 GD  132 VS 3.20 DE 2.60 Q0 65.0 QA 1.10 Q1 1.00 3
 ACTION:UP  19-02-23 05:41 OP:rap  STATUS:               ID:20190223062502d    I
 OLDACT:REG 19-02-23 05:29 OP:rap  STATUS:               ID:20190223062500     3
 2019-02-23-0625-00S.MAN___119                                                 6
 STAT SP IPHASW D HRMM SECON CODA AMPLIT PERI AZIMU VELO AIN AR TRES W  DIS CAZ7
 BENV HZ EP        629 23.04                             141   -0.7810 14.1 145 
 BENV HN ES        629 27.39                             141    0.6810 14.1 145 
 TACV HZ EP        629 31.23                             100   -0.8410 71.3  84 
 TACV HN ES        629 41.80                             100    0.7410 71.3  84 
 BAUV HZ EP        629 40.73                              49   -0.5310  131 198 
 BAUV HN ES        629 57.21                              49    0.1510  131 198 
 TERV HZ EP        629 45.90                              49    0.2310  167 266 
 TERV HN ES        630  5.09                              49    0.3610  167 266 
                                                                                
 2019  223 0844 38.9 L   9.898 -68.471  9.0  FUN  7 0.2 2.5WFUN                1
 SPEC AVERAGE  MO 12.8 ST  2.4 OM  1.8 f0 4.50 R0.3041 AL 2.31 WI 13.4 MW  2.5 3
 SPEC SD       MO  0.2 ST  3.1 OM  0.1 f0 1.84 R0.1129 AL      WI      MW  0.1 3
 GAP=155        0.63       2.0     1.1  3.5 -0.2967E+00 -0.3535E+00 -0.9095E+00E
 SPEC TERVHH N MO 12.7 ST  1.5 OM  1.8 f0 4.99 R0.2373 AL 2.26 WI 12.3 MW  2.4 3
 SPEC TERVHH N T 845 1 K 0.020 GD 79.9 VS 3.20 DE 2.60 Q0 65.0 QA 1.10 Q1 1.00 3
 SPEC TACVHH N MO 13.1 ST0.356 OM  2.0 f0 2.28 R0.5193 AL 2.01 WI 12.3 MW  2.6 3
 SPEC TACVHH N T 84523 K 0.020 GD  126 VS 3.20 DE 2.60 Q0 65.0 QA 1.10 Q1 1.00 3
 SPEC SOCVHH N MO 12.8 ST  9.3 OM  1.6 f0 8.22 R0.1440 AL 2.79 WI 14.1 MW  2.5 3
 SPEC SOCVHH N T 84554 K 0.020 GD  178 VS 3.20 DE 2.60 Q0 65.0 QA 1.10 Q1 1.00 3
 SPEC FUNVHH N MO 12.9 ST  1.1 OM  1.8 f0 3.81 R0.3108 AL 2.79 WI 13.6 MW  2.5 3
 SPEC FUNVHH N T 84530 K 0.020 GD  138 VS 3.20 DE 2.60 Q0 65.0 QA 1.10 Q1 1.00 3
 SPEC BENVHH N MO 12.6 ST0.657 OM  1.7 f0 3.86 R0.3067 AL 2.81 WI 12.3 MW  2.4 3
 SPEC BENVHH N T 845 5 K 0.020 GD 96.3 VS 3.20 DE 2.60 Q0 65.0 QA 1.10 Q1 1.00 3
 SPEC BAUVHH N MO 13.0 ST  1.5 OM  2.0 f0 3.86 R0.3067 AL 1.17 WI 15.9 MW  2.6 3
 SPEC BAUVHH N T 84510 K 0.020 GD  107 VS 3.20 DE 2.60 Q0 65.0 QA 1.10 Q1 1.00 3
 ACTION:UP  19-02-23 05:48 OP:rap  STATUS:               ID:20190223084300     I
 OLDACT:UP  19-02-23 05:47 OP:rap  STATUS:               ID:20190223084300     3
 OLDACT:UP  19-02-23 05:46 OP:rap  STATUS:               ID:20190223084300     3
 OLDACT:REG 19-02-23 05:43 OP:rap  STATUS:               ID:20190223084300     3
 2019-02-23-0843-00S.MAN___119                                                 6
 STAT SP IPHASW D HRMM SECON CODA AMPLIT PERI AZIMU VELO AIN AR TRES W  DIS CAZ7
 TERV HZ EP        844 51.81                              65   -0.4310 79.4 275 
 TERV HN ES        845  2.30                              65    0.2110 79.4 275 
 BENV HZ EP        844 55.08                              65    0.2110 95.9  86 
 BENV HN ES        845  6.63                              65   -0.0310 95.9  86 
 BAUV HZ EP        844 57.82                              65   -0.1410  116 156 
 BAUV HN ES        845 11.95                              65   -0.0910  116 156 
 TACV HZ EP        845  5.05                              43    0.1910  161  80 
 TACV HN ES        845 23.88                              43   -0.1710  161  80 
 FUNV HZ EP        845  8.56                              43   -0.2110  193  71 
 FUNV HN ES        845 30.83                              43   -0.0310  193  71 
 SOCV HZ EP        845 24.02                              43    0.3110  317 236 
 SOCV HN ES        845 56.69                              43   -0.1610  317 236 
 CACV HZ EP        845 31.60                              43    0.3310  380 134 
                                                                                
 2019  224 0436 38.5 L  10.334 -67.562  9.5  FUN  3 0.3 2.1WFUN                1
 SPEC AVERAGE  MO 12.2 ST  1.2 OM  1.6 f0 6.15 R0.1952 AL 0.92 WI 15.4 MW  2.1 3
 SPEC SD       MO  0.1 ST0.583 OM  0.0 f00.745 R0.0236 AL      WI      MW  0.1 3
 GAP=271        0.69       5.5     4.0  5.0 -0.1496E+02  0.1222E+02 -0.9082E+01E
 SPEC TACVHH N MO 12.3 ST  1.7 OM  1.5 f0 6.90 R0.1716 AL 0.92 WI 18.5 MW  2.1 3
 SPEC TACVHH N T 43657 K 0.020 GD 63.2 VS 3.20 DE 2.60 Q0 65.0 QA 1.10 Q1 1.00 3
 SPEC BENVHH N MO 12.1 ST0.576 OM  1.6 f0 5.41 R0.2189 AL 0.92 WI 12.4 MW  2.0 3
 SPEC BENVHH N T 43651 K 0.020 GD 42.4 VS 3.20 DE 2.60 Q0 65.0 QA 1.10 Q1 1.00 3
 ACTION:UP  19-02-24 06:31 OP:re   STATUS:               ID:20190224043500     I
 OLDACT:UP  19-02-24 06:30 OP:re   STATUS:               ID:20190224043500     3
 OLDACT:REG 19-02-24 06:30 OP:re   STATUS:               ID:20190224043500     3
 2019-02-24-0435-00S.MAN___119                                                 6
 STAT SP IPHASW D HRMM SECON CODA AMPLIT PERI AZIMU VELO AIN AR TRES W  DIS CAZ7
 BENV HZ EP        436 46.16                              91    0.3810 41.3 186 
 BENV HN ES        436 50.95                              91   -0.2210 41.3 186 
 TACV HZ EP        436 48.75                              91   -0.3710 62.5 110 
 TACV HN ES        436 57.21                              91    0.2210 62.5 110 
 BAUV HZ EP        437  4.56                              49   -0.0110  163 199 
 BAUV HN ES        437 23.87                              49    0.0010  163 199 
                                                                                
 2019  224 0503 40.7 L  10.237 -68.135  9.1  FUN  3 0.1 2.2WFUN                1
 SPEC AVERAGE  MO 12.4 ST  2.8 OM  1.4 f0 7.40 R0.1696 AL 0.80 WI 18.0 MW  2.2 3
 SPEC SD       MO  0.1 ST  1.4 OM  0.1 f0 1.76 R0.0403 AL      WI      MW  0.1 3
 GAP=200        0.36       1.7     0.8  5.6 -0.1900E+00 -0.2292E+00  0.2677E+01E
 SPEC TERVHH N MO 12.5 ST  1.4 OM  1.5 f0 5.64 R0.2099 AL 1.18 WI 18.6 MW  2.3 3
 SPEC TERVHH N T 5 414 K 0.020 GD  109 VS 3.20 DE 2.60 Q0 65.0 QA 1.10 Q1 1.00 3
 SPEC BAUVHH N MO 12.3 ST  4.2 OM  1.3 f0 9.16 R0.1293 AL 0.42 WI 17.5 MW  2.2 3
 SPEC BAUVHH N T 5 422 K 0.020 GD  119 VS 3.20 DE 2.60 Q0 65.0 QA 1.10 Q1 1.00 3
 ACTION:UP  19-02-24 06:33 OP:y    STATUS:               ID:20190224050200     I
 OLDACT:UP  19-02-24 06:33 OP:y    STATUS:               ID:20190224050200     3
 OLDACT:REG 19-02-24 06:32 OP:re   STATUS:               ID:20190224050200     3
 2019-02-24-0502-00S.MAN___119                                                 6
 STAT SP IPHASW D HRMM SECON CODA AMPLIT PERI AZIMU VELO AIN AR TRES W  DIS CAZ7
 TERV HZ EP        5 4  0.58                              90    0.1410  120 255 
 TERV HN ES        5 4 14.93                              90   -0.0910  120 255 
 TACV HZ EP        5 4  0.69                              90   -0.1210  122  95 
 TACV HN ES        5 4 15.73                              90    0.0610  122  95 
 BAUV HZ EP        5 4  4.19                              90   -0.0010  143 176 
 BAUV HN ES        5 4 21.55                              90    0.0010  143 176 
                                                                                
 2019  224 0703  1.9 L  10.193 -67.622  8.4  FUN  3 0.0 1.9WFUN                1
 SPEC AVERAGE  MO 11.9 ST0.052 OM  0.8 f0 5.12 R0.4191 AL 0.51 WI 20.8 MW  1.9 3
 SPEC SD       MO  0.0 ST0.000 OM  0.0 f00.000 R0.0000 AL      WI      MW  0.0 3
 GAP=257        0.31       2.9     3.3  2.3 -0.7932E+01  0.5016E+01 -0.4532E+01E
 SPEC BENVHH N MO 11.9 ST0.052 OM  0.8 f0 5.12 R0.4191 AL 0.51 WI 20.8 MW  1.9 3
 SPEC BENVHH N T 7 3 7 K 0.010 GD 26.9 VP 5.80 DE 2.60 Q0500.0 QA 0.70 Q1 1.00 3
 ACTION:UP  19-02-24 07:02 OP:y    STATUS:               ID:20190224070200     I
 OLDACT:UP  19-02-24 07:01 OP:y    STATUS:               ID:20190224070200     3
 OLDACT:UP  19-02-24 07:01 OP:y    STATUS:               ID:20190224070200     3
 OLDACT:REG 19-02-24 07:00 OP:re   STATUS:               ID:20190224070200     3
 2019-02-24-0702-00S.MAN___119                                                 6
 STAT SP IPHASW D HRMM SECON CODA AMPLIT PERI AZIMU VELO AIN AR TRES W  DIS CAZ7
 BENV HZ EP        7 3  6.66                             110    0.0110 25.6 174 
 BENV HN ES        7 3 10.17                             110   -0.0110 25.6 174 
 TACV HZ EP        7 3 13.03                              65    0.0010 65.5  95 
 BAUV HZ EP        7 3 25.72                              65   -0.0110  146 198 
 BAUV HN ES        7 3 43.38                              65    0.0110  146 198 
                                                                                
 2019  225 0205 38.9 L  10.302 -68.149 18.1  FUN  5 0.2 2.4WFUN                1
 SPEC AVERAGE  MO 12.7 ST  2.6 OM  1.6 f0 5.56 R0.2295 AL 1.46 WI 15.2 MW  2.4 3
 SPEC SD       MO  0.3 ST  1.8 OM  0.3 f0 1.57 R0.0588 AL      WI      MW  0.2 3
 GAP=191        0.59       2.8     1.2  2.2 -0.7804E+00 -0.1787E+00  0.1976E+00E
 SPEC TERVHH N MO 12.7 ST  5.7 OM  1.7 f0 7.36 R0.1609 AL 1.59 WI 10.1 MW  2.4 3
 SPEC TERVHH N T 2 613 K 0.020 GD  121 VS 3.20 DE 2.60 Q0 65.0 QA 1.10 Q1 1.00 3
 SPEC TACVHH N MO 12.3 ST0.490 OM  1.3 f0 4.36 R0.2716 AL 0.89 WI 13.6 MW  2.2 3
 SPEC TACVHH N T 2 613 K 0.020 GD  125 VS 3.20 DE 2.60 Q0 65.0 QA 1.10 Q1 1.00 3
 SPEC FUNVHH N MO 13.1 ST  3.2 OM  2.0 f0 4.48 R0.2643 AL 2.20 WI 15.9 MW  2.7 3
 SPEC FUNVHH N T 2 618 K 0.020 GD  149 VS 3.20 DE 2.60 Q0 65.0 QA 1.10 Q1 1.00 3
 SPEC BENVHH E MO 12.2 ST  1.9 OM  1.4 f0 7.58 R0.1562 AL 1.95 WI 18.1 MW  2.1 3
 SPEC BENVHH E T 2 558 K 0.020 GD 73.4 VS 3.20 DE 2.60 Q0 65.0 QA 1.10 Q1 1.00 3
 SPEC BAUVHH N MO 12.9 ST  1.5 OM  1.8 f0 4.02 R0.2945 AL 0.68 WI 18.5 MW  2.6 3
 SPEC BAUVHH N T 2 617 K 0.020 GD  152 VS 3.20 DE 2.60 Q0 65.0 QA 1.10 Q1 1.00 3
 ACTION:UP  19-02-24 22:12 OP:y    STATUS:               ID:20190225020400     I
 OLDACT:UP  19-02-24 22:11 OP:y    STATUS:               ID:20190225020400     3
 OLDACT:UP  19-02-24 22:10 OP:y    STATUS:               ID:20190225020400     3
 OLDACT:REG 19-02-24 22:09 OP:y    STATUS:               ID:20190225020400     3
 2019-02-25-0204-00S.MAN___119                                                 6
 STAT SP IPHASW D HRMM SECON CODA AMPLIT PERI AZIMU VELO AIN AR TRES W  DIS CAZ7
 BENV HZ EP        2 5 50.80                             100   -0.2210 71.1 122 
 BENV HE ES        2 6  0.22                             100    0.2210 71.1 122 
 TERV HZ EP        2 5 58.53                              95   -0.2110  120 252 
 TERV HN ES        2 6 13.50                              95    0.0610  120 252 
 TACV HZ EP        2 5 59.58                              95    0.1810  124  98 
 TACV HN ES        2 6 14.35                              95   -0.2410  124  98 
 FUNV HZ EP        2 6  2.58                              49    0.1810  148  83 
 FUNV HN ES        2 6 19.70                              49   -0.1010  148  83 
 BAUV HN ES        2 6 20.03                              49   -0.2010  151 175 
 BAUV HZ EP        2 6  2.99                              49    0.3410  151 175 
                                                                                
