 2019  213 1102 34.9 L  10.315 -68.145  1.5  FUN  3 0.5 1.9WFUN                1
 SPEC AVERAGE  MO 12.0 ST 15.4 OM  1.0 f0 14.8 R0.0973 AL 6.56 WI 51.8 MW  1.9 3
 SPEC SD       MO  0.2 ST 17.8 OM  0.2 f0 5.83 R0.0457 AL      WI      MW  0.1 3
 GAP=283        1.22       7.3     6.4  9.2 -0.2731E+02  0.1567E+02 -0.5312E+01E
 SPEC TACVHH N MO 11.7 ST  4.7 OM  0.7 f0 15.5 R0.0764 AL 6.14 WI 36.1 MW  1.7 3
 SPEC TACVHH N T11 310 K 0.020 GD  111 VS 3.20 DE 2.60 Q0 65.0 QA 1.10 Q1 1.00 3
 SPEC BENVHH N MO 12.0 ST  1.0 OM  1.2 f0 7.37 R0.1607 AL 2.39 WI 49.3 MW  1.9 3
 SPEC BENVHH N T11 256 K 0.020 GD 71.4 VS 3.20 DE 2.60 Q0 65.0 QA 1.10 Q1 1.00 3
 SPEC BAUVHH N MO 12.2 ST 40.6 OM  1.1 f0 21.6 R0.0548 AL11.14 WI 70.0 MW  2.1 3
 SPEC BAUVHH N T11 317 K 0.020 GD  123 VS 3.20 DE 2.60 Q0 65.0 QA 1.10 Q1 1.00 3
 ACTION:UP  19-02-13 07:11 OP:db   STATUS:               ID:20190213110000     I
 OLDACT:UP  19-02-13 07:10 OP:db   STATUS:               ID:20190213110000     3
 OLDACT:UP  19-02-13 07:09 OP:db   STATUS:               ID:20190213110000     3
 OLDACT:REG 19-02-13 07:09 OP:db   STATUS:               ID:20190213110000     3
 2019-02-13-1100-00S.MAN___119                                                 6
 STAT SP IPHASW D HRMM SECON CODA AMPLIT PERI AZIMU VELO AIN AR TRES W  DIS CAZ7
 BENV HZ EP       11 2 47.95                              92    0.5510 71.4 123 
 BENV HN ES       11 2 56.36                              92   -0.3210 71.4 123 
 TACV HZ EP       11 2 55.02                              65   -0.8110  124  99 
 TACV HN ES       11 3 11.81                              65    0.4610  124  99 
 BAUV HZ EP       11 3  0.50                              65    0.2510  152 176 
 BAUV HN ES       11 3 18.89                              65   -0.1510  152 176 
                                                                                
 2019  213 1557 33.6 L  10.261 -68.133 14.6  FUN  4 0.4 1.9WFUN                1
 SPEC AVERAGE  MO 11.9 ST  1.0 OM  0.9 f0 7.93 R0.1528 AL 2.19 WI 45.2 MW  1.9 3
 SPEC SD       MO  0.2 ST0.329 OM  0.1 f0 1.26 R0.0225 AL      WI      MW  0.1 3
 GAP=239        1.09       8.4     3.8  5.7 -0.2206E+02 -0.2920E+01  0.1697E+02E
 SPEC TACVHH E MO 11.8 ST0.487 OM  0.7 f0 6.73 R0.1759 AL 2.55 WI 44.0 MW  1.8 3
 SPEC TACVHH E T1558 8 K 0.020 GD  122 VS 3.20 DE 2.60 Q0 65.0 QA 1.10 Q1 1.00 3
 SPEC MAPVHH E MO 11.8 ST0.966 OM  1.1 f0 8.22 R0.1440 AL 2.30 WI 54.2 MW  1.8 3
 SPEC MAPVHH E T155749 K 0.020 GD 61.2 VS 3.20 DE 2.60 Q0 65.0 QA 1.10 Q1 1.00 3
 SPEC BENVHH E MO 11.7 ST  1.2 OM  0.9 f0 9.87 R0.1200 AL 2.54 WI 43.2 MW  1.7 3
 SPEC BENVHH E T155751 K 0.020 GD 68.8 VS 3.20 DE 2.60 Q0 65.0 QA 1.10 Q1 1.00 3
 SPEC BAUVHH N MO 12.2 ST  1.4 OM  1.1 f0 6.92 R0.1711 AL 1.39 WI 39.6 MW  2.1 3
 SPEC BAUVHH N T155812 K 0.020 GD  146 VS 3.20 DE 2.60 Q0 65.0 QA 1.10 Q1 1.00 3
 ACTION:UP  19-02-13 12:14 OP:db   STATUS:               ID:20190213155600     I
 OLDACT:UP  19-02-13 12:08 OP:db   STATUS:               ID:20190213155600     3
 OLDACT:UP  19-02-13 12:08 OP:db   STATUS:               ID:20190213155600     3
 OLDACT:UP  19-02-13 12:08 OP:db   STATUS:               ID:20190213155600     3
 OLDACT:UP  19-02-13 12:05 OP:db   STATUS:               ID:20190213155600     3
 OLDACT:REG 19-02-13 12:04 OP:db   STATUS:               ID:20190213155600     3
 2019-02-13-1556-00S.MAN___119                                                 6
 STAT SP IPHASW D HRMM SECON CODA AMPLIT PERI AZIMU VELO AIN AR TRES W  DIS CAZ7
 MAPV HZ EP       1557 43.51                              98   -0.2410 59.4 217 
 MAPV HE ES       1557 51.49                              98    0.2010 59.4 217 
 BENV HZ EP       1557 45.15                              97    0.1510 67.2 119 
 BENV HE ES       1557 53.23                              97   -0.2310 67.2 119 
 TACV HZ EP       1557 52.98                              93   -0.6810  122  96 
 TACV HE ES       1558  9.08                              93    0.5510  122  96 
 BAUV HZ EP       1557 57.67                              49    0.5610  146 176 
 BAUV HN ES       1558 14.22                              49   -0.3210  146 176 
                                                                                
 2019  213 1710 39.3 L  10.300 -68.164 15.7  FUN  3 0.2 1.9WFUN                1
 SPEC AVERAGE  MO 12.0 ST  1.8 OM  1.1 f0 8.42 R0.1406 AL 2.39 WI 44.0 MW  1.9 3
 SPEC SD       MO  0.3 ST  1.1 OM  0.1 f00.075 R0.0013 AL      WI      MW  0.2 3
 GAP=269        0.66       6.3     2.6  3.3 -0.8860E+01 -0.7396E+00  0.4666E+01E
 SPEC MAPVHH N MO 11.8 ST0.875 OM  1.0 f0 8.37 R0.1415 AL 2.68 WI 35.7 MW  1.8 3
 SPEC MAPVHH N T171055 K 0.020 GD 63.1 VS 3.20 DE 2.60 Q0 65.0 QA 1.10 Q1 1.00 3
 SPEC BENVHH E MO 11.9 ST  1.2 OM  1.0 f0 8.53 R0.1388 AL 1.92 WI 50.2 MW  1.9 3
 SPEC BENVHH E T171059 K 0.020 GD 74.0 VS 3.20 DE 2.60 Q0 65.0 QA 1.10 Q1 1.00 3
 SPEC BAUVHH N MO 12.3 ST  3.3 OM  1.2 f0 8.37 R0.1415 AL 2.57 WI 46.2 MW  2.2 3
 SPEC BAUVHH N T171119 K 0.020 GD  151 VS 3.20 DE 2.60 Q0 65.0 QA 1.10 Q1 1.00 3
 ACTION:UP  19-02-13 13:28 OP:db   STATUS:               ID:20190213170800     I
 OLDACT:UP  19-02-13 13:28 OP:db   STATUS:               ID:20190213170800     3
 OLDACT:UP  19-02-13 13:27 OP:db   STATUS:               ID:20190213170800     3
 OLDACT:UP  19-02-13 13:27 OP:db   STATUS:               ID:20190213170800     3
 OLDACT:UP  19-02-13 13:26 OP:db   STATUS:               ID:20190213170800     3
 OLDACT:UP  19-02-13 13:24 OP:db   STATUS:               ID:20190213170800     3
 OLDACT:REG 19-02-13 13:23 OP:db   STATUS:               ID:20190213170800     3
 2019-02-13-1708-00S.MAN___119                                                 6
 STAT SP IPHASW D HRMM SECON CODA AMPLIT PERI AZIMU VELO AIN AR TRES W  DIS CAZ7
 MAPV HZ EP       1710 49.55                              99   -0.2810 61.1 212 
 MAPV HN ES       1710 57.74                              99    0.1610 61.1 212 
 BENV HZ EP       1710 51.49                              97   -0.1210 72.3 121 
 BENV HE ES       1711  0.76                              97    0.0710 72.3 121 
 BAUV HZ EP       1711  3.74                              49    0.4010  151 175 
 BAUV HN ES       1711 20.87                              49   -0.2310  151 175 
                                                                                
 2019  213 1907 20.6 L  10.270 -68.112 13.3  FUN  4 0.1 2.1WFUN                1
 SPEC AVERAGE  MO 12.3 ST  7.5 OM  1.3 f0 9.66 R0.1372 AL 2.34 WI 17.9 MW  2.1 3
 SPEC SD       MO  0.2 ST  6.6 OM  0.2 f0 3.01 R0.0479 AL      WI      MW  0.1 3
 GAP=239        0.40       3.1     1.3  2.2 -0.2765E+01 -0.3419E+00  0.2435E+01E
 SPEC TACVHH E MO 12.0 ST0.525 OM  1.0 f0 5.63 R0.2103 AL 1.17 WI 24.2 MW  2.0 3
 SPEC TACVHH E T19 753 K 0.020 GD  118 VS 3.20 DE 2.60 Q0 65.0 QA 1.10 Q1 1.00 3
 SPEC MAPVHH N MO 12.1 ST  1.8 OM  1.4 f0 7.90 R0.1499 AL 3.55 WI 15.4 MW  2.0 3
 SPEC MAPVHH N T19 738 K 0.020 GD 62.9 VS 3.20 DE 2.60 Q0 65.0 QA 1.10 Q1 1.00 3
 SPEC BENVHH N MO 12.3 ST 11.5 OM  1.5 f0 12.8 R0.0925 AL 1.78 WI 20.7 MW  2.2 3
 SPEC BENVHH N T19 738 K 0.020 GD 67.0 VS 3.20 DE 2.60 Q0 65.0 QA 1.10 Q1 1.00 3
 SPEC BAUVHH E MO 12.5 ST 16.2 OM  1.4 f0 12.3 R0.0963 AL 2.85 WI 11.4 MW  2.3 3
 SPEC BAUVHH E T19 8 0 K 0.020 GD  142 VS 3.20 DE 2.60 Q0 65.0 QA 1.10 Q1 1.00 3
 ACTION:UP  19-02-13 15:20 OP:db   STATUS:               ID:20190213190500     I
 OLDACT:UP  19-02-13 15:19 OP:db   STATUS:               ID:20190213190500     3
 OLDACT:UP  19-02-13 15:17 OP:db   STATUS:               ID:20190213190500     3
 OLDACT:REG 19-02-13 15:17 OP:db   STATUS:               ID:20190213190500     3
 2019-02-13-1905-00S.MAN___119                                                 6
 STAT SP IPHASW D HRMM SECON CODA AMPLIT PERI AZIMU VELO AIN AR TRES W  DIS CAZ7
 MAPV HZ EP       19 7 31.03                              96   -0.1010 61.5 218 
 MAPV HN ES       19 7 38.92                              96    0.0210 61.5 218 
 BENV HZ EP       19 7 31.88                              95    0.0710 65.7 121 
 BENV HN ES       19 7 40.13                              95    0.0410 65.7 121 
 TACV HZ EP       19 7 40.26                              92   -0.1110  120  97 
 TACV HE ES       19 7 54.96                              92   -0.0210  120  97 
 BAUV HZ EP       19 7 44.66                              49    0.2510  147 177 
 BAUV HE ES       19 8  1.86                              49   -0.1510  147 177 
                                                                                
 2019  214 1553 29.8 L  10.329 -68.163 18.4  FUN  4 0.2 2.1WFUN                1
 SPEC AVERAGE  MO 12.3 ST  5.6 OM  1.3 f0 10.2 R0.1175 AL 3.14 WI 23.2 MW  2.1 3
 SPEC SD       MO  0.2 ST  2.2 OM  0.2 f0 1.14 R0.0130 AL      WI      MW  0.2 3
 GAP=249        0.56       4.1     2.0  2.6 -0.5622E+01 -0.8653E-01  0.2188E+01E
 SPEC TACVHH E MO 12.1 ST  5.3 OM  1.0 f0 11.7 R0.1012 AL 3.15 WI 22.5 MW  2.0 3
 SPEC TACVHH E T1554 4 K 0.020 GD  127 VS 3.20 DE 2.60 Q0 65.0 QA 1.10 Q1 1.00 3
 SPEC MAPVHH N MO 12.3 ST  7.4 OM  1.6 f0 10.9 R0.1086 AL 4.08 WI 19.8 MW  2.2 3
 SPEC MAPVHH N T155346 K 0.020 GD 66.4 VS 3.20 DE 2.60 Q0 65.0 QA 1.10 Q1 1.00 3
 SPEC BENVHH E MO 12.0 ST  2.2 OM  1.2 f0 9.29 R0.1274 AL 2.96 WI 14.1 MW  2.0 3
 SPEC BENVHH E T155350 K 0.020 GD 76.2 VS 3.20 DE 2.60 Q0 65.0 QA 1.10 Q1 1.00 3
 SPEC BAUVHH N MO 12.6 ST  7.7 OM  1.5 f0 8.92 R0.1327 AL 2.36 WI 36.5 MW  2.4 3
 SPEC BAUVHH N T155410 K 0.020 GD  155 VS 3.20 DE 2.60 Q0 65.0 QA 1.10 Q1 1.00 3
 ACTION:UP  19-02-14 12:06 OP:mrc  STATUS:               ID:20190214155100     I
 OLDACT:UP  19-02-14 12:01 OP:mrc  STATUS:               ID:20190214155100     3
 OLDACT:UP  19-02-14 12:00 OP:mrc  STATUS:               ID:20190214155100     3
 OLDACT:UP  19-02-14 11:58 OP:mrc  STATUS:               ID:20190214155100     3
 OLDACT:REG 19-02-14 11:57 OP:mrc  STATUS:               ID:20190214155100     3
 2019-02-14-1551-00S.MAN___119                                                 6
 STAT SP IPHASW D HRMM SECON CODA AMPLIT PERI AZIMU VELO AIN AR TRES W  DIS CAZ7
 MAPV HZ EP       1553 40.51                             102   -0.3110 63.8 210 
 MAPV HN IS       1553 49.17                             102    0.2210 63.8 210 
 BENV HZ EP       1553 42.51                             100    0.0910 73.9 123 
 BENV HE ES       1553 51.57                             100   -0.1610 73.9 123 
 TACV HZ EP       1553 50.52                              95   -0.1310  126 100 
 TACV HE ES       1554  6.25                              95    0.1910  126 100 
 BAUV HN ES       1554 11.62                              49   -0.1310  154 175 
 BAUV HZ EP       1553 54.14                              49    0.2210  154 175 
                                                                                
 2019  215 0121  3.8 L  10.400 -67.611  6.1  FUN  3 0.4 2.3WFUN                1
 SPEC AVERAGE  MO 12.5 ST 19.6 OM  1.7 f0 8.97 R0.6014 AL 2.31 WI 30.5 MW  2.3 3
 SPEC SD       MO  0.2 ST 25.5 OM  0.2 f0 6.68 R0.7096 AL      WI      MW  0.1 3
 GAP=278        0.95       6.6     4.3  4.7 -0.1579E+02  0.5299E+01 -0.1462E+02E
 SPEC TACVHH N MO 12.7 ST0.005 OM  1.9 f00.738 R1.6043 AL 0.83 WI 26.4 MW  2.4 3
 SPEC TACVHH N T 12123 K 0.020 GD 70.5 VS 3.20 DE 2.60 Q0 65.0 QA 1.10 Q1 1.00 3
 SPEC BENVHH E MO 12.2 ST  3.1 OM  1.6 f0 9.06 R0.1307 AL 1.98 WI 32.6 MW  2.1 3
 SPEC BENVHH E T 12117 K 0.020 GD 48.8 VS 3.20 DE 2.60 Q0 65.0 QA 1.10 Q1 1.00 3
 SPEC BAUVHH E MO 12.6 ST 55.7 OM  1.6 f0 17.1 R0.0692 AL 4.12 WI 32.6 MW  2.4 3
 SPEC BAUVHH E T 12148 K 0.020 GD  129 VS 3.20 DE 2.60 Q0 65.0 QA 1.10 Q1 1.00 3
 ACTION:UP  19-02-14 21:32 OP:icm  STATUS:               ID:20190215011900     I
 OLDACT:UP  19-02-14 21:31 OP:icm  STATUS:               ID:20190215011900     3
 OLDACT:UP  19-02-14 21:29 OP:icm  STATUS:               ID:20190215011900     3
 OLDACT:REG 19-02-14 21:29 OP:icm  STATUS:               ID:20190215011900     3
 2019-02-15-0119-00S.MAN___119                                                 6
 STAT SP IPHASW D HRMM SECON CODA AMPLIT PERI AZIMU VELO AIN AR TRES W  DIS CAZ7
 BENV HE ES        121 18.95                              98    0.1910 48.4 178 
 TACV HZ EP        121 15.62                              65   -0.3010 70.2 114 
 TACV HN ES        121 25.03                              65    0.1710 70.2 114 
 BAUV HE ES        121 50.70                              43   -0.3610  168 196 
 BENV HZ EP        121 12.09                              98   -0.3310 48.4 178 
 BAUV HZ EP        121 31.60                              43    0.6210  168 196 
                                                                                
 2019  215 0300  1.5 L  10.290 -68.147 10.3  FUN  4 0.2 2.0WFUN                1
 SPEC AVERAGE  MO 12.0 ST  2.0 OM  1.0 f0 7.31 R0.2922 AL 2.55 WI 24.4 MW  2.0 3
 SPEC SD       MO  0.1 ST  2.4 OM  0.1 f0 4.05 R0.2661 AL      WI      MW  0.1 3
 GAP=205        0.58       2.6     1.3135.7 -0.4117E+00  0.7245E+02 -0.5045E+02E
 SPEC TERVHH N MO 12.0 ST0.646 OM  1.0 f0 6.28 R0.1885 AL 1.61 WI 16.7 MW  1.9 3
 SPEC TERVHH N T 3 034 K 0.020 GD  110 VS 3.20 DE 2.60 Q0 65.0 QA 1.10 Q1 1.00 3
 SPEC TACVHH N MO 12.2 ST0.017 OM  1.2 f0 1.58 R0.7494 AL 1.28 WI 36.1 MW  2.1 3
 SPEC TACVHH N T 3 034 K 0.020 GD  112 VS 3.20 DE 2.60 Q0 65.0 QA 1.10 Q1 1.00 3
 SPEC BENVHH N MO 11.8 ST  1.1 OM  1.0 f0 8.56 R0.1383 AL 3.23 WI 10.6 MW  1.8 3
 SPEC BENVHH N T 3 021 K 0.020 GD 70.9 VS 3.20 DE 2.60 Q0 65.0 QA 1.10 Q1 1.00 3
 SPEC BAUVHH N MO 12.0 ST  6.2 OM  1.0 f0 12.8 R0.0925 AL 4.09 WI 34.3 MW  2.0 3
 SPEC BAUVHH N T 3 042 K 0.020 GD  124 VS 3.20 DE 2.60 Q0 65.0 QA 1.10 Q1 1.00 3
 ACTION:UP  19-02-14 23:19 OP:icm  STATUS:               ID:20190215025800     I
 OLDACT:UP  19-02-14 23:17 OP:icm  STATUS:               ID:20190215025800     3
 OLDACT:UP  19-02-14 23:16 OP:icm  STATUS:               ID:20190215025800     3
 OLDACT:UP  19-02-14 23:15 OP:icm  STATUS:               ID:20190215025800     3
 OLDACT:UP  19-02-14 23:13 OP:icm  STATUS:               ID:20190215025800     3
 OLDACT:REG 19-02-14 23:12 OP:icm  STATUS:               ID:20190215025800     3
 2019-02-15-0258-00S.MAN___119                                                 6
 STAT SP IPHASW D HRMM SECON CODA AMPLIT PERI AZIMU VELO AIN AR TRES W  DIS CAZ7
 BENV HN ES        3 0 22.10                              91   -0.0810 70.1 121 
 TERV HZ EP        3 0 20.91                              91   -0.4010  120 253 
 TERV HN ES        3 0 36.14                              91    0.2010  120 253 
 TACV HZ EP        3 0 22.00                              91    0.0810  124  98 
 TACV HN ES        3 0 36.90                              91   -0.1010  124  98 
 BAUV HN ES        3 0 43.86                              91   -0.1310  149 176 
 BAUV HZ EP        3 0 26.18                              91    0.2410  149 176 
 BENV HZ EP        3 0 13.57                              91    0.1710 70.1 121 
                                                                                
 2019  215 0756 20.3 L  10.278 -68.145 23.0  FUN  5 0.3 2.9WFUN                1
 SPEC AVERAGE  MO 13.4 ST 41.5 OM  2.4 f0 8.31 R0.1482 AL 3.36 WI 42.7 MW  2.9 3
 SPEC SD       MO  0.3 ST 14.3 OM  0.2 f0 1.58 R0.0300 AL      WI      MW  0.2 3
 GAP=188        0.79       3.8     2.1  3.2 -0.2205E+01  0.2682E+01 -0.3783E+01E
 SPEC TERVHH N MO 13.2 ST 21.2 OM  2.2 f0 7.73 R0.1532 AL 2.32 WI 37.4 MW  2.8 3
 SPEC TERVHH N T 75651 K 0.020 GD  122 VS 3.20 DE 2.60 Q0 65.0 QA 1.10 Q1 1.00 3
 SPEC TACVHH N MO 13.2 ST 55.9 OM  2.2 f0 10.6 R0.1117 AL 5.13 WI 45.8 MW  2.8 3
 SPEC TACVHH N T 75653 K 0.020 GD  125 VS 3.20 DE 2.60 Q0 65.0 QA 1.10 Q1 1.00 3
 SPEC FUNVHH N MO 13.9 ST 46.4 OM  2.8 f0 5.92 R0.2000 AL 3.86 WI 45.4 MW  3.2 3
 SPEC FUNVHH N T 75657 K 0.020 GD  149 VS 3.20 DE 2.60 Q0 65.0 QA 1.10 Q1 1.00 3
 SPEC BENVHH E MO 13.1 ST 28.2 OM  2.3 f0 9.35 R0.1266 AL 2.90 WI 38.3 MW  2.7 3
 SPEC BENVHH E T 75638 K 0.020 GD 73.0 VS 3.20 DE 2.60 Q0 65.0 QA 1.10 Q1 1.00 3
 SPEC BAUVHH N MO 13.6 ST 55.9 OM  2.5 f0 7.93 R0.1493 AL 2.58 WI 46.7 MW  3.0 3
 SPEC BAUVHH N T 75657 K 0.020 GD  149 VS 3.20 DE 2.60 Q0 65.0 QA 1.10 Q1 1.00 3
 ACTION:UP  19-02-15 04:26 OP:icm  STATUS:               ID:20190215075400     I
 OLDACT:UP  19-02-15 04:25 OP:icm  STATUS:               ID:20190215075400     3
 OLDACT:UP  19-02-15 04:09 OP:icm  STATUS:               ID:20190215075400     3
 OLDACT:UP  19-02-15 04:08 OP:icm  STATUS:               ID:20190215075400     3
 OLDACT:UP  19-02-15 04:04 OP:icm  STATUS:               ID:20190215075400     3
 OLDACT:REG 19-02-15 04:04 OP:icm  STATUS:               ID:20190215075400     3
 2019-02-15-0754-00S.MAN___119                                                 6
 STAT SP IPHASW D HRMM SECON CODA AMPLIT PERI AZIMU VELO AIN AR TRES W  DIS CAZ7
 BENV HZ EP        756 31.67                             105   -0.6810 69.3 120 
 TERV HZ EP        756 40.08                              49    0.1710  120 253 
 TERV HN ES        756 54.32                              49   -0.0810  120 253 
 TACV HZ EP        756 40.36                              49    0.0110  123  97 
 TACV HN ES        756 55.16                              49   -0.0110  123  97 
 BAUV HN ES        757  0.04                              49   -0.1910  148 176 
 FUNV HZ EP        756 43.47                              49    0.1610  148  82 
 FUNV HN ES        757  0.24                              49   -0.0810  148  82 
 BAUV HZ EP        756 43.57                              49    0.3110  148 176 
 BENV HE ES        756 41.66                             105    0.4110 69.3 120 
                                                                                
 2019  215 1845  4.1 L  10.376 -67.554 20.6  FUN  3 0.4 2.0WFUN                1
 SPEC AVERAGE  MO 12.0 ST  4.0 OM  0.9 f0 11.2 R0.1364 AL 2.83 WI 45.9 MW  2.0 3
 SPEC SD       MO  0.2 ST  3.5 OM  0.3 f00.403 R0.0467 AL      WI      MW  0.1 3
 GAP=276        0.94       8.4     5.6  4.9 -0.3268E+02  0.1714E+02 -0.1757E+02E
 SPEC TACVHH E MO 11.9 ST  2.9 OM  1.1 f0 11.4 R0.1039 AL 2.73 WI 61.6 MW  1.9 3
 SPEC TACVHH E T184521 K 0.020 GD 66.8 VS 3.20 DE 2.60 Q0 65.0 QA 1.10 Q1 1.00 3
 SPEC BENVHH E MO 11.9 ST0.449 OM  0.5 f0 10.6 R0.2025 AL 2.67 WI 36.5 MW  1.9 3
 SPEC BENVHH E T184515 K 0.010 GD 50.4 VP 5.80 DE 2.60 Q0500.0 QA 0.70 Q1 1.00 3
 SPEC BAUVHH E MO 12.3 ST  8.7 OM  1.2 f0 11.5 R0.1030 AL 3.08 WI 39.6 MW  2.2 3
 SPEC BAUVHH E T184546 K 0.020 GD  168 VS 3.20 DE 2.60 Q0 65.0 QA 1.10 Q1 1.00 3
 ACTION:UP  19-02-15 15:03 OP:mrc  STATUS:               ID:20190215184300     I
 OLDACT:UP  19-02-15 15:02 OP:mrc  STATUS:               ID:20190215184300     3
 OLDACT:UP  19-02-15 14:59 OP:mrc  STATUS:               ID:20190215184300     3
 OLDACT:UP  19-02-15 14:57 OP:mrc  STATUS:               ID:20190215184300     3
 OLDACT:UP  19-02-15 14:55 OP:mrc  STATUS:               ID:20190215184300     3
 OLDACT:UP  19-02-15 14:53 OP:mrc  STATUS:               ID:20190215184300     3
 OLDACT:REG 19-02-15 14:52 OP:mrc  STATUS:               ID:20190215184300     3
 2019-02-15-1843-00S.MAN___119                                                 6
 STAT SP IPHASW D HRMM SECON CODA AMPLIT PERI AZIMU VELO AIN AR TRES W  DIS CAZ7
 BENV HZ EP       1845 12.78                             111    0.3010 46.0 186 
 BENV HE ES       1845 18.51                             111   -0.1710 46.0 186 
 TACV HZ EP       1845 15.43                             104    0.3210 63.5 114 
 TACV HE ES       1845 23.09                             104   -0.1810 63.5 114 
 BAUV HZ EP       1845 28.96                              49   -0.6210  167 199 
 BAUV HE ES       1845 48.80                              49    0.3610  167 199 
                                                                                
