 2019  3 6 1817 54.8 L  10.242 -68.146 13.0  FUN  5 0.5 2.4WFUN                1
 SPEC AVERAGE  MO 12.7 ST  5.7 OM  1.7 f0 7.49 R0.1698 AL 1.72 WI 37.1 MW  2.4 3
 SPEC SD       MO  0.3 ST  4.8 OM  0.3 f0 2.13 R0.0433 AL      WI      MW  0.2 3
 GAP=200        1.32       7.2     2.6  7.2 -0.6128E+01 -0.2781E+01  0.2362E+02E
 SPEC MAPVHH E MO 12.4 ST  2.6 OM  1.7 f0 7.24 R0.1635 AL 1.43 WI 43.2 MW  2.2 3
 SPEC MAPVHH E T181810 K 0.020 GD 58.3 VS 3.20 DE 2.60 Q0 65.0 QA 1.10 Q1 1.00 3
 SPEC BENVHH N MO 12.7 ST  3.6 OM  1.9 f0 6.49 R0.1824 AL 1.65 WI 43.2 MW  2.4 3
 SPEC BENVHH N T181813 K 0.020 GD 68.6 VS 3.20 DE 2.60 Q0 65.0 QA 1.10 Q1 1.00 3
 SPEC TERVHH E MO 12.4 ST  2.8 OM  1.4 f0 7.38 R0.1604 AL 1.22 WI 18.9 MW  2.2 3
 SPEC TERVHH E T181828 K 0.020 GD  117 VS 3.20 DE 2.60 Q0 65.0 QA 1.10 Q1 1.00 3
 SPEC TACVHH N MO 13.1 ST  4.4 OM  2.1 f0 4.96 R0.2387 AL 1.56 WI 24.2 MW  2.7 3
 SPEC TACVHH N T181829 K 0.020 GD  120 VS 3.20 DE 2.60 Q0 65.0 QA 1.10 Q1 1.00 3
 SPEC BAUVHH E MO 12.6 ST 15.3 OM  1.5 f0 11.4 R0.1039 AL 2.73 WI 55.9 MW  2.3 3
 SPEC BAUVHH E T181832 K 0.020 GD  138 VS 3.20 DE 2.60 Q0 65.0 QA 1.10 Q1 1.00 3
 ACTION:UP  19-03-06 14:35 OP:mrc  STATUS:               ID:20190306181600     I
 OLDACT:UP  19-03-06 14:33 OP:mrc  STATUS:               ID:20190306181600     3
 OLDACT:UP  19-03-06 14:33 OP:mrc  STATUS:               ID:20190306181600     3
 OLDACT:UP  19-03-06 14:27 OP:mrc  STATUS:               ID:20190306181600     3
 OLDACT:UP  19-03-06 14:23 OP:mrc  STATUS:               ID:20190306181600     3
 OLDACT:REG 19-03-06 14:23 OP:mrc  STATUS:               ID:20190306181600     3
 2019-03-06-1816-00S.MAN___119                                                 6
 STAT SP IPHASW D HRMM SECON CODA AMPLIT PERI AZIMU VELO AIN AR TRES W  DIS CAZ7
 MAPV HZ EP       1818  4.31                              96   -0.2510 56.8 217 
 MAPV HE ES       1818 11.67                              96   -0.1110 56.8 217 
 BENV HZ EP       1818  5.34                              95   -0.9110 67.4 117 
 BENV HN ES       1818 15.22                              95    0.4910 67.4 117 
 TERV HZ EP       1818 13.93                              92   -0.4310  119 255 
 TERV HE ES       1818 29.69                              92    0.8510  119 255 
 TACV HZ EP       1818 14.85                              92   -0.2210  123  95 
 TACV HN ES       1818 30.66                              92    0.5910  123  95 
 BAUV HE ES       1818 35.70                              49    0.0610  144 175 
 BAUV HZ EP       1818 18.20                              49   -0.0710  144 175 
                                                                                
 2019  3 7 0648 41.7 L  10.708 -67.460  5.0F FUN  3 0.6 1.8WFUN                1
 SPEC AVERAGE  MO 11.8 ST0.261 OM  0.9 f0 4.09 R0.3560 AL 2.87 WI 11.0 MW  1.8 3
 SPEC SD       MO  0.1 ST0.310 OM  0.0 f0 1.88 R0.1512 AL      WI      MW  0.1 3
 GAP=305        1.23       9.2     5.9  0.0 -0.2226E+01  0.0000E+00  0.0000E+00E
 SPEC TACVHH N MO 11.8 ST0.068 OM  0.9 f0 3.47 R0.3412 AL 2.49 WI 11.4 MW  1.8 3
 SPEC TACVHH N T 649 6 K 0.020 GD 79.1 VS 3.20 DE 2.60 Q0 65.0 QA 1.10 Q1 1.00 3
 SPEC BENVHH N MO 11.8 ST0.015 OM  0.9 f0 2.16 R0.5481 AL 2.02 WI 10.6 MW  1.8 3
 SPEC BENVHH N T 649 6 K 0.020 GD 84.0 VS 3.20 DE 2.60 Q0 65.0 QA 1.10 Q1 1.00 3
 SPEC BAUVHH N MO 12.0 ST0.699 OM  0.9 f0 6.63 R0.1786 AL 4.10 WI 11.0 MW  1.9 3
 SPEC BAUVHH N T 64937 K 0.020 GD  143 VS 3.20 DE 2.60 Q0 65.0 QA 1.10 Q1 1.00 3
 ACTION:UP  19-03-07 05:39 OP:rap  STATUS:               ID:20190307064700     I
 OLDACT:UP  19-03-07 05:38 OP:rap  STATUS:               ID:20190307064700     3
 OLDACT:REG 19-03-07 05:36 OP:rap  STATUS:               ID:20190307064700     3
 2019-03-07-0647-00S.MAN___119                                                 6
 STAT SP IPHASW D HRMM SECON CODA AMPLIT PERI AZIMU VELO AIN AR TRES W  DIS CAZ7
 TACV HZ EP        648 54.86                              65   -0.3910 78.9 143 
 TACV HN ES        649  5.65                              65    0.3810 78.9 143 
 BENV HZ EP        648 55.40                              65   -0.6510 83.9 190 
 BENV HN ES        649  6.09                              65   -0.5710 83.9 190 
 BAUV HZ EP        649 13.77                              43    0.2710  205 198 
 BAUV HN ES        649 37.97                              43    0.9510  205 198 
                                                                                
 2019  3 7 1732  9.7 L  10.249 -68.139 15.7  FUN  4 0.3 2.2WFUN                1
 SPEC AVERAGE  MO 12.4 ST  3.0 OM  1.5 f0 6.99 R0.1843 AL 1.70 WI 31.2 MW  2.2 3
 SPEC SD       MO  0.2 ST  2.2 OM  0.1 f0 1.73 R0.0609 AL      WI      MW  0.2 3
 GAP=223        0.85       5.5     2.0  4.3  0.4510E+00 -0.8590E+00  0.8576E+01E
 SPEC TERVHH N MO 12.6 ST0.785 OM  1.6 f0 4.10 R0.2888 AL 1.17 WI 37.0 MW  2.4 3
 SPEC TERVHH N T173241 K 0.020 GD  121 VS 3.20 DE 2.60 Q0 65.0 QA 1.10 Q1 1.00 3
 SPEC MAPVHH E MO 12.2 ST  1.8 OM  1.5 f0 7.37 R0.1607 AL 1.66 WI 40.5 MW  2.1 3
 SPEC MAPVHH E T173225 K 0.020 GD 60.0 VS 3.20 DE 2.60 Q0 65.0 QA 1.10 Q1 1.00 3
 SPEC BENVHH N MO 12.2 ST  2.6 OM  1.4 f0 8.64 R0.1370 AL 2.17 WI 24.2 MW  2.1 3
 SPEC BENVHH N T173227 K 0.020 GD 68.9 VS 3.20 DE 2.60 Q0 65.0 QA 1.10 Q1 1.00 3
 SPEC BAUVHH E MO 12.7 ST  6.6 OM  1.6 f0 7.85 R0.1508 AL 1.79 WI 23.3 MW  2.4 3
 SPEC BAUVHH E T173249 K 0.020 GD  145 VS 3.20 DE 2.60 Q0 65.0 QA 1.10 Q1 1.00 3
 ACTION:UP  19-03-07 13:45 OP:mrc  STATUS:               ID:20190307173000     I
 OLDACT:UP  19-03-07 13:44 OP:mrc  STATUS:               ID:20190307173000     3
 OLDACT:UP  19-03-07 13:43 OP:mrc  STATUS:               ID:20190307173000     3
 OLDACT:UP  19-03-07 13:41 OP:mrc  STATUS:               ID:20190307173000     3
 OLDACT:UP  19-03-07 13:38 OP:mrc  STATUS:               ID:20190307173000     3
 OLDACT:REG 19-03-07 13:38 OP:mrc  STATUS:               ID:20190307173000     3
 2019-03-07-1730-00S.MAN___119                                                 6
 STAT SP IPHASW D HRMM SECON CODA AMPLIT PERI AZIMU VELO AIN AR TRES W  DIS CAZ7
 MAPV HZ EP       1732 19.10                             100   -0.6010 57.9 217 
 MAPV HE ES       1732 27.21                             100    0.1310 57.9 217 
 BENV HZ EP       1732 21.04                              98   -0.1310 67.1 118 
 BENV HN ES       1732 29.90                              98    0.2510 67.1 118 
 TERV HZ EP       1732 29.87                              94    0.4310  120 255 
 TERV HN ES       1732 44.09                              94    0.0510  120 255 
 BAUV HE ES       1732 50.44                              49    0.2110  145 176 
 BAUV HZ EP       1732 32.66                              49   -0.3410  145 176 
                                                                                
 2019  3 7 1732  7.4 L  10.378 -68.165 16.8  FUN  4 0.2 2.3WFUN                1
 SPEC AVERAGE  MO 12.5 ST  2.5 OM  1.5 f0 5.22 R0.6512 AL 1.69 WI 31.9 MW  2.3 3
 SPEC SD       MO  0.2 ST  2.2 OM  0.1 f0 2.79 R0.8194 AL      WI      MW  0.1 3
 GAP=239        0.59       3.8     1.5  2.8  0.5965E+00 -0.4373E+00  0.2271E+01E
 SPEC TERVHH N MO 12.4 ST  1.3 OM  1.4 f0 5.63 R0.2103 AL 1.57 WI 35.7 MW  2.2 3
 SPEC TERVHH N T173239 K 0.020 GD  122 VS 3.20 DE 2.60 Q0 65.0 QA 1.10 Q1 1.00 3
 SPEC MAPVHH N MO 12.3 ST  2.6 OM  1.5 f0 7.85 R0.1508 AL 3.16 WI 24.7 MW  2.1 3
 SPEC MAPVHH N T173226 K 0.020 GD 70.5 VS 3.20 DE 2.60 Q0 65.0 QA 1.10 Q1 1.00 3
 SPEC BENVHH N MO 12.4 ST0.001 OM  1.6 f00.572 R2.0699 AL 0.52 WI 35.2 MW  2.2 3
 SPEC BENVHH N T173228 K 0.020 GD 79.0 VS 3.20 DE 2.60 Q0 65.0 QA 1.10 Q1 1.00 3
 SPEC BAUVHH E MO 12.9 ST  6.0 OM  1.7 f0 6.81 R0.1739 AL 1.52 WI 32.1 MW  2.5 3
 SPEC BAUVHH E T173249 K 0.020 GD  159 VS 3.20 DE 2.60 Q0 65.0 QA 1.10 Q1 1.00 3
 ACTION:UP  19-03-08 01:56 OP:icm  STATUS:               ID:20190307173001d    I
 OLDACT:UP  19-03-08 01:55 OP:icm  STATUS:               ID:20190307173001d    3
 OLDACT:UP  19-03-08 01:53 OP:icm  STATUS:               ID:20190307173001d    3
 OLDACT:UP  19-03-08 01:48 OP:icm  STATUS:               ID:20190307173001d    3
 OLDACT:UP  19-03-08 01:48 OP:icm  STATUS:               ID:20190307173001d    3
 OLDACT:UP  19-03-08 01:42 OP:icm  STATUS:               ID:20190307173001d    3
 OLDACT:DUP 19-03-08 01:35 OP:icm  STATUS:               ID:20190307173001d    3
 OLDACT:UP  19-03-07 13:44 OP:mrc  STATUS:               ID:20190307173000     3
 OLDACT:UP  19-03-07 13:43 OP:mrc  STATUS:               ID:20190307173000     3
 OLDACT:UP  19-03-07 13:41 OP:mrc  STATUS:               ID:20190307173000     3
 OLDACT:UP  19-03-07 13:38 OP:mrc  STATUS:               ID:20190307173000     3
 OLDACT:REG 19-03-07 13:38 OP:mrc  STATUS:               ID:20190307173000     3
 2019-03-07-1730-00S.MAN___119                                                 6
 STAT SP IPHASW D HRMM SECON CODA AMPLIT PERI AZIMU VELO AIN AR TRES W  DIS CAZ7
 MAPV HZ EP       1732 19.24                              99    0.1810 68.5 208 
 MAPV HN ES       1732 27.46                              99   -0.2410 68.5 208 
 BENV HZ EP       1732 20.32                              98   -0.1410 77.2 127 
 BENV HN ES       1732 30.30                              98    0.1710 77.2 127 
 TERV HZ EP       1732 27.48                              94    0.0510  121 248 
 TERV HN ES       1732 42.37                              94    0.1210  121 248 
 BAUV HZ EP       1732 31.94                              49   -0.3710  159 175 
 BAUV HE ES       1732 50.97                              49    0.2210  159 175 
                                                                                
 2019  3 7 2031 57.1 L  10.283 -68.131 14.8  FUN  4 0.3 2.0WFUN                1
 SPEC AVERAGE  MO 12.1 ST  4.3 OM  1.2 f0 9.39 R0.1394 AL 2.56 WI 32.6 MW  2.0 3
 SPEC SD       MO  0.3 ST  5.1 OM  0.2 f0 2.55 R0.0498 AL      WI      MW  0.2 3
 GAP=228        0.86       5.6     2.0  4.4  0.9033E+00 -0.8304E+00  0.8480E+01E
 SPEC TERVHH E MO 12.4 ST0.887 OM  1.3 f0 5.28 R0.2242 AL 1.66 WI 36.1 MW  2.2 3
 SPEC TERVHH E T203230 K 0.020 GD  121 VS 3.20 DE 2.60 Q0 65.0 QA 1.10 Q1 1.00 3
 SPEC MAPVHH N MO 11.7 ST  1.5 OM  1.0 f0 10.1 R0.1172 AL 3.58 WI 20.7 MW  1.8 3
 SPEC MAPVHH N T203213 K 0.020 GD 63.2 VS 3.20 DE 2.60 Q0 65.0 QA 1.10 Q1 1.00 3
 SPEC BENVHH N MO 11.8 ST  1.7 OM  1.0 f0 9.87 R0.1200 AL 3.05 WI 43.2 MW  1.8 3
 SPEC BENVHH N T203215 K 0.020 GD 69.9 VS 3.20 DE 2.60 Q0 65.0 QA 1.10 Q1 1.00 3
 SPEC BAUVHH E MO 12.4 ST 13.1 OM  1.3 f0 12.3 R0.0963 AL 1.96 WI 30.4 MW  2.2 3
 SPEC BAUVHH E T203237 K 0.020 GD  148 VS 3.20 DE 2.60 Q0 65.0 QA 1.10 Q1 1.00 3
 ACTION:UP  19-03-07 16:49 OP:icm  STATUS:               ID:20190307203000     I
 OLDACT:UP  19-03-07 16:48 OP:icm  STATUS:               ID:20190307203000     3
 OLDACT:UP  19-03-07 16:41 OP:icm  STATUS:               ID:20190307203000     3
 OLDACT:REG 19-03-07 16:41 OP:icm  STATUS:               ID:20190307203000     3
 2019-03-07-2030-00S.MAN___119                                                 6
 STAT SP IPHASW D HRMM SECON CODA AMPLIT PERI AZIMU VELO AIN AR TRES W  DIS CAZ7
 MAPV HZ EP       2032  7.16                              98   -0.4610 61.4 216 
 MAPV HN ES       2032 15.44                              98    0.0510 61.4 216 
 BENV HZ EP       2032  9.16                              97    0.4410 68.3 121 
 BENV HN ES       2032 17.23                              97   -0.0910 68.3 121 
 TERV HZ EP       2032 16.76                              93   -0.3510  121 253 
 TERV HE ES       2032 32.40                              93    0.4810  121 253 
 BAUV HZ EP       2032 20.73                              49   -0.2010  148 176 
 BAUV HE ES       2032 38.68                              49    0.1210  148 176 
                                                                                
 2019  3 8 0758  8.1 L   9.972 -67.851  5.0F FUN  3 0.2 1.7WFUN                1
 SPEC AVERAGE  MO 11.6 ST0.907 OM  0.6 f0 8.74 R0.2028 AL 2.10 WI 39.3 MW  1.7 3
 SPEC SD       MO  0.0 ST  1.1 OM  0.0 f0 3.64 R0.0815 AL      WI      MW  0.0 3
 GAP=182        0.44       1.7     0.9  0.0 -0.1464E+00  0.0000E+00  0.0000E+00E
 SPEC TERVHH N MO 11.6 ST0.115 OM  0.6 f0 4.65 R0.2546 AL 1.50 WI 31.7 MW  1.7 3
 SPEC TERVHH N T 75848 K 0.020 GD  121 VS 3.20 DE 2.60 Q0 65.0 QA 1.10 Q1 1.00 3
 SPEC BENVHH N MO 11.7 ST0.111 OM  0.5 f0 8.07 R0.2659 AL 2.80 WI 44.0 MW  1.7 3
 SPEC BENVHH N T 75813 K 0.010 GD 28.1 VP 5.80 DE 2.60 Q0500.0 QA 0.70 Q1 1.00 3
 SPEC BAUVHH E MO 11.6 ST  2.5 OM  0.6 f0 13.5 R0.0877 AL 2.01 WI 42.3 MW  1.7 3
 SPEC BAUVHH E T 75840 K 0.020 GD  107 VS 3.20 DE 2.60 Q0 65.0 QA 1.10 Q1 1.00 3
 ACTION:UP  19-03-12 10:07 OP:db   STATUS:               ID:20190308075600     I
 OLDACT:UP  19-03-08 04:13 OP:icm  STATUS:               ID:20190308075600     3
 OLDACT:UP  19-03-08 04:12 OP:icm  STATUS:               ID:20190308075600     3
 OLDACT:UP  19-03-08 04:10 OP:icm  STATUS:               ID:20190308075600     3
 OLDACT:UP  19-03-08 04:06 OP:icm  STATUS:               ID:20190308075600     3
 OLDACT:REG 19-03-08 04:05 OP:icm  STATUS:               ID:20190308075600     3
 2019-03-08-0756-00S.MAN___117                                                 6
 STAT SP IPHASW D HRMM SECON CODA AMPLIT PERI AZIMU VELO AIN AR TRES W  DIS CAZ7
 BENV HZ EP        758 13.17                             102    0.1210 27.7  92 
 BENV HN ES        758 16.72                             102    0.0010 27.7  92 
 BAUV HZ EP        758 27.21                              65   -0.2210  116 190 
 BAUV HE ES        758 41.86                              65    0.1210  116 190 
 TERV HZ EP        758 32.20                              65   -0.2410  147 270 
 TERV HN ES        758 50.67                              65    0.2210  147 270 
                                                                                
 2019  3 9 0356 34.1 L  10.290 -68.069 32.6  FUN  4 0.4 2.0WFUN                1
 SPEC AVERAGE  MO 12.0 ST0.818 OM  0.7 f0 7.41 R0.2034 AL 1.30 WI 18.8 MW  2.0 3
 SPEC SD       MO  0.3 ST0.456 OM  0.3 f0 1.52 R0.0420 AL      WI      MW  0.2 3
 GAP=205        1.07       6.1     3.2  4.0 -0.7173E+00  0.6226E+01 -0.4004E+01E
 SPEC TERVHH N MO 12.0 ST  1.3 OM  0.7 f0 9.16 R0.1575 AL 1.51 WI 17.6 MW  2.0 3
 SPEC TERVHH N T 357 4 K 0.020 GD  132 VS 3.90 DE 2.90 Q0 81.0 QA 1.10 Q1 1.00 3
 SPEC TACVHH N MO 11.7 ST0.124 OM  0.3 f0 5.64 R0.2559 AL 0.42 WI 19.8 MW  1.7 3
 SPEC TACVHH N T 357 4 K 0.020 GD  119 VS 3.90 DE 2.90 Q0 81.0 QA 1.10 Q1 1.00 3
 SPEC BENVHH N MO 11.9 ST0.695 OM  0.8 f0 8.64 R0.1670 AL 2.18 WI 23.3 MW  1.9 3
 SPEC BENVHH N T 35652 K 0.020 GD 70.9 VS 3.90 DE 2.90 Q0 81.0 QA 1.10 Q1 1.00 3
 SPEC BAUVHH E MO 12.5 ST  1.2 OM  1.1 f0 6.19 R0.2331 AL 1.07 WI 14.5 MW  2.3 3
 SPEC BAUVHH E T 35711 K 0.020 GD  152 VS 3.90 DE 2.90 Q0 81.0 QA 1.10 Q1 1.00 3
 ACTION:UP  19-03-09 01:05 OP:y    STATUS:               ID:20190309035300     I
 OLDACT:UP  19-03-09 01:04 OP:y    STATUS:               ID:20190309035300     3
 OLDACT:REG 19-03-09 01:04 OP:y    STATUS:               ID:20190309035300     3
 2019-03-09-0353-00S.MAN___119                                                 6
 STAT SP IPHASW D HRMM SECON CODA AMPLIT PERI AZIMU VELO AIN AR TRES W  DIS CAZ7
 BENV HZ EP        356 45.44                             116   -0.2710 63.0 125 
 BENV HN ES        356 54.22                             116   -0.0810 63.0 125 
 TACV HZ EP        356 52.44                              49    0.2910  115  98 
 TACV HN ES        357  5.25                              49   -0.2610  115  98 
 TERV HZ EP        356 53.63                              49   -0.0410  128 254 
 TERV HN ES        357  7.86                              49   -0.3110  128 254 
 BAUV HZ EP        356 57.07                              49    0.9410  149 179 
 BAUV HE ES        357 12.16                              49   -0.2710  149 179 
                                                                                
 2019  310 1729 48.2 L  10.302 -68.106  8.7  FUN  3 0.4 2.3WFUN                1
 SPEC AVERAGE  MO 12.6 ST  2.2 OM  1.6 f0 6.16 R0.2003 AL 1.76 WI 17.9 MW  2.3 3
 SPEC SD       MO  0.3 ST0.779 OM  0.2 f0 1.28 R0.0386 AL      WI      MW  0.2 3
 GAP=285        0.92      14.2    10.3 34.1  0.1337E+03  0.3094E+03  0.4397E+03E
 SPEC TERVHH N MO 12.4 ST  1.2 OM  1.4 f0 5.71 R0.2074 AL 1.28 WI 18.1 MW  2.2 3
 SPEC TERVHH N T173022 K 0.020 GD  111 VS 3.20 DE 2.60 Q0 65.0 QA 1.10 Q1 1.00 3
 SPEC MAPVHH N MO 12.4 ST  3.0 OM  1.6 f0 7.90 R0.1499 AL 2.88 WI 17.6 MW  2.2 3
 SPEC MAPVHH N T1730 5 K 0.020 GD 65.4 VS 3.20 DE 2.60 Q0 65.0 QA 1.10 Q1 1.00 3
 SPEC BAUVHH E MO 12.9 ST  2.6 OM  1.9 f0 4.86 R0.2436 AL 1.13 WI 18.1 MW  2.6 3
 SPEC BAUVHH E T173029 K 0.020 GD  122 VS 3.20 DE 2.60 Q0 65.0 QA 1.10 Q1 1.00 3
 ACTION:UP  19-03-10 13:37 OP:y    STATUS:               ID:20190310172800     I
 OLDACT:UP  19-03-10 13:36 OP:y    STATUS:               ID:20190310172800     3
 OLDACT:UP  19-03-10 13:36 OP:elv  STATUS:               ID:20190310172800     3
 OLDACT:REG 19-03-10 13:35 OP:elv  STATUS:               ID:20190310172800     3
 2019-03-10-1728-00S.MAN___119                                                 6
 STAT SP IPHASW D HRMM SECON CODA AMPLIT PERI AZIMU VELO AIN AR TRES W  DIS CAZ7
 MAPV HZ EP       1729 59.09                              65   -0.0810 64.8 216 
 MAPV HN ES       1730  7.36                              65    0.0410 64.8 216 
 TERV HZ EP       1730  8.20                              65   -0.4910  125 253 
 TERV HN ES       1730 24.16                              65    0.2810  125 253 
 BAUV HZ EP       1730 13.30                              65    0.5610  150 177 
 BAUV HE ES       1730 30.61                              65   -0.3210  150 177 
                                                                                
