 2019  3 3 0648 51.3 L  10.264 -68.133  3.8  FUN  9 0.4 2.9WFUN                1
 SPEC AVERAGE  MO 13.5 ST 20.7 OM  2.4 f0 6.41 R0.1972 AL 1.94 WI 22.6 MW  2.9 3
 SPEC SD       MO  0.3 ST  9.1 OM  0.2 f0 1.86 R0.0442 AL      WI      MW  0.2 3
 GAP=187        1.05       3.5     1.6  4.9 -0.1492E+01  0.6890E+00  0.2865E+01E
 SPEC SOCVHH E MO 13.7 ST 29.6 OM  2.5 f0 5.90 R0.2007 AL 2.13 WI 31.7 MW  3.1 3
 SPEC SOCVHH E T 65019 K 0.020 GD  192 VS 3.20 DE 2.60 Q0 65.0 QA 1.10 Q1 1.00 3
 SPEC SDV BH 2 MO 13.9 ST 22.1 OM  2.7 f0 4.72 R0.2508 AL 0.94 WI 18.1 MW  3.2 3
 SPEC SDV BH 2 T 65010 K 0.020 GD  177 VS 3.20 DE 2.60 Q0 65.0 QA 1.10 Q1 1.00 3
 SPEC FUNVHH N MO 13.5 ST 13.8 OM  2.5 f0 5.34 R0.2217 AL 2.31 WI 16.3 MW  3.0 3
 SPEC FUNVHH N T 64931 K 0.020 GD  121 VS 3.20 DE 2.60 Q0 65.0 QA 1.10 Q1 1.00 3
 SPEC CACVHH N MO 13.4 ST  9.0 OM  2.2 f0 4.96 R0.2387 AL 1.13 WI 28.2 MW  2.9 3
 SPEC CACVHH N T 65024 K 0.020 GD  196 VS 3.20 DE 2.60 Q0 65.0 QA 1.10 Q1 1.00 3
 SPEC TERVHH E MO 13.4 ST 11.7 OM  2.4 f0 5.64 R0.2099 AL 1.60 WI 19.8 MW  2.9 3
 SPEC TERVHH E T 64924 K 0.020 GD  110 VS 3.20 DE 2.60 Q0 65.0 QA 1.10 Q1 1.00 3
 SPEC TACVHH N MO 13.1 ST 38.1 OM  2.1 f0 10.5 R0.1128 AL 3.05 WI 23.3 MW  2.7 3
 SPEC TACVHH N T 64926 K 0.020 GD  110 VS 3.20 DE 2.60 Q0 65.0 QA 1.10 Q1 1.00 3
 SPEC BENVHH N MO 13.1 ST 18.7 OM  2.3 f0 8.37 R0.1415 AL 2.96 WI 23.3 MW  2.7 3
 SPEC BENVHH N T 64911 K 0.020 GD 67.4 VS 3.20 DE 2.60 Q0 65.0 QA 1.10 Q1 1.00 3
 SPEC BAUVHH E MO 13.6 ST 23.0 OM  2.6 f0 5.87 R0.2017 AL 1.42 WI 19.8 MW  3.0 3
 SPEC BAUVHH E T 64931 K 0.020 GD  120 VS 3.20 DE 2.60 Q0 65.0 QA 1.10 Q1 1.00 3
 ACTION:UP  19-03-03 03:52 OP:y    STATUS:               ID:20190303064700     I
 OLDACT:UP  19-03-03 03:52 OP:y    STATUS:               ID:20190303064700     3
 OLDACT:UP  19-03-03 03:51 OP:y    STATUS:               ID:20190303064700     3
 OLDACT:UP  19-03-03 03:31 OP:y    STATUS:               ID:20190303064700     3
 OLDACT:UP  19-03-03 03:22 OP:elv  STATUS:               ID:20190303064700     3
 OLDACT:UP  19-03-03 03:21 OP:elv  STATUS:               ID:20190303064700     3
 OLDACT:UP  19-03-03 03:21 OP:elv  STATUS:               ID:20190303064700     3
 OLDACT:REG 19-03-03 03:20 OP:elv  STATUS:               ID:20190303064700     3
 2019-03-03-0647-00S.MAN___119                                                 6
 STAT SP IPHASW D HRMM SECON CODA AMPLIT PERI AZIMU VELO AIN AR TRES W  DIS CAZ7
 BENV HN ES        649 11.99                              65    0.1110 67.3 120 
 TERV HZ EP        649 11.57                              65   -0.0410  121 254 
 TERV HE ES        649 26.30                              65   -0.3010  121 254 
 TACV HZ EP        649 12.20                              65    0.3910  122  96 
 TACV HN ES        649 27.12                              65    0.1610  122  96 
 BAUV HE ES        649 32.73                              65   -0.9110  146 176 
 FUNV HZ EP        649 15.38                              65   -0.3710  147  81 
 FUNV HN ES        649 32.99                              65   -0.8210  147  81 
 SDV  BZ EP        649 36.60                              43    0.0410  314 241 
 SDV  B2 ES        650 10.27                              43    0.2510  314 241 
 SOCV HZ EP        649 43.53                              43    0.2810  371 234 
 SOCV HE ES        650 21.47                              43   -0.1810  371 234 
 CACV HZ EP        649 45.17                              43    0.1610  386 142 
 CACV HN ES        650 25.07                              43    0.3510  386 142 
 PCRV HZ EP        649 45.25                              43   -0.1110  388  91 
 PCRV HE ES        650 25.43                              43    0.1110  388  91 
 BENV HZ EP        649  3.56                              65    0.4110 67.3 120 
 BAUV HZ EP        649 16.11                              65    0.4610  146 176 
                                                                                
 2019  3 3 0801 31.9 L  10.261 -68.106  2.1  FUN  3 0.1 2.1WFUN                1
 SPEC AVERAGE  MO 12.3 ST  1.3 OM  1.4 f0 4.83 R0.8685 AL 1.62 WI 20.5 MW  2.1 3
 SPEC SD       MO  0.2 ST  1.3 OM  0.3 f0 4.09 R0.7358 AL      WI      MW  0.1 3
 GAP=279        0.44       2.7     2.3  3.3 -0.3861E+01  0.2327E+01 -0.9574E+00E
 SPEC BENVHH E MO 12.5 ST0.003 OM  1.7 f00.738 R1.6043 AL 1.28 WI 24.7 MW  2.3 3
 SPEC BENVHH E T 8 150 K 0.020 GD 64.7 VS 3.20 DE 2.60 Q0 65.0 QA 1.10 Q1 1.00 3
 SPEC BAUVHH E MO 12.1 ST  2.6 OM  1.1 f0 8.92 R0.1327 AL 1.96 WI 16.3 MW  2.0 3
 SPEC BAUVHH E T 8 213 K 0.020 GD  120 VS 3.20 DE 2.60 Q0 65.0 QA 1.10 Q1 1.00 3
 ACTION:UP  19-03-03 04:31 OP:elv  STATUS:               ID:20190303080000     I
 OLDACT:UP  19-03-03 04:15 OP:y    STATUS:               ID:20190303080000     3
 OLDACT:UP  19-03-03 04:15 OP:y    STATUS:               ID:20190303080000     3
 OLDACT:UP  19-03-03 04:14 OP:y    STATUS:               ID:20190303080000     3
 OLDACT:REG 19-03-03 04:13 OP:elv  STATUS:               ID:20190303080000     3
 2019-03-03-0800-00S.MAN___119                                                 6
 STAT SP IPHASW D HRMM SECON CODA AMPLIT PERI AZIMU VELO AIN AR TRES W  DIS CAZ7
 BENV HZ EP        8 1 42.99                              92   -0.2310 64.7 121 
 BENV HE ES        8 1 51.76                              92    0.1310 64.7 121 
 TACV HZ EP        8 1 52.14                              65    0.1510  119  96 
 TACV HE ES        8 2  6.80                              65   -0.0910  119  96 
 BAUV HE ES        8 2 14.18                              65   -0.0510  146 177 
 BAUV HZ EP        8 1 56.29                              65    0.0810  146 177 
                                                                                
 2019  3 4 1948 18.3 L  10.029 -67.993  1.3  FUN  7 0.5 2.4WFUN                1
 SPEC AVERAGE  MO 12.7 ST  1.8 OM  1.7 f0 5.29 R0.2470 AL 1.43 WI 21.4 MW  2.4 3
 SPEC SD       MO  0.3 ST  1.0 OM  0.2 f0 1.64 R0.0783 AL      WI      MW  0.2 3
 GAP=121        1.43       3.2     2.1  5.7  0.7275E+00 -0.5416E+00  0.7474E+00E
 SPEC TERVHH N MO 12.8 ST0.890 OM  1.8 f0 3.73 R0.3174 AL 0.97 WI 24.7 MW  2.5 3
 SPEC TERVHH N T194855 K 0.020 GD  114 VS 3.20 DE 2.60 Q0 65.0 QA 1.10 Q1 1.00 3
 SPEC TACVHH N MO 12.4 ST0.905 OM  1.4 f0 5.28 R0.2242 AL 1.07 WI 22.5 MW  2.2 3
 SPEC TACVHH N T194848 K 0.020 GD  103 VS 3.20 DE 2.60 Q0 65.0 QA 1.10 Q1 1.00 3
 SPEC MAPVHH N MO 12.4 ST  3.0 OM  1.7 f0 7.73 R0.1532 AL 2.93 WI 21.1 MW  2.2 3
 SPEC MAPVHH N T194834 K 0.020 GD 55.4 VS 3.20 DE 2.60 Q0 65.0 QA 1.10 Q1 1.00 3
 SPEC JACVHH N MO 13.1 ST0.916 OM  2.0 f0 3.07 R0.3857 AL 1.62 WI 15.4 MW  2.7 3
 SPEC JACVHH N T1949 5 K 0.020 GD  122 VS 3.20 DE 2.60 Q0 65.0 QA 1.10 Q1 1.00 3
 SPEC CACVHH N MO 12.8 ST  1.4 OM  1.6 f0 4.30 R0.2753 AL 1.27 WI 37.4 MW  2.5 3
 SPEC CACVHH N T194947 K 0.020 GD  188 VS 3.20 DE 2.60 Q0 65.0 QA 1.10 Q1 1.00 3
 SPEC BENVHH N MO 12.2 ST  1.7 OM  1.6 f0 7.38 R0.1604 AL 1.09 WI 18.1 MW  2.1 3
 SPEC BENVHH N T194830 K 0.020 GD 43.8 VS 3.20 DE 2.60 Q0 65.0 QA 1.10 Q1 1.00 3
 SPEC BAUVHH N MO 12.9 ST  3.5 OM  1.9 f0 5.56 R0.2129 AL 1.03 WI 10.6 MW  2.5 3
 SPEC BAUVHH N T194853 K 0.020 GD  109 VS 3.20 DE 2.60 Q0 65.0 QA 1.10 Q1 1.00 3
 ACTION:UP  19-03-04 16:13 OP:they STATUS:               ID:20190304194700     I
 OLDACT:UP  19-03-04 16:13 OP:they STATUS:               ID:20190304194700     3
 OLDACT:UP  19-03-04 16:12 OP:they STATUS:               ID:20190304194700     3
 OLDACT:UP  19-03-04 16:11 OP:they STATUS:               ID:20190304194700     3
 OLDACT:REG 19-03-04 16:11 OP:they STATUS:               ID:20190304194700     3
 2019-03-04-1947-00S.MAN___119                                                 6
 STAT SP IPHASW D HRMM SECON CODA AMPLIT PERI AZIMU VELO AIN AR TRES W  DIS CAZ7
 BENV HZ EP       1948 25.87                              93   -0.1010 43.8 100 
 BENV HN ES       1948 31.55                              93   -0.1210 43.8 100 
 MAPV HZ EP       1948 27.72                              92   -0.2810 55.4 247 
 MAPV HN ES       1948 35.18                              92   -0.0210 55.4 247 
 TACV HZ EP       1948 36.24                              65   -0.2410  107  83 
 TACV HN ES       1948 49.67                              65   -0.2910  107  83 
 BAUV HZ EP       1948 39.56                              65    0.9510  120 183 
 BAUV HN ES       1948 54.19                              65    0.5310  120 183 
 TERV HZ EP       1948 39.60                              65   -0.8410  132 267 
 TERV HN ES       1948 56.11                              65   -0.7410  132 267 
 JACV HZ EP       1948 44.15                              65    1.0210  149 322 
 JACV HN ES       1949  1.94                              65    0.4210  149 322 
 CACV HZ EP       1949  8.57                              43   -0.0810  356 142 
 CACV HN ES       1949 45.72                              43   -0.2210  356 142 
                                                                                
 2019  3 5 2106 25.6 L  10.266 -68.131 15.2  FUN  4 0.3 2.2WFUN                1
 SPEC AVERAGE  MO 12.4 ST0.790 OM  1.4 f0 4.45 R0.9443 AL 1.45 WI 20.0 MW  2.2 3
 SPEC SD       MO  0.2 ST0.483 OM  0.1 f0 2.67 R1.2594 AL      WI      MW  0.1 3
 GAP=226        0.74       4.8     1.7  3.8  0.5594E+00 -0.6071E+00  0.6504E+01E
 SPEC TERVHH N MO 12.4 ST  1.1 OM  1.3 f0 5.63 R0.2103 AL 1.32 WI 20.7 MW  2.2 3
 SPEC TERVHH N T21 657 K 0.020 GD  121 VS 3.20 DE 2.60 Q0 65.0 QA 1.10 Q1 1.00 3
 SPEC MAPVHH E MO 12.0 ST  1.3 OM  1.3 f0 7.69 R0.1540 AL 2.47 WI 16.3 MW  2.0 3
 SPEC MAPVHH E T21 643 K 0.020 GD 61.8 VS 3.20 DE 2.60 Q0 65.0 QA 1.10 Q1 1.00 3
 SPEC BENVHH N MO 12.4 ST0.000 OM  1.6 f00.379 R3.1240 AL 0.82 WI 22.5 MW  2.2 3
 SPEC BENVHH N T21 644 K 0.020 GD 69.0 VS 3.20 DE 2.60 Q0 65.0 QA 1.10 Q1 1.00 3
 SPEC BAUVHH E MO 12.7 ST0.816 OM  1.5 f0 4.10 R0.2888 AL 1.19 WI 20.7 MW  2.4 3
 SPEC BAUVHH E T21 7 3 K 0.020 GD  147 VS 3.20 DE 2.60 Q0 65.0 QA 1.10 Q1 1.00 3
 ACTION:UP  19-03-05 17:15 OP:elv  STATUS:               ID:20190305210400     I
 OLDACT:UP  19-03-05 17:14 OP:elv  STATUS:               ID:20190305210400     3
 OLDACT:UP  19-03-05 17:13 OP:elv  STATUS:               ID:20190305210400     3
 OLDACT:REG 19-03-05 17:13 OP:elv  STATUS:               ID:20190305210400     3
 2019-03-05-2104-00S.MAN___119                                                 6
 STAT SP IPHASW D HRMM SECON CODA AMPLIT PERI AZIMU VELO AIN AR TRES W  DIS CAZ7
 MAPV HZ EP       21 6 35.52                              99   -0.3510 59.9 217 
 MAPV HE ES       21 6 43.78                              99    0.3010 59.9 217 
 BENV HZ EP       21 6 37.00                              97   -0.0610 67.3 120 
 BENV HN ES       21 6 45.50                              97   -0.0410 67.3 120 
 TERV HZ EP       21 6 45.89                              94    0.3710  121 254 
 TERV HN ES       21 6 59.93                              94   -0.3410  121 254 
 BAUV HZ EP       21 6 49.43                              49    0.3010  147 176 
 BAUV HE ES       21 7  6.38                              49   -0.1810  147 176 
                                                                                
 2019  3 5 2248 52.7 L  10.322 -67.768  2.4  FUN  9 0.7 3.4WFUN                1
 SPEC AVERAGE  MO 14.2 ST 57.2 OM  3.1 f0 4.51 R0.4599 AL 1.62 WI 22.8 MW  3.4 3
 SPEC SD       MO  0.2 ST 47.6 OM  0.2 f0 1.87 R0.5130 AL      WI      MW  0.1 3
 GAP=185        2.01       5.8     3.2  7.2 -0.4783E+01  0.5486E+01 -0.1178E+02E
 SPEC TERVHH E MO 14.3 ST 73.7 OM  3.2 f0 5.37 R0.2205 AL 2.02 WI 23.8 MW  3.4 3
 SPEC TERVHH E T224936 K 0.020 GD  126 VS 3.20 DE 2.60 Q0 65.0 QA 1.10 Q1 1.00 3
 SPEC SOCVHH E MO 14.1 ST 87.7 OM  2.8 f0 6.63 R0.1786 AL 1.91 WI 18.9 MW  3.3 3
 SPEC SOCVHH E T225030 K 0.020 GD  201 VS 3.20 DE 2.60 Q0 65.0 QA 1.10 Q1 1.00 3
 SPEC PCRVHH E MO 14.4 ST0.281 OM  3.2 f00.738 R1.6043 AL 1.23 WI 25.1 MW  3.6 3
 SPEC PCRVHH E T225017 K 0.020 GD  186 VS 3.20 DE 2.60 Q0 65.0 QA 1.10 Q1 1.00 3
 SPEC FUNVHH N MO 14.0 ST 17.9 OM  3.0 f0 4.19 R0.2826 AL 2.11 WI 15.9 MW  3.3 3
 SPEC FUNVHH N T224921 K 0.020 GD  102 VS 3.20 DE 2.60 Q0 65.0 QA 1.10 Q1 1.00 3
 SPEC CACVHH E MO 14.0 ST 25.1 OM  2.8 f0 4.44 R0.2667 AL 1.27 WI 31.3 MW  3.3 3
 SPEC CACVHH E T225021 K 0.020 GD  191 VS 3.20 DE 2.60 Q0 65.0 QA 1.10 Q1 1.00 3
 SPEC BAUVHH E MO 14.4 ST138.4 OM  3.4 f0 5.72 R0.2070 AL 1.16 WI 22.0 MW  3.6 3
 SPEC BAUVHH E T224935 K 0.020 GD  124 VS 3.20 DE 2.60 Q0 65.0 QA 1.10 Q1 1.00 3
 ACTION:UP  19-03-05 19:17 OP:elv  STATUS:               ID:20190305224700     I
 OLDACT:UP  19-03-05 19:16 OP:elv  STATUS:               ID:20190305224700     3
 OLDACT:UP  19-03-05 19:15 OP:elv  STATUS:               ID:20190305224700     3
 OLDACT:UP  19-03-05 19:15 OP:elv  STATUS:               ID:20190305224700     3
 OLDACT:UP  19-03-05 19:12 OP:elv  STATUS:               ID:20190305224700     3
 OLDACT:UP  19-03-05 18:55 OP:elv  STATUS:               ID:20190305224700     3
 OLDACT:UP  19-03-05 18:54 OP:elv  STATUS:               ID:20190305224700     3
 OLDACT:UP  19-03-05 18:54 OP:elv  STATUS:               ID:20190305224700     3
 OLDACT:UP  19-03-05 18:54 OP:elv  STATUS:               ID:20190305224700     3
 OLDACT:UP  19-03-05 18:53 OP:elv  STATUS:               ID:20190305224700     3
 OLDACT:UP  19-03-05 18:52 OP:elv  STATUS:               ID:20190305224700     3
 OLDACT:REG 19-03-05 18:52 OP:elv  STATUS:               ID:20190305224700     3
 2019-03-05-2247-00S.MAN___119                                                 6
 STAT SP IPHASW D HRMM SECON CODA AMPLIT PERI AZIMU VELO AIN AR TRES W  DIS CAZ7
 BENV HZ EP     D 2249  1.05                              94    0.6710 43.9 155 
 BENV HE ES       2249  6.20                              94    0.1110 43.9 155 
 TACV HZ EP       2249  6.38                              65   -0.7910 83.7 104 
 TACV HN ES       2249 17.94                              65    0.0410 83.7 104 
 FUNV HZ EP       2249 10.07                              65   -0.6810  106  81 
 FUNV HN ES       2249 22.86                              65   -1.2810  106  81 
 BAUV HZ EP       2249 18.20                              65   -0.3010  155 191 
 BAUV HE ES       2249 37.28                              65   -0.3410  155 191 
 TERV HZ EP       2249 19.23                              65   -0.1810  161 256 
 TERV HE ES       2249 38.47                              65   -0.7410  161 256 
 PCRV HZ EP       2249 44.06                              43    1.9910  349  93 
 PCRV HE ES       2250 19.36                              43    0.7310  349  93 
 SDV  BZ EP       2249 42.69                              43    0.0110  352 243 
 SDV  B2 ES       2250 19.67                              43   -0.0210  352 243 
 CACV HZ EP       2249 44.79                              43    0.4110  368 148 
 CACV HE ES       2250 22.04                              43   -0.6110  368 148 
 SOCV HZ EP       2249 50.12                              43    0.9810  407 237 
 SOCV HE ES       2250 30.95                              43    0.0110  407 237 
                                                                                
 2019  3 6 0438 55.4 L  10.443 -68.574  2.4  FUN  3 0.2 2.1WFUN                1
 SPEC AVERAGE  MO 12.2 ST0.249 OM  1.2 f0 3.71 R0.5297 AL 1.32 WI 17.6 MW  2.1 3
 SPEC SD       MO  0.3 ST0.202 OM  0.2 f0 1.89 R0.4155 AL      WI      MW  0.2 3
 GAP=244        0.63      25.0     3.2 21.2 -0.6716E+02 -0.5647E+02  0.5133E+03E
 SPEC TERVHH E MO 11.8 ST0.235 OM  0.9 f0 5.34 R0.2217 AL 1.10 WI 19.8 MW  1.8 3
 SPEC TERVHH E T 43920 K 0.020 GD 85.9 VS 3.20 DE 2.60 Q0 65.0 QA 1.10 Q1 1.00 3
 SPEC BENVHH E MO 12.5 ST0.009 OM  1.5 f0 1.06 R1.1170 AL 1.28 WI 19.4 MW  2.3 3
 SPEC BENVHH E T 43929 K 0.020 GD  109 VS 3.20 DE 2.60 Q0 65.0 QA 1.10 Q1 1.00 3
 SPEC BAUVHH E MO 12.3 ST0.503 OM  1.2 f0 4.73 R0.2503 AL 1.59 WI 13.6 MW  2.1 3
 SPEC BAUVHH E T 43943 K 0.020 GD  132 VS 3.20 DE 2.60 Q0 65.0 QA 1.10 Q1 1.00 3
 ACTION:UP  19-03-06 06:17 OP:elv  STATUS:               ID:20190306043700     I
 OLDACT:UP  19-03-06 06:17 OP:elv  STATUS:               ID:20190306043700     3
 OLDACT:UP  19-03-06 06:16 OP:elv  STATUS:               ID:20190306043700     3
 OLDACT:REG 19-03-06 06:15 OP:elv  STATUS:               ID:20190306043700     3
 2019-03-06-0437-00S.MAN___119                                                 6
 STAT SP IPHASW D HRMM SECON CODA AMPLIT PERI AZIMU VELO AIN AR TRES W  DIS CAZ7
 TERV HZ EP        439  9.84                              65   -0.3710 85.9 232 
 TERV HE ES        439 21.41                              65    0.2110 85.9 232 
 BENV HZ EP        439 15.62                              65    0.1010  119 116 
 BENV HE ES        439 30.38                              65   -0.0610  119 116 
 BAUV HZ EP        439 24.20                              43    0.2710  176 161 
 BAUV HE ES        439 44.90                              43   -0.1610  176 161 
                                                                                
 2019  3 6 0721 24.9 L  10.311 -68.124 17.7  FUN  4 0.3 2.4WFUN                1
 SPEC AVERAGE  MO 12.6 ST0.792 OM  1.6 f0 3.16 R0.7639 AL 1.15 WI 22.6 MW  2.4 3
 SPEC SD       MO  0.2 ST0.567 OM  0.1 f0 1.87 R0.6886 AL      WI      MW  0.1 3
 GAP=207        0.71       6.0     1.5  4.7  0.1018E+01  0.1444E+01  0.1896E+02E
 SPEC TERVHH E MO 12.5 ST  1.3 OM  1.5 f0 5.20 R0.2277 AL 1.80 WI 16.7 MW  2.3 3
 SPEC TERVHH E T 72159 K 0.020 GD  124 VS 3.20 DE 2.60 Q0 65.0 QA 1.10 Q1 1.00 3
 SPEC BENVHH E MO 12.4 ST0.002 OM  1.6 f00.682 R1.7361 AL 0.65 WI 25.5 MW  2.2 3
 SPEC BENVHH E T 72144 K 0.020 GD 71.5 VS 3.20 DE 2.60 Q0 65.0 QA 1.10 Q1 1.00 3
 SPEC BAUVHH E MO 12.9 ST  1.1 OM  1.8 f0 3.61 R0.3280 AL 1.01 WI 25.5 MW  2.6 3
 SPEC BAUVHH E T 722 3 K 0.020 GD  152 VS 3.20 DE 2.60 Q0 65.0 QA 1.10 Q1 1.00 3
 ACTION:UP  19-03-06 06:21 OP:elv  STATUS:               ID:20190306071900     I
 OLDACT:UP  19-03-06 06:21 OP:elv  STATUS:               ID:20190306071900     3
 OLDACT:UP  19-03-06 06:20 OP:elv  STATUS:               ID:20190306071900     3
 OLDACT:UP  19-03-06 06:19 OP:elv  STATUS:               ID:20190306071900     3
 OLDACT:REG 19-03-06 06:19 OP:elv  STATUS:               ID:20190306071900     3
 2019-03-06-0719-00S.MAN___119                                                 6
 STAT SP IPHASW D HRMM SECON CODA AMPLIT PERI AZIMU VELO AIN AR TRES W  DIS CAZ7
 BENV HZ EP        721 36.30                             100   -0.4410 69.3 124 
 BENV HE ES        721 45.77                             100    0.2710 69.3 124 
 TACV HZ EP        721 44.99                              95   -0.0110  122  99 
 TACV HE ES        721 59.86                              95   -0.0210  122  99 
 TERV HZ EP        721 45.26                              95    0.0610  123 252 
 TERV HE ES        722  0.18                              95   -0.0510  123 252 
 BAUV HZ EP        721 49.23                              49    0.4410  151 177 
 BAUV HE ES        722  6.21                              49   -0.2610  151 177 
                                                                                
